{"type":"FeatureCollection","name":"반송초_지적도기반_보정오버레이_1차","metadata":{"crs":"EPSG:4326","purpose":"현재 공공 GIS를 직접 덮어쓰지 않고 원자료로 확정 가능한 지번 경계만 표시하는 검토용 오버레이","excluded":"아파트 동/건물명으로만 지정된 10통,14~17통,20통 등은 건물경계 확인 전 제외","caution":"238번지는 원자료상 반석초 공동학구로 별도 유지"},"features":[{"type":"Feature","properties":{"name":"반송초 단독_직접지번_1차","school":"반송초등학교","zone_type":"통학구역","basis":"2026학년도 통학구역 원자료의 직접 지번 조건 + 2026-09-08 연속지적도","source_rows":"403,404,410,411,413,414","status":"1차 보정 오버레이(전체 통학구역 대체본 아님)","notes":"238번지 제외. 건물/아파트 동 조건은 포함하지 않음.","parcel_count":482},"geometry":{"type":"MultiPolygon","coordinates":[[[[127.0661778018455,37.191929945948345],[127.06614606144983,37.19195411129903],[127.06611601160029,37.191979627288134],[127.06608776484799,37.19200640375101],[127.06607054830633,37.192024614260994],[127.06606132111672,37.19203435058434],[127.06603668040722,37.19206346778933],[127.06601418037401,37.19209348486947],[127.06599337050736,37.19212440207119],[127.06598246123193,37.192142789344175],[127.06597458861567,37.19215612910696],[127.06595817250833,37.19218857568937],[127.06594423496898,37.19222192196729],[127.06592839575305,37.192270587056974],[127.06588346529843,37.19241288661729],[127.06584325253608,37.1925404064442],[127.06583213197108,37.19257537305976],[127.06578450516885,37.192726053765014],[127.06573721537785,37.19287592332342],[127.06570778538521,37.192969017300946],[127.06569756710154,37.19300560529481],[127.0656931929441,37.19302732286698],[127.06569005221482,37.193042552241415],[127.06568512802333,37.193079768097796],[127.06568290716021,37.19311725280319],[127.06568327677122,37.19315473610521],[127.06568532537698,37.19317987417117],[127.06568634941347,37.193192127838266],[127.0656921250146,37.19322933789761],[127.06570060342607,37.193266186073814],[127.06571133428571,37.19330285281945],[127.06572386356794,37.193335193569816],[127.06577837474339,37.19346617605491],[127.06583277271301,37.19359625752779],[127.06585402439295,37.193554527573944],[127.06596526384577,37.193508603883416],[127.06605432282753,37.193471792735245],[127.06610513540467,37.193491137524155],[127.0660692022557,37.19335392785295],[127.0660475063378,37.193270502841735],[127.0660424191425,37.19324833988843],[127.06603914092364,37.19323428536092],[127.0660339288359,37.193197705743685],[127.06603175759408,37.19316094426085],[127.06603218173663,37.193129948057],[127.06603608757328,37.1930874165714],[127.06604258901596,37.19305092067808],[127.06605415431777,37.19300919596023],[127.06608975785544,37.19289186040157],[127.06612468765994,37.19277704812556],[127.06616029159454,37.192660433377604],[127.06617096135246,37.19262528676867],[127.06620881125595,37.19250110199246],[127.06621701167938,37.19247595833557],[127.06622229198793,37.19246045746335],[127.06623847640031,37.192420532292005],[127.06625713915585,37.192381236495926],[127.06627063361529,37.19235672067361],[127.06627828040507,37.19234275028299],[127.06630167496557,37.192305163879624],[127.06632743553993,37.192268567327496],[127.06634453636555,37.192246752660836],[127.06635533694677,37.192233050852856],[127.06638549181216,37.192198614392545],[127.06641767503275,37.1921654382774],[127.06643781930846,37.19214659538091],[127.06645177397958,37.192133522567474],[127.06648801406203,37.19210304734672],[127.06652617017852,37.19207419294592],[127.06655262124906,37.19205498615018],[127.06665966360475,37.19197734728552],[127.06678527772824,37.19188627250847],[127.06689074375615,37.1918097155566],[127.06701072938546,37.191722608246174],[127.0671307147391,37.19163550081319],[127.06725013707259,37.19154884409293],[127.0673146316939,37.19150195389896],[127.06733691696812,37.191484821645815],[127.0673577369872,37.19146642873845],[127.06737585387314,37.191447947225576],[127.06739408055886,37.191426221883304],[127.06740937893723,37.191404498166925],[127.06747967897607,37.19129903666315],[127.06751724717776,37.191242610259096],[127.06752365645943,37.191230622776224],[127.06752758732797,37.19121791583723],[127.0675290401767,37.191204939965075],[127.0675285782178,37.191191784950675],[127.06752473777883,37.191178992237155],[127.06751819493385,37.19116692186591],[127.06750928795536,37.19115602417106],[127.06749903016814,37.19114593816938],[127.0674866338147,37.19113738513587],[127.06747277488844,37.19113063500744],[127.06745779095462,37.191125327177225],[127.06744190781367,37.19112209225137],[127.06742557604831,37.19112102008343],[127.06740924600608,37.19112193021356],[127.06739303031202,37.191124822579084],[127.06735249521793,37.19113682902489],[127.0673122990849,37.19115009673295],[127.06730182826708,37.191154067150414],[127.06727300535587,37.19116498580931],[127.06723472665529,37.191181496192364],[127.067197800939,37.191199717800316],[127.0671621155009,37.19121956059228],[127.06713296090294,37.19123768776888],[127.06709514097994,37.191263839044844],[127.0670046459305,37.19132957535845],[127.06688331024797,37.1914176745638],[127.06676343750347,37.19150469158282],[127.06664356456122,37.19159179858409],[127.06653809858624,37.191668355318754],[127.06641248460318,37.19175951994161],[127.06631219579005,37.19183228924414],[127.06618826967834,37.19192228134406],[127.0661778018455,37.191929945948345]]],[[[127.06716005646001,37.191052778113814],[127.06704196669847,37.19111672765336],[127.06680031015662,37.19129373640333],[127.06637065750265,37.1915783425071],[127.06577063227658,37.19203847320872],[127.06565280309623,37.192147383402244],[127.06561998651729,37.192231108325835],[127.06561290633775,37.192249313283305],[127.06567863757907,37.19233091245524],[127.06564995422315,37.19250762307556],[127.06550045781673,37.1929959806257],[127.06545402061334,37.19308926393213],[127.0654269314838,37.19315397363297],[127.06542244605392,37.193177403241535],[127.06549521194805,37.193319458873816],[127.06553799977887,37.193439274834425],[127.06564964987649,37.19361248552439],[127.06563320969394,37.1936169996518],[127.06572343692605,37.193762379549824],[127.06577986190547,37.19389191931434],[127.06575935130556,37.19401086845839],[127.06572199821012,37.19405846391621],[127.06560611322695,37.194206027828116],[127.0656233957449,37.19426512706548],[127.06564775240588,37.1942986327767],[127.06567196283234,37.19429240245337],[127.06570012106386,37.194292927827824],[127.0657614501795,37.19436110373128],[127.06582378766079,37.194422881631525],[127.0659622156098,37.194560125742235],[127.06608941557877,37.194738103064424],[127.0661862819308,37.19487365756678],[127.06621965982441,37.19491914213622],[127.06624275338976,37.194923814956795],[127.06624578614614,37.19491408200883],[127.06626622822684,37.19484739347353],[127.06625808848939,37.194811986835546],[127.06594353868701,37.19445101928943],[127.06592256782696,37.19442580141803],[127.06590396139543,37.19439959110763],[127.06588738157365,37.194372478647445],[127.06587294099114,37.194344463977096],[127.06586063995204,37.19431590751545],[127.06585059108514,37.19428680920197],[127.06584279446463,37.19425725914176],[127.06583725024083,37.19422743754428],[127.0658340711186,37.1941974344532],[127.06583348235694,37.19416724974642],[127.06583490080598,37.19398055233174],[127.06583396414062,37.19393856411537],[127.06583066231208,37.1938966672873],[127.06582477013983,37.19385495207417],[127.0658165128889,37.193813418353336],[127.06580589079232,37.19377233643783],[127.06579290377732,37.19373161622256],[127.06577755207667,37.19369152802026],[127.06563963867178,37.193361369514804],[127.06562394969554,37.193321822099975],[127.0656120892278,37.193281191356625],[127.06560281902364,37.193240288896824],[127.06559636426165,37.19319902449486],[127.0655929502724,37.19315748813378],[127.06559246464991,37.19311595018846],[127.06559490731331,37.193074320554345],[127.0656003911916,37.19303295958852],[127.06560880372685,37.19299195745599],[127.06562037024882,37.19295140413881],[127.06584569928879,37.19223828444542],[127.06585794378438,37.19220061407855],[127.06587334238529,37.19216357272886],[127.06589167013752,37.19212752093574],[127.0659125890011,37.1920922786724],[127.06593542328291,37.19205793640945],[127.06596051086447,37.19202449396211],[127.06598773934573,37.19199222170383],[127.0660171088019,37.19196120973772],[127.06604861923186,37.19193145806221],[127.0660819329054,37.19190314706887],[127.06611738785848,37.19187645678104],[127.06703438899844,37.19121035052617],[127.06707130821552,37.19118456018621],[127.06710991828513,37.19116048088589],[127.06715033183454,37.19113811256118],[127.06719209851552,37.19111763566913],[127.06723533095642,37.19109905014584],[127.06727980398497,37.19108244621934],[127.06732517956843,37.191067643866795],[127.06737145755304,37.191054462878114],[127.06741863895937,37.191044074611455],[127.067466497756,37.1910355781456],[127.06796626223844,37.1909544750451],[127.06798924523672,37.190962751775096],[127.0680419423354,37.19094911639933],[127.06805960162622,37.19092288604129],[127.06810016110087,37.190938901871846],[127.06814072067176,37.190955007792994],[127.06811125163897,37.19099944593235],[127.06803949122214,37.19110788208773],[127.06796784314781,37.19121622803011],[127.06789608232111,37.191324664095],[127.06782454614908,37.191432649465796],[127.06775312232178,37.191540544624075],[127.06773208892737,37.19157245340928],[127.06766527649988,37.191673407880835],[127.06759992608697,37.1917721088827],[127.06753457558254,37.19187089995154],[127.06746922490797,37.19196969098289],[127.06740387406329,37.192068481976634],[127.06737879172209,37.19210724089688],[127.06735112290352,37.192150596582906],[127.06724158117117,37.192332758775116],[127.06719052781786,37.19242496407765],[127.06714161490508,37.192517889007725],[127.06709529310959,37.192611713527654],[127.06705144965484,37.19270625749367],[127.06701019725558,37.192801610950745],[127.06699142729387,37.19284685382386],[127.06697771620226,37.192881191244645],[127.06697119779986,37.1928975037746],[127.06693467663148,37.1929940259476],[127.066911531912,37.193059995274204],[127.06690063375895,37.19309117747198],[127.06686906903566,37.193188778140794],[127.06685502972235,37.19323446890241],[127.06680729555839,37.193389384975184],[127.06683683762309,37.19342775323552],[127.06703217119069,37.19346639033292],[127.06708046945586,37.19344329684294],[127.0671279777582,37.193288290682254],[127.06716919828375,37.19315599433543],[127.06718211710883,37.19311724220923],[127.06720233801155,37.193056770830665],[127.06723851918548,37.19295817635973],[127.06724189063848,37.19294961455467],[127.06725526365751,37.19291518718678],[127.06727762924379,37.1928603010869],[127.06731978088324,37.192763235051345],[127.06736497417172,37.19266706835435],[127.06748152288161,37.19251229394968],[127.06751211029166,37.19245767353725],[127.06764291256711,37.19224603503413],[127.06801060666834,37.19169051463558],[127.06803163997814,37.19165860580166],[127.06805256095943,37.19162705744531],[127.06808614146303,37.191518822961065],[127.06829726215133,37.19120063490531],[127.06831086908221,37.1911769297241],[127.06832165867678,37.19115133393331],[127.0683288435052,37.19112492923309],[127.06832896657643,37.19112400108627],[127.0683325365149,37.19109807597875],[127.0683324000688,37.191071044674864],[127.06832865974116,37.191044195612584],[127.0683234622614,37.19102527657692],[127.06832131577387,37.19101779910528],[127.06831048111428,37.19099221550699],[127.06829615608301,37.190967805235],[127.0682786786404,37.19094465820225],[127.06825816181112,37.19092322486669],[127.06823483100703,37.190903685308996],[127.06820891171839,37.190886309714436],[127.06819223522184,37.19087739874548],[127.06818085460719,37.190871278036944],[127.06813626618674,37.19088436828737],[127.06809370454502,37.19089691675437],[127.06790777329977,37.19091342013781],[127.06779008047208,37.19091510791951],[127.06773331755988,37.19091586049737],[127.06763300363157,37.19095709432968],[127.06731037227905,37.191006290856016],[127.06716005646001,37.191052778113814]]],[[[127.06672019060453,37.19203074600844],[127.06658669716181,37.192127591736146],[127.06657431629044,37.192137149622305],[127.0665531563131,37.19215356027576],[127.06652096790387,37.19218060931872],[127.0664904698954,37.19220882878528],[127.06647752894649,37.19222199115183],[127.0664616622882,37.192238218676835],[127.06643465763386,37.192268688828264],[127.06640956848436,37.19230014907455],[127.06638639484113,37.19233259941694],[127.0663647985128,37.192365679623265],[127.06630397704667,37.19249492287379],[127.06629656343262,37.19251817391016],[127.0661937954737,37.19285477066567],[127.06615358714812,37.192987156232824],[127.06614010989566,37.1930320356636],[127.06613124082946,37.19306564950744],[127.0661259725921,37.19309538689001],[127.06612273367533,37.193127465884366],[127.06612219793851,37.19315963350883],[127.0661231122567,37.19317522110115],[127.06612414004937,37.19319179978181],[127.066128897746,37.1932237843098],[127.06613579517783,37.19325549735656],[127.06615489210228,37.193328832058135],[127.06618947022349,37.19346180752899],[127.0662197352061,37.19342376687503],[127.06625419615618,37.19341933292416],[127.06628877111768,37.19341652078314],[127.06632368550628,37.193415510537704],[127.0663584887283,37.19341621232963],[127.06639464512766,37.1934188055662],[127.06642764905222,37.19342275208761],[127.06646178097625,37.193428680281976],[127.06653703036243,37.193443416153414],[127.06665035509327,37.193465609727646],[127.06667955937347,37.193504158421575],[127.06671976744082,37.1933722232108],[127.0667555963849,37.193256058695],[127.06678861731953,37.1931489962751],[127.06683231736862,37.193018050244554],[127.06685782323989,37.192947304088136],[127.06688378175471,37.19287908060377],[127.0669125525257,37.19280689095914],[127.06694200111392,37.19273713375592],[127.0669725763238,37.19266782644496],[127.06703238546751,37.19254128655273],[127.06707769785008,37.192452328262334],[127.06710344835675,37.1924044684752],[127.06712874901987,37.192357419872486],[127.0671781169613,37.19226981086352],[127.0672517827428,37.19214794860965],[127.06727641410397,37.19210855923477],[127.06730138355746,37.19206943998051],[127.06732691635848,37.19203059072159],[127.06739721654317,37.191924498545475],[127.06748000155622,37.191799297201236],[127.06758179540603,37.191645522040965],[127.06765243220859,37.19153879878688],[127.06767346562725,37.19150689001562],[127.06773915320328,37.19140773825741],[127.06780495291927,37.191308225980045],[127.06787063999391,37.191208893936825],[127.06796242178648,37.191070261615515],[127.06792871487468,37.191034148570246],[127.06773648901189,37.191065342263634],[127.06769172288104,37.19113312593968],[127.06762581046284,37.191232548115394],[127.06756012296842,37.19133178991829],[127.06749398455963,37.19143076162049],[127.06747238771688,37.191462400360194],[127.06745022356883,37.19148926386794],[127.06742726803994,37.19151270383703],[127.0674021714095,37.191534793423436],[127.06737178215491,37.19155787709728],[127.06720024635503,37.19168240677551],[127.06706045097896,37.19178385187043],[127.06694204108425,37.19186978700039],[127.06684580474364,37.19193967116805],[127.06672019060453,37.19203074600844]]],[[[127.0697495965837,37.18520938011265],[127.06952627730459,37.1849599185162],[127.0694996652315,37.18492154918914],[127.06947858902593,37.18490281950429],[127.06944049901163,37.184874458368675],[127.06940048719669,37.1848378987943],[127.06935551237416,37.18479251178766],[127.06928823639711,37.184743713544165],[127.06925612472422,37.18472598128304],[127.069226382686,37.1847134737315],[127.06920340313644,37.18470708942873],[127.06918065204002,37.18470430917899],[127.06915429985801,37.184704504435985],[127.06912400937928,37.18470839622723],[127.06909304624708,37.184715712373055],[127.06908100266399,37.18472292761797],[127.06901336691217,37.1847757675245],[127.06898940074343,37.184799658921285],[127.06896566380033,37.18482805541753],[127.06884878485414,37.18497472224346],[127.06881784301547,37.185006186363495],[127.06880411465718,37.18501853850465],[127.06875798597478,37.18506866290514],[127.06860375873661,37.18526229522006],[127.06856957198386,37.18544513699098],[127.06856799193271,37.18556867141278],[127.06857241136629,37.18559957481911],[127.0685881998255,37.18562434467059],[127.06875310933866,37.18579238653725],[127.06878604915745,37.18585463017458],[127.06877810814062,37.18591653659999],[127.06877677030195,37.185931855155424],[127.06876855529133,37.18593879787951],[127.0687469428882,37.185950523754556],[127.06902989039575,37.186258791166665],[127.06968666096945,37.185855466950485],[127.06969566478377,37.18584915444151],[127.06970568086713,37.185841399674345],[127.06971502075122,37.18583310466745],[127.06972323388085,37.185824179575725],[127.06973065819282,37.1858147143095],[127.06973661797633,37.18580470925805],[127.06974100061339,37.18579416448639],[127.06974448205844,37.18578334991952],[127.06974728771084,37.185772445637035],[127.06975054391721,37.18576163119964],[127.06975458861358,37.185750996517356],[127.0697598723543,37.18574063143529],[127.06976639546328,37.18573089637173],[127.06977415777799,37.185721611117316],[127.06978372303873,37.18571349618439],[127.06979441537307,37.18570637175264],[127.0698060095445,37.18570023795161],[127.06981816753597,37.18569491476659],[127.06983100204724,37.18569049223707],[127.0698441753049,37.18568706066231],[127.06985779984653,37.18568452987261],[127.0698715380613,37.18568317037667],[127.06988550264943,37.185683072214076],[127.06989935575659,37.18568423557979],[127.06991298452145,37.18568639022493],[127.06992627632623,37.1856895362146],[127.06993911871562,37.18569385382322],[127.06995117383522,37.18569934324613],[127.0699626666781,37.18570573403946],[127.06997269670443,37.18571347724724],[127.06999986376242,37.1857422950454],[127.07000696742784,37.18575193214011],[127.0700113690668,37.18576247184339],[127.07001475738527,37.18577328244641],[127.0700169070645,37.18578427397487],[127.07001793064111,37.185795356259085],[127.07001726502212,37.18580652962464],[127.07001524781818,37.18581752356226],[127.07001176632878,37.18582824803238],[127.0700069331719,37.185838702969704],[127.0700005227845,37.18584852808585],[127.06999264778462,37.185857723315344],[127.06998364594635,37.18586619835806],[127.06997362996944,37.185874043253314],[127.0699628248471,37.18588098755683],[127.06995111796087,37.18588703133342],[127.06993884716678,37.18589217438772],[127.06992601246515,37.18589641671952],[127.06991261361254,37.18589948801477],[127.06989887568432,37.185901207934016],[127.06988502416213,37.185901846661025],[127.06987105929012,37.18590167450968],[127.06986372755776,37.1859013904046],[127.06985720671204,37.1859011418732],[127.069843241759,37.18590087961396],[127.06982939031754,37.185901608439075],[127.06981565254931,37.18590350855793],[127.06980236639076,37.18590666988044],[127.06978930611729,37.18591055190875],[127.06977680982779,37.18591542476213],[127.06976262612181,37.18592237099393],[127.06968653786448,37.185969089024624],[127.06955316935019,37.1860509987609],[127.06941673898169,37.18613477526773],[127.06927795586073,37.18621999463695],[127.06916663649659,37.18628835759942],[127.06915293592881,37.18633206618959],[127.06923192509839,37.18641808905323],[127.06929132208994,37.18648276826521],[127.06945157837488,37.18665729032155],[127.06951128011367,37.186722302633015],[127.06961546530573,37.18683575665323],[127.06971444266856,37.186943555004504],[127.06975434936969,37.186987052579],[127.06995253057046,37.18720282903739],[127.06999255032797,37.187246506673645],[127.07009197965368,37.18735475496363],[127.07021404592183,37.187487687730446],[127.0702471103042,37.18752369239473],[127.07035496151914,37.18764114426813],[127.07046277924908,37.187758560018565],[127.07049931605037,37.18779834698521],[127.07059386549008,37.187901308541676],[127.07066077019233,37.187909469035674],[127.07066752387338,37.18790550048914],[127.07080551266169,37.187824397763364],[127.07094342236101,37.18774333997455],[127.07108128675004,37.1876623180927],[127.07121931967669,37.18758118782471],[127.07135718347602,37.18750016562019],[127.07136607572106,37.1874949343077],[127.07152872487045,37.187399327363686],[127.07158320380553,37.18736730800273],[127.0717459649445,37.187271610587786],[127.07180087146229,37.187239383631905],[127.07192786078598,37.187164728599164],[127.07196421736866,37.18714335218116],[127.07274514745868,37.18668434260222],[127.0732047717904,37.18718495720207],[127.07353802291152,37.187547876850736],[127.07362722838769,37.18755791430884],[127.07379088823342,37.18746212343727],[127.07384356578362,37.187431635915864],[127.07389995917724,37.18740051536806],[127.07395736723065,37.18737056553343],[127.07401567723836,37.187341696374745],[127.07407477666737,37.18731399806434],[127.07413477822648,37.18728756063661],[127.0742055885609,37.18725823319808],[127.07425703691524,37.18723810828188],[127.07431929413545,37.187215183457155],[127.07438222825317,37.18719351964859],[127.0744457266505,37.187173116924384],[127.07450990195063,37.18715397521432],[127.07457137632403,37.18713690754213],[127.07481525229635,37.18707476490177],[127.07485668621757,37.18706401680491],[127.07491962476549,37.187047218359446],[127.07498233769574,37.187030059601774],[127.07504493754051,37.187012450357756],[127.07510753709383,37.18699457076681],[127.07516957272895,37.18697588055135],[127.07523149545058,37.18695692005968],[127.07529330517038,37.18693759918728],[127.07535488917976,37.18691782789995],[127.07541624747782,37.186897606198045],[127.07547738015145,37.18687702418651],[127.07553828711211,37.18685599176111],[127.07559727958699,37.186835050606085],[127.07720604251142,37.186256102396385],[127.07734369652238,37.18617681236638],[127.07747608883389,37.18612915228985],[127.0775058097625,37.18611868108849],[127.0775356435727,37.18610848012124],[127.07756559017446,37.186098459283436],[127.0775956496584,37.18608870867956],[127.07762570931543,37.18607913827732],[127.07765599447399,37.18606983803649],[127.07787849630867,37.18603689673214],[127.07790101616766,37.18603300771401],[127.07792083072229,37.18602668760998],[127.07799311535858,37.1860101518161],[127.07806585171154,37.1859948771517],[127.07813892716578,37.18598086368874],[127.07821234154248,37.18596793121743],[127.07825884568159,37.185960602624725],[127.07828609502704,37.18595625994636],[127.0783601879882,37.18594621029333],[127.07843461997362,37.185937331734685],[127.0785091658408,37.185929714520746],[127.07858393821203,37.185923358577995],[127.07865882438078,37.18591817387478],[127.07948089024379,37.18586888912498],[127.08037086012918,37.1858158592046],[127.0804256523562,37.18576491358077],[127.08044432900572,37.185747601041754],[127.08042302778634,37.18551541546983],[127.08042188895058,37.18550325209623],[127.08042041226125,37.18549108894761],[127.0804181473403,37.18547901642856],[127.08041498166395,37.185467124718656],[127.08041080252089,37.18545532378822],[127.08040527243273,37.18544397428055],[127.08039827878206,37.18543307627052],[127.08039072241883,37.18542253905339],[127.08038215296531,37.185412453033535],[127.08037268313333,37.185402908240434],[127.08036231301669,37.18539399477851],[127.08035070504292,37.18538598318615],[127.08033853473167,37.185378692804264],[127.08032557684707,37.18537212378249],[127.08031228186024,37.185366275820925],[127.08029853687228,37.185360878680555],[127.0793962330333,37.185022681616495],[127.07938363340244,37.18503584518286],[127.07933357231772,37.1850881387942],[127.07928822363486,37.18512339950453],[127.07920004119933,37.18523050172663],[127.07913859846498,37.1852759547601],[127.07892203103567,37.18538287050329],[127.0787210817851,37.185565914129285],[127.07864188504634,37.185650934425915],[127.07853764970292,37.185699388448754],[127.07835693950203,37.18574113415305],[127.07807472668469,37.18586160659991],[127.07775854226811,37.18591001649767],[127.0774264226811,37.186015472022774],[127.07711309956156,37.186110913004434],[127.07697894056362,37.18619416514701],[127.07687839351624,37.1862161245834],[127.07675908577347,37.186285220594435],[127.07663331273072,37.186308096887544],[127.07652239530442,37.18643467411901],[127.07636003014045,37.18646721448205],[127.07626003339372,37.18647673860091],[127.07610978759622,37.18646520979101],[127.07591140993684,37.18652426298053],[127.0758013324603,37.18659010845973],[127.07566961973409,37.18664362304011],[127.07529952002702,37.18684316562944],[127.07522423626524,37.18690394303426],[127.07514790240776,37.186927237503575],[127.07504576607889,37.18693775307832],[127.07493712025814,37.18697151960229],[127.07492112320952,37.1869663845387],[127.07491502969316,37.18695396288101],[127.07487326085595,37.1869676846597],[127.07471176662509,37.18697102831208],[127.07460750637101,37.1869981240791],[127.07450266039427,37.187001792903],[127.07438489433262,37.187037997364484],[127.07431836618186,37.18706975510568],[127.07424124275803,37.187092238533666],[127.07414033360074,37.1870909488639],[127.07391800436555,37.187073694743205],[127.07369740510079,37.187099058656216],[127.07348534790985,37.187106576246784],[127.07333769086681,37.18709432151355],[127.07322582883069,37.18706267243333],[127.07320261021705,37.1870427733545],[127.07325945960702,37.18701750963664],[127.07330876212373,37.186990898895],[127.07330354619634,37.1869535086203],[127.07319773188765,37.18688590408687],[127.07315532690102,37.186822586156374],[127.07311378636564,37.186720522680766],[127.07310129561142,37.1866118639988],[127.07310087014984,37.18651905644603],[127.07310645672658,37.18647201843219],[127.07311506096684,37.18640056022791],[127.07314249422144,37.18635197722712],[127.07314742359793,37.18632458242618],[127.07312500037195,37.186311891222495],[127.07264268453847,37.18574623428105],[127.07259619687434,37.18577158159663],[127.07254970917913,37.1857969288939],[127.07120259136,37.186314389151065],[127.07116149981981,37.186330181632066],[127.07110791190438,37.186350756987586],[127.07089918605851,37.18642773869641],[127.0708834140673,37.18642198123301],[127.07086550478196,37.1864189281588],[127.07082540396163,37.18640985105335],[127.07078980948928,37.186402483288205],[127.07076592529764,37.18639276594658],[127.07075781366036,37.18638943681476],[127.07072863020085,37.1863729647121],[127.0707094719268,37.18635873936433],[127.0707094718446,37.18635864925971],[127.07069459319261,37.18634451151466],[127.07068985718321,37.18633793663877],[127.07067576670937,37.18632361822173],[127.07060002591668,37.186257075056616],[127.07057692036489,37.186236634766175],[127.07048104998599,37.18615250581273],[127.07043522253304,37.18611229173145],[127.07042453773514,37.186102918049606],[127.07036626303534,37.18604708702907],[127.0703242340255,37.18601024962211],[127.07030123023348,37.185990088542354],[127.07030739140926,37.1859538628836],[127.07030292507332,37.185872050426376],[127.07029523363424,37.18586008899008],[127.07029018119754,37.185852234794865],[127.07026460196627,37.18581105378001],[127.07024743637912,37.18578341962292],[127.07022808131435,37.18567602606663],[127.07026054297721,37.185582208257635],[127.07027278649707,37.18554706032499],[127.0702699565047,37.18553102333307],[127.07026316421751,37.185492192154385],[127.0702232482685,37.18531362781602],[127.07014515051593,37.18525438419501],[127.07006913505887,37.185256050088675],[127.06999990472893,37.18528879813006],[127.06992300308384,37.18530686349596],[127.06990352021445,37.185306874743716],[127.06981835312412,37.18527574765129],[127.0697495965837,37.18520938011265]],[[127.07024708861172,37.187263659373386],[127.07040219719703,37.18717256357905],[127.07055708025094,37.18708155781649],[127.07065011105026,37.18702696342299],[127.07053853036068,37.18709249832077],[127.07038959041819,37.18717996850135],[127.07024066139418,37.18726743848718],[127.07009197965368,37.18735475496363],[127.07024708861172,37.187263659373386]],[[127.07087915865988,37.18658381171511],[127.07085912024687,37.18674024515145],[127.0708392782143,37.186894651974484],[127.07085948876166,37.18673682095837],[127.07086116627772,37.186723935008914],[127.07089918605851,37.18642773869641],[127.07087915865988,37.18658381171511]],[[127.07044120505059,37.186350425899874],[127.07027596791714,37.18644756464928],[127.07011084289834,37.1865446129972],[127.06994571745685,37.18664166111385],[127.06980172521932,37.18672628832974],[127.06989530177087,37.1866712896071],[127.07003441473697,37.18658952033943],[127.07017342610258,37.18650781403959],[127.07031244843047,37.18642610756928],[127.07045158300431,37.18634431977533],[127.07060002591668,37.186257075056616],[127.07044120505059,37.186350425899874]]],[[[127.0702483422124,37.19138035893299],[127.07029545820318,37.1912980660901],[127.07104054992628,37.190756012402616],[127.07241114624014,37.19008869632261],[127.07347505393166,37.19038179592014],[127.07355030558672,37.19040067215649],[127.07362679315868,37.190416393931336],[127.07370417850542,37.19042869113452],[127.07378223653795,37.19043774411081],[127.07386085436318,37.190443282614055],[127.07393969435235,37.190445577163345],[127.0740185309863,37.19044435758244],[127.07409725180113,37.190439804149456],[127.07417551882412,37.19043182696736],[127.07425310688062,37.190420516279815],[127.07432979071007,37.19040587222663],[127.07440545767764,37.190387894878846],[127.07447977007179,37.1903667646556],[127.0745526151723,37.19034239152426],[127.07462365526955,37.19031495590516],[127.07509998164774,37.190118142848135],[127.07520006497225,37.19007672262454],[127.07569094482139,37.190829510621064],[127.07585486315786,37.19076309088913],[127.07597183591862,37.19071670366559],[127.07619103539498,37.19063240799985],[127.07649467705384,37.19052129744685],[127.07665927923584,37.19046442725488],[127.07688952129942,37.190386971239725],[127.07711560052252,37.19031429297719],[127.07735947190689,37.190239440382975],[127.07759647847378,37.19017035838993],[127.07783483882689,37.190103978188496],[127.07807466597676,37.19004066011599],[127.07818129483316,37.19001410040579],[127.07831584750652,37.189980584445735],[127.0785577076049,37.18992366150439],[127.07880125964547,37.18986962031292],[127.079045941083,37.18981900185686],[127.07928961227051,37.189771987743136],[127.07934652037996,37.189694190085625],[127.07933894857175,37.18966887566184],[127.07911643359168,37.1889283616055],[127.07909665142775,37.188746813728294],[127.07907868292791,37.188686725702766],[127.07900895889146,37.18845601335709],[127.07880812514574,37.18778776633141],[127.07871955242436,37.18749307375079],[127.0787053365673,37.18744578708134],[127.07863694702553,37.18721830835471],[127.07856778952343,37.186988316159045],[127.07838506643446,37.1863804986789],[127.07837501756437,37.18635509568142],[127.0783613676243,37.18633239815888],[127.07834411552075,37.18631132485471],[127.07832326180302,37.18629241639497],[127.07829948246076,37.186275942653786],[127.07827548199442,37.186263523761276],[127.07824979480174,37.18625362888714],[127.07822264630128,37.18624643809369],[127.07819459967726,37.18624204112013],[127.07816610549422,37.18624052777899],[127.07813761431642,37.18624198788323],[127.07810946390681,37.18624633110983],[127.0780072289226,37.18626937385109],[127.07790601008075,37.18629502888435],[127.07780580737193,37.1863232962122],[127.07770684611593,37.186354265796986],[127.07760923874233,37.18638775736021],[127.07709283867378,37.186573523312155],[127.07689503659871,37.18664465180531],[127.07685304251461,37.18665783379769],[127.07665093473105,37.18670301447674],[127.0765339642945,37.186745077374006],[127.07571392939569,37.18704014592529],[127.0756509963152,37.18706235106886],[127.07558783760501,37.18708419590134],[127.07552445317796,37.18710559031776],[127.07546095565542,37.187126534247554],[127.07539711979744,37.187147027830925],[127.07533305822543,37.18716707099718],[127.07526877094035,37.18718666374599],[127.07520425803064,37.18720589618153],[127.07513963194278,37.18722458802431],[127.07507478014482,37.18724282944862],[127.07500970272503,37.187260710558725],[127.07494439950977,37.18727805114506],[127.07490127661002,37.18728925084175],[127.07466336744228,37.18734985819416],[127.07460515805161,37.18736602285275],[127.07454740007385,37.18738317835566],[127.07449031900882,37.18740159487863],[127.07443368935252,37.18742100224745],[127.074377736518,37.18744158053341],[127.07432246050323,37.18746332973749],[127.07426786113338,37.18748606965141],[127.07421393849327,37.18750989038069],[127.07416080520233,37.187534791857196],[127.07410834855163,37.18756068404641],[127.07406591161033,37.187582875786106],[127.07405679378216,37.18758756681126],[127.07400614097892,37.187615530257524],[127.07395627743352,37.1876444843506],[127.07379790760133,37.18773711855755],[127.07355782015412,37.187878188468],[127.07340125069602,37.187970190314175],[127.07336939643069,37.18798886130012],[127.07325292952675,37.18809102044491],[127.07322073756406,37.188109961908935],[127.07297952215073,37.18825157195021],[127.07277812079283,37.188336391630884],[127.07268390790367,37.1883917725138],[127.0726294286989,37.18842379237553],[127.07243447378093,37.188538342131515],[127.0722419946288,37.18865144841257],[127.07204973998044,37.188764374036076],[127.07185816016325,37.18887693852648],[127.07174278429896,37.18894476565965],[127.07172462168911,37.189033709697675],[127.07183420263539,37.18915348386702],[127.07188984505795,37.189160388884126],[127.07203718872263,37.1890738008219],[127.0722303446545,37.18896033405863],[127.07242282460724,37.188847227801624],[127.0726150788245,37.18873421147013],[127.07280721993057,37.18862128499744],[127.07286169928662,37.18858935515955],[127.07337587332583,37.18828719385303],[127.07357544110747,37.188169936599145],[127.07373898937294,37.18807378545792],[127.07395717742489,37.18799715340073],[127.07401091090907,37.18801063622985],[127.07406844036353,37.187989426420856],[127.0741185413267,37.187972996682724],[127.07416977038389,37.187958548533835],[127.07422178958724,37.187945992075456],[127.07427448631853,37.187935327375726],[127.07432684724637,37.18792682537054],[127.07437504246148,37.187919677473815],[127.07489753174903,37.187841865001296],[127.07497050122586,37.1878322686892],[127.0750201626696,37.18782746234181],[127.07508198792448,37.18782336925833],[127.07514392780621,37.18782134847827],[127.07520586978589,37.187821490176134],[127.07526781378122,37.18782370424729],[127.07532953455436,37.18782799083207],[127.0753910321103,37.187834349930824],[127.07575788305658,37.187877821364545],[127.0757886323566,37.18788149638194],[127.07583785309598,37.18788669158414],[127.07588650817168,37.18788927408615],[127.07593628822838,37.18789059439649],[127.07598550349782,37.18789020305259],[127.07603471699588,37.18788800959641],[127.0760833657885,37.187884194591554],[127.07613426470209,37.1878780354287],[127.07618200834129,37.18786998603497],[127.07642838135185,37.18782640006568],[127.07646216316151,37.187821693258435],[127.07649729865165,37.187819238201065],[127.07653570301395,37.18781966441218],[127.07656994350387,37.187823246911485],[127.07660531190686,37.18782854067431],[127.07663910709513,37.18783734950543],[127.07667098897596,37.187847421005735],[127.07670591638099,37.187862266110955],[127.07673566410249,37.187878015541045],[127.07676372465858,37.18789592854675],[127.07678919671996,37.18791564528335],[127.07681546135096,37.187939596429075],[127.07683609500461,37.18796364125354],[127.07685222344504,37.18798732852067],[127.07686643965368,37.188013359722504],[127.07687817801384,37.188039212289425],[127.0769598242562,37.18826099795746],[127.07714909195897,37.18877528465721],[127.07715688621532,37.188798616781185],[127.07716232096736,37.188827536898415],[127.07716448111759,37.18884789916613],[127.07716440274103,37.1888822290811],[127.07716004199078,37.18891385859129],[127.0771518474672,37.1889408952126],[127.07714151399631,37.188968834244896],[127.07712397640601,37.18900056226849],[127.07710845587005,37.18902210717915],[127.07708472074032,37.18905059538421],[127.07706334170592,37.18907007161908],[127.07703847097807,37.18908918965735],[127.07701089673856,37.18910776878546],[127.07698027995016,37.189124637857184],[127.07694312991437,37.18914042982512],[127.07691216797086,37.18915000062405],[127.07687917772289,37.18915849144961],[127.07685012606606,37.189163735994974],[127.07576053423287,37.18932039494495],[127.07571886964038,37.18932672837205],[127.07567957040311,37.189333330617636],[127.07563790711782,37.18934101558484],[127.07555368190717,37.189358818861734],[127.0755030126506,37.18937056411746],[127.07467294289368,37.1895707514463],[127.07464043007747,37.18960762430944],[127.07466366469231,37.18999316763229],[127.07446811397058,37.19007474278293],[127.07440821965794,37.19009775632648],[127.0743448320338,37.190118789685705],[127.07428031440746,37.19013594920661],[127.07421646965062,37.190150134827135],[127.07414766678316,37.19016162031463],[127.07407987415661,37.19016959106341],[127.0740094876959,37.19017395917612],[127.07394416616613,37.19017499027988],[127.07387568855609,37.19017332013692],[127.07378862250671,37.1901660748096],[127.07371968660067,37.19015620533617],[127.07365164862608,37.19014309150972],[127.07358473366973,37.19012655298566],[127.07252105430271,37.189833364117405],[127.07248635703081,37.18982383381836],[127.07242924076522,37.18980710856099],[127.07237313629199,37.18978840036924],[127.07231793115872,37.18976788952094],[127.07231195971218,37.18976537016017],[127.07226407552963,37.189745215330085],[127.07221123220734,37.18972109883659],[127.0721598511032,37.1896949090412],[127.07211027026044,37.189666825953594],[127.072061589358,37.18963757094909],[127.07201470897122,37.1896066929698],[127.07196940368537,37.1895740119426],[127.07192601187568,37.189540068295926],[127.07188453312367,37.18950441150896],[127.07184395331284,37.189466501557966],[127.0718158845642,37.1894391264108],[127.07177124018067,37.18939022608177],[127.07173583992831,37.18935096145187],[127.07163726515778,37.189319663427376],[127.0714983725636,37.189167829149206],[127.07138708795432,37.189154198930325],[127.07001977613014,37.18995782965879],[127.0699519016878,37.190000218057904],[127.06993141569698,37.19001320495526],[127.06982080493226,37.19012355683266],[127.06969418131983,37.19021193229502],[127.06965152525812,37.19024403407861],[127.069569139906,37.19030670413962],[127.06938836131438,37.19041565422065],[127.06932477755771,37.19047110496798],[127.06926220790105,37.190527185833076],[127.06923486452945,37.19055477347708],[127.06921112692619,37.19058434135568],[127.06919133289004,37.19061579917351],[127.06917559456772,37.1906486062408],[127.06916413705436,37.19068258222139],[127.06915695995329,37.19071727659365],[127.06915428820037,37.19075232881155],[127.06915600893471,37.19078746862593],[127.06916223446696,37.19082233555409],[127.06917273914914,37.19085647920114],[127.06918752266523,37.190889539147705],[127.06920647223316,37.19092133524746],[127.06921391424265,37.19093106229235],[127.06922936212217,37.19095132699981],[127.0692558543763,37.19097942449111],[127.06928572334252,37.191005177325074],[127.06931885623408,37.19102840535448],[127.06935457697058,37.1910487485454],[127.06939277292379,37.19106620696003],[127.0700436313109,37.19130515008033],[127.0702483422124,37.19138035893299]],[[127.07378412309662,37.18780839974571],[127.07381300675944,37.187839900729855],[127.07395717742489,37.18799715340073],[127.07378412309662,37.18780839974571]]],[[[127.07108955613346,37.187825150365136],[127.0710033344812,37.18787583978185],[127.0709954918366,37.18792044618347],[127.07110439329826,37.1880391401943],[127.07123370013876,37.18818007794385],[127.07136312024822,37.18832119569121],[127.07147134646173,37.18843916891719],[127.07152698816105,37.18844589389689],[127.07161309757112,37.188395294274976],[127.07169898178853,37.18834487493278],[127.07183574329099,37.18826442049388],[127.07192173975048,37.188213910817964],[127.07200762355714,37.188163491250926],[127.07214460964859,37.18808303631967],[127.0722503037509,37.188020981264415],[127.07230374071817,37.188079066845226],[127.072116440296,37.18818910627837],[127.07192722575701,37.18830022780697],[127.07173744788535,37.18841170978401],[127.07154778199488,37.18852310128439],[127.07147540487074,37.188565583331886],[127.07144879910308,37.18853649524125],[127.07131475630668,37.18839033445647],[127.07118060140505,37.188244173582135],[127.07104678505152,37.18809819256262],[127.07092300268532,37.18796328838208],[127.07086747310848,37.18795557190124],[127.07083257925052,37.18797622628707],[127.07081845396748,37.18804741722327],[127.07092870795343,37.1881673720669],[127.07106286206874,37.18831335301979],[127.0711970167007,37.18845933381665],[127.07133128463785,37.18860549460027],[127.07135800300739,37.188634582650586],[127.07144458413708,37.188728781028686],[127.07146476390155,37.18875075464724],[127.07155216813892,37.188760344205285],[127.0715763845525,37.18876303302602],[127.07245672459354,37.18824575903699],[127.07249296892252,37.188224382527736],[127.07261149482999,37.18815484077795],[127.07272762508518,37.18805295278064],[127.07300024443865,37.187892942954605],[127.07320164420045,37.18780794268225],[127.07338826680429,37.1876983524621],[127.07339128990128,37.18767969896503],[127.07339991057776,37.18762572104762],[127.07337240266551,37.18759582298993],[127.07328638397065,37.18750207618539],[127.07325966526189,37.18747298856468],[127.0731246064245,37.18732592937023],[127.07299011180807,37.18717950041019],[127.0728550539316,37.1870323507955],[127.0727467149586,37.186914378872984],[127.07265762212974,37.18690343963626],[127.07262329192194,37.186923643690925],[127.07248642105137,37.187004099121296],[127.07240076403156,37.18705442880428],[127.07231488182542,37.18710493876887],[127.0721776726067,37.18718557425191],[127.07209066448436,37.18723671545712],[127.07200602002258,37.18728650362183],[127.07186892268396,37.187367048573925],[127.07176334180035,37.187429103228524],[127.07172698502414,37.18745047958406],[127.07162084113627,37.18751289486317],[127.07148419321422,37.18759316878746],[127.07139819716599,37.18764367815073],[127.0713123136245,37.18769418738492],[127.07117589020903,37.18777437071453],[127.07108955613346,37.187825150365136]]],[[[127.07197350281496,37.18937965382717],[127.07198533861164,37.189390729656665],[127.07201058837312,37.189414412151635],[127.07204699495344,37.18944565678815],[127.07206874720727,37.18946267361037],[127.07208508958105,37.189475458733746],[127.07212498529918,37.18950426844265],[127.07216611831676,37.18953136541219],[127.07220984096084,37.18955764988047],[127.07225412557892,37.189582672532204],[127.07226697086173,37.18958924249922],[127.07229852066351,37.18960535238106],[127.07234516699529,37.18962667929789],[127.0723802068314,37.18964134539727],[127.07239282570762,37.18964665402127],[127.0724411583362,37.189664646020255],[127.07249072850492,37.18968119558411],[127.07250266996303,37.189684702509744],[127.07254288787152,37.1896964821102],[127.07261171911571,37.18971545289891],[127.07272617508585,37.189747010879316],[127.07283747682114,37.18977766960169],[127.07294877864626,37.18980832821921],[127.07306008064624,37.18983907683653],[127.07317127002668,37.18986973531261],[127.07328257212139,37.189900393615865],[127.07339387430598,37.18993105181429],[127.07350506395571,37.18996170997636],[127.07371088331321,37.190018440744076],[127.07375917726016,37.18999525441786],[127.0737839511317,37.18987332776036],[127.07378540975441,37.18986756017497],[127.0737900103549,37.189849716653875],[127.07379944684754,37.18982457170793],[127.07381113693877,37.189800596745975],[127.073827107436,37.18977734000717],[127.07383430697442,37.18976850535979],[127.07384600624218,37.189754171582976],[127.07386670934685,37.189733434878534],[127.0738897791839,37.18971440871244],[127.07391510287084,37.18969682283837],[127.073927935152,37.18968960662601],[127.07394234330933,37.18968148840262],[127.07397082527199,37.18966894644454],[127.07400043562035,37.1896586564048],[127.07403061063249,37.18964998789517],[127.07405099104126,37.18964519987387],[127.07409028808192,37.18963598513595],[127.07416494046252,37.189617738247385],[127.07421819923752,37.18960473051036],[127.07429656754596,37.18958585052601],[127.07451151722425,37.189534088331655],[127.07467850020257,37.189494159084525],[127.0748128293058,37.18946172849279],[127.07494287963455,37.189430381656116],[127.07507225428752,37.18939921530533],[127.07520185399393,37.189367958568596],[127.07533685821578,37.18933534675308],[127.075477492274,37.189301469804285],[127.07552951262032,37.18928936329679],[127.07561621503885,37.18927110796438],[127.07566013031953,37.18926297107225],[127.07570123114695,37.189256007286396],[127.07574458479121,37.18924940249328],[127.07578838918697,37.189243067715644],[127.07591912685406,37.18922433402358],[127.07604761225168,37.189205871918084],[127.07618803399053,37.18918569016249],[127.07632327568656,37.18916623234844],[127.07645851740195,37.189146864484634],[127.07657866956394,37.18912957843441],[127.07674656718872,37.18910541400149],[127.07683350007682,37.189092924327916],[127.07685534506727,37.18908894583449],[127.07688214261653,37.18908208083843],[127.0769053356772,37.18907467750233],[127.07692728799525,37.1890653827542],[127.076933367055,37.18906276585029],[127.07695621712548,37.18905022675863],[127.07697782653918,37.18903588636019],[127.07699797049727,37.189020195322016],[127.07701394846454,37.18900558819085],[127.07703172157743,37.18898413196135],[127.07704353076844,37.18896781549527],[127.07705657108973,37.188943749244714],[127.07706465841058,37.188922118976244],[127.07707094465557,37.1889013909021],[127.07707429982541,37.18887778134872],[127.07707438560463,37.18885084000894],[127.07707256963171,37.18883678484437],[127.07707211527949,37.18883291063493],[127.07706815273875,37.1888120989917],[127.07706261769854,37.188795523268844],[127.07703607935018,37.188723276272114],[127.07699621588037,37.18861517611368],[127.07695646523656,37.188507165972574],[127.07691671470621,37.18839915581604],[127.07688001332578,37.188299433331515],[127.07686725237232,37.18826457095218],[127.0768200491843,37.188136562267566],[127.07679249501895,37.188061612714264],[127.07677162144462,37.188022790873156],[127.07676778372132,37.18801414326487],[127.07675819710535,37.18800027323825],[127.07674410321135,37.18798397324748],[127.07672392560826,37.18796551460562],[127.07670408900671,37.18795020940648],[127.07668245189608,37.18793634702068],[127.07665935231951,37.18792410744215],[127.0766331004168,37.187912951113596],[127.07660865385752,37.187905217611544],[127.0765829695362,37.18789856614446],[127.07655582363553,37.18789443852771],[127.07653960443606,37.18789273681134],[127.0765292421825,37.187891662117046],[127.07650063594886,37.187891319807456],[127.07647383388706,37.18789322896568],[127.07644579494529,37.18789712120237],[127.0763128120635,37.18792072254714],[127.07614739911996,37.18794948014098],[127.07609458567994,37.18795573061928],[127.07604154495121,37.187959908810136],[127.0759885024469,37.1879622848854],[127.0759352327506,37.187962678777446],[127.07588207390813,37.18796127048298],[127.07582891365489,37.18795842049123],[127.07577608862358,37.18795286712607],[127.07537860063239,37.18790572056358],[127.07531980620058,37.18789963008853],[127.07526191476605,37.187895611429134],[127.07520380002062,37.1878935751826],[127.07514557449385,37.18789343117402],[127.0750874635994,37.18789535947256],[127.07502946715778,37.18789917986917],[127.07498329667499,37.18790371374173],[127.07491224143666,37.18791303856179],[127.07434358334672,37.18799772744147],[127.07429448788339,37.18800568682019],[127.07424584471148,37.18801553809846],[127.07419787898469,37.18802719103409],[127.07415059052734,37.188040465418695],[127.07410420483905,37.18805563142887],[127.07404881447002,37.18807611910825],[127.07397834212452,37.188106437393756],[127.07397012408408,37.18810995650112],[127.0739271235995,37.188132058429176],[127.0738819855082,37.18815650436805],[127.07383898892442,37.18818275107525],[127.07293040635518,37.18871663161645],[127.0727455816218,37.188825228865916],[127.07255602880454,37.18893662190418],[127.07236625026782,37.189048104876974],[127.07217489528419,37.18916048953044],[127.07203745712155,37.18924130517038],[127.07196170271965,37.18928577182207],[127.07195050680704,37.189357321553615],[127.07197350281496,37.18937965382717]],[[127.0732953363332,37.189107284976906],[127.07326151504974,37.189071083402034],[127.07312544111143,37.18892546653862],[127.07305283847425,37.18884775010125],[127.07293040635518,37.18871663161645],[127.0732953363332,37.189107284976906]],[[127.07359748491658,37.18924031399428],[127.073727719989,37.189297653477794],[127.0736801066253,37.18927671824491],[127.07359748491658,37.18924031399428]],[[127.07340916392859,37.1891574006286],[127.07353132670728,37.1892111860683],[127.07346411676663,37.1891816090207],[127.07340916392859,37.1891574006286]],[[127.0732790265319,37.189367066502186],[127.07320294105611,37.189477652921035],[127.0731801659794,37.189510753118306],[127.0732790265319,37.189367066502186]],[[127.07427917986097,37.18954044847644],[127.07423230848292,37.189519843296004],[127.07406231478407,37.18944496781007],[127.07427917986097,37.18954044847644]]],[[[127.07402288608186,37.19488092402274],[127.0742381913203,37.19506658761138],[127.07428421128616,37.195017993005536],[127.07438899101598,37.19493386106144],[127.07452292135224,37.19482808597234],[127.07452539137034,37.1947380249593],[127.07438192601651,37.19461435469665],[127.07417349791947,37.19443463403702],[127.07405500562417,37.194312614986735],[127.07377477429084,37.194071035731895],[127.0736223724929,37.19393966604533],[127.07331610509463,37.193675665497935],[127.07323584687533,37.193606423706015],[127.07309543300705,37.19352514420962],[127.07299522344279,37.1934387043342],[127.07286457950346,37.19332615238201],[127.0727337104391,37.19321333010511],[127.07252844633402,37.19303639784501],[127.07241592679996,37.193033311578944],[127.07235334864995,37.19308011328625],[127.07229887460464,37.19312141373957],[127.07227872816449,37.19313665344744],[127.07220455842159,37.19319355371042],[127.07213140223314,37.19325045332236],[127.07214222331334,37.193259727642115],[127.07220658661785,37.19331528377118],[127.07241376695357,37.193493837315835],[127.07378717890182,37.19467779220297],[127.07402288608186,37.19488092402274]]],[[[127.07298976361545,37.193023415675995],[127.07312063273207,37.193136237673734],[127.07335340265404,37.193336939833486],[127.07339534761252,37.19338620158829],[127.0734804779901,37.19348616597149],[127.0735226361367,37.19352254259789],[127.07382924178265,37.19378681272547],[127.07398153100037,37.19391818221819],[127.0742611987528,37.19415922070901],[127.07440445230115,37.19426284299556],[127.0746126550357,37.19444238318411],[127.0747852374019,37.19459112928223],[127.07489776012528,37.19459502423531],[127.07496754269802,37.19454443233869],[127.07505218395424,37.19448500093254],[127.0751378396342,37.19442646988047],[127.07520908863697,37.194378489960876],[127.07497416957295,37.19417671156386],[127.07473688460226,37.1939729518557],[127.07396518189863,37.193310346847255],[127.07336245696797,37.19278900845219],[127.07316790035227,37.192620630727895],[127.07310759470904,37.19256840653189],[127.07309609724325,37.19255850197584],[127.07291645602105,37.192679530724234],[127.07279601965126,37.19276078747273],[127.07278934645336,37.19285071585282],[127.07298976361545,37.193023415675995]]],[[[127.07395154755339,37.18976699206058],[127.07393432953705,37.189781149012134],[127.0739191399579,37.18979656618617],[127.07390541560825,37.189813153823025],[127.07389304412206,37.189831182305625],[127.07388472599324,37.18984803695088],[127.0738775364273,37.18986732373093],[127.07387259883252,37.18988606850736],[127.07385656882448,37.189965009941936],[127.07383627932282,37.19006521866293],[127.07387145187693,37.190100428091306],[127.07394466043944,37.19010290628604],[127.07400502641362,37.1901018782143],[127.07405018630747,37.190099057330485],[127.07406989453511,37.190097873902374],[127.07413194392235,37.19009062751655],[127.07418498175747,37.19008176474314],[127.07425389397368,37.19006694529594],[127.07431537145698,37.19005059859898],[127.0743713280501,37.19003191254537],[127.07442773225544,37.19001025273747],[127.07444022865965,37.19000510908289],[127.07454706646423,37.18996035138126],[127.07456956135742,37.189929161314666],[127.0745613205432,37.18979229748044],[127.07455193555288,37.18963678269113],[127.0745059598306,37.18961077078983],[127.07437399483328,37.189642568846814],[127.07424484463917,37.18967364419178],[127.07411625728774,37.189704538841674],[127.07405860694011,37.18971845026803],[127.07403406165383,37.18972558356018],[127.07401109387847,37.18973352682355],[127.07399026716594,37.18974273023736],[127.07397023071276,37.1897539154659],[127.07395154755339,37.18976699206058]]],[[[127.08053780695919,37.18553588283737],[127.08055660238374,37.185740678237266],[127.08064191596216,37.18579954974973],[127.08106881496359,37.18577422378173],[127.0810501915443,37.18557369030086],[127.08104598843796,37.1855283974992],[127.08104388122274,37.18550571956532],[127.08095826303544,37.18551082286791],[127.08094977216541,37.1855113331472],[127.08089690125958,37.185514477194616],[127.08082828732897,37.18551856884702],[127.08053780695919,37.18553588283737]]],[[[127.08309385448739,37.18633049554304],[127.08305497987487,37.18592343841076],[127.0830542167278,37.18591543764091],[127.08305182487493,37.185890453260775],[127.0830471064666,37.18589074484284],[127.08285610674014,37.185902661818695],[127.08285542281445,37.18589500339092],[127.08285530893959,37.18589383210832],[127.08226725250489,37.18592973561597],[127.08227867122444,37.18605587437561],[127.08227994723615,37.18606965952067],[127.08228971135333,37.18617545376954],[127.082308385177,37.18637779810289],[127.08237574976758,37.18637374248818],[127.08255854177469,37.18636273294832],[127.08283847289961,37.186345871770136],[127.0828926843462,37.18634260879979],[127.08296736865984,37.186338115318506],[127.08309385448739,37.18633049554304]]],[[[127.08108342352016,37.18852401886873],[127.0810652437562,37.18847870844512],[127.08105100494596,37.18843258443103],[127.0810408197995,37.18838573685683],[127.08103480121524,37.18833843596168],[127.08101989528271,37.18797820761042],[127.08093784498402,37.18791933420566],[127.08043309984613,37.18794354922824],[127.08044440956286,37.188097440425295],[127.0803236554959,37.18840009219254],[127.08011732379443,37.18871883925384],[127.0798815346075,37.188978496791634],[127.07962041001386,37.189025793949135],[127.07954361514918,37.18903963056015],[127.07955988835253,37.18909350240884],[127.07957967171711,37.189275050196656],[127.07964985152744,37.18950846501126],[127.08042692373365,37.189367927393135],[127.08119442023646,37.18869162899497],[127.08116115507893,37.1886521855332],[127.08113149198797,37.188610937548546],[127.08110554386607,37.18856815528176],[127.08108342352016,37.18852401886873]]]]}},{"type":"Feature","properties":{"name":"반송초·반석초 공동_238번지","school":"반송초등학교","zone_type":"공동통학구역","basis":"2026학년도 통학구역 원자료의 직접 지번 조건 + 2026-09-08 연속지적도","source_rows":"414","status":"1차 보정 오버레이(전체 통학구역 대체본 아님)","notes":"반송동 238(에이힐스)는 원자료상 반석초 공동학구.","parcel_count":3},"geometry":{"type":"Polygon","coordinates":[[[127.07915826381003,37.187874290139014],[127.07931184010984,37.1883846321926],[127.0793886846543,37.18863912730594],[127.07940857454629,37.18870561145059],[127.07948100722002,37.188830899350094],[127.07954361514918,37.18903963056015],[127.07962041001386,37.189025793949135],[127.0798815346075,37.188978496791634],[127.08011732379443,37.18871883925384],[127.0803236554959,37.18840009219254],[127.08044440956286,37.188097440425295],[127.08043309984613,37.18794354922824],[127.08034359425174,37.18764608327064],[127.07926782303494,37.187853223905805],[127.07915826381003,37.187874290139014]]]}}]}