{"type":"FeatureCollection","features":[{"type":"Feature","properties":{"name":"화성6권역","city":"화성","featureType":"kindergartenZone"},"geometry":{"type":"Polygon","coordinates":[[[126.957654,37.241119],[126.956494,37.245151],[126.955668,37.245108],[126.954799,37.243733],[126.953764,37.242862],[126.95316,37.242375],[126.951612,37.242469],[126.948453,37.243263],[126.947817,37.24243],[126.947821,37.241689],[126.947008,37.240311],[126.946258,37.239144],[126.943566,37.238714],[126.941554,37.23978],[126.939947,37.242025],[126.937226,37.243101],[126.934177,37.243422],[126.931408,37.244215],[126.930774,37.24427],[126.931788,37.242845],[126.9306,37.242688],[126.929512,37.240346],[126.929484,37.240175],[126.929384,37.239922],[126.929232,37.239318],[126.929521,37.237931],[126.928244,37.236736],[126.927997,37.235337],[126.927471,37.235714],[126.927189,37.23556],[126.926586,37.235732],[126.926261,37.235604],[126.925584,37.235403],[126.925052,37.235277],[126.924733,37.2353],[126.924315,37.235243],[126.925233,37.238947],[126.922774,37.239312],[126.922081,37.239444],[126.921756,37.2398],[126.921271,37.239893],[126.920171,37.23917],[126.91917,37.239151],[126.918262,37.239722],[126.916941,37.240414],[126.914894,37.238748],[126.913785,37.238871],[126.913531,37.238216],[126.912288,37.238503],[126.912096,37.237416],[126.912408,37.236395],[126.911941,37.234962],[126.912609,37.23486],[126.912621,37.23416],[126.913593,37.233041],[126.911003,37.230487],[126.90927,37.22797],[126.908182,37.226991],[126.908638,37.225738],[126.909438,37.224622],[126.909546,37.222892],[126.905301,37.218064],[126.902991,37.21661],[126.904465,37.213634],[126.907241,37.211921],[126.90687,37.209588],[126.907416,37.208819],[126.90662,37.205366],[126.906054,37.199205],[126.904372,37.199044],[126.90308,37.197775],[126.901789,37.196028],[126.900922,37.195952],[126.899946,37.193853],[126.903709,37.192038],[126.904947,37.192122],[126.905928,37.191385],[126.908217,37.191576],[126.909233,37.19198],[126.910856,37.191634],[126.912226,37.191804],[126.913898,37.191888],[126.914304,37.192101],[126.914851,37.191422],[126.917399,37.190945],[126.919745,37.189749],[126.919974,37.188707],[126.91923,37.187707],[126.920017,37.18625],[126.920454,37.184359],[126.921015,37.182149],[126.920223,37.180531],[126.920985,37.179927],[126.920723,37.179249],[126.919046,37.178876],[126.919324,37.177561],[126.917618,37.176801],[126.916936,37.176215],[126.917754,37.174966],[126.918259,37.173969],[126.91952,37.17306],[126.919549,37.171683],[126.918977,37.170005],[126.918044,37.168597],[126.918983,37.168101],[126.922497,37.168151],[126.920384,37.166774],[126.917498,37.166766],[126.915491,37.166125],[126.914135,37.160677],[126.914454,37.160241],[126.915321,37.159716],[126.915722,37.159222],[126.914802,37.157449],[126.9166,37.156772],[126.917403,37.156109],[126.917354,37.155512],[126.919539,37.154324],[126.920535,37.154696],[126.920668,37.155036],[126.920885,37.155027],[126.921927,37.156074],[126.922223,37.156127],[126.922693,37.15777],[126.923603,37.158403],[126.924112,37.159147],[126.924163,37.159588],[126.925143,37.159868],[126.924936,37.160538],[126.925877,37.160644],[126.926129,37.160947],[126.929356,37.161483],[126.929672,37.16182],[126.930452,37.161774],[126.931045,37.161504],[126.931278,37.161154],[126.93295,37.160775],[126.934033,37.160773],[126.935985,37.159985],[126.936757,37.159797],[126.937143,37.158621],[126.937293,37.157428],[126.936843,37.157113],[126.936717,37.157002],[126.936162,37.156252],[126.935889,37.155866],[126.935691,37.155594],[126.935035,37.153284],[126.934564,37.151124],[126.934287,37.150861],[126.934004,37.150594],[126.933283,37.1498],[126.93209,37.14934],[126.930629,37.1488],[126.929919,37.148359],[126.929374,37.148032],[126.928683,37.147094],[126.928428,37.143254],[126.933495,37.144028],[126.934505,37.144902],[126.935686,37.14564],[126.939253,37.144394],[126.94282,37.143046],[126.944385,37.146106],[126.946529,37.150316],[126.944542,37.152158],[126.943742,37.153608],[126.943672,37.155093],[126.94368,37.157252],[126.944134,37.157596],[126.943782,37.158179],[126.944658,37.158795],[126.944559,37.159394],[126.945003,37.159574],[126.944538,37.16098],[126.944499,37.161701],[126.945048,37.162146],[126.945269,37.162634],[126.944889,37.163362],[126.94558,37.164743],[126.945283,37.166665],[126.94567,37.167318],[126.94507,37.167662],[126.944598,37.169082],[126.944877,37.170288],[126.944588,37.171114],[126.944036,37.171304],[126.943609,37.171844],[126.945091,37.17314],[126.946776,37.173668],[126.948756,37.174018],[126.94906,37.175697],[126.950134,37.176502],[126.951873,37.177162],[126.95167,37.178056],[126.950796,37.178708],[126.950745,37.179341],[126.950355,37.179864],[126.950482,37.180398],[126.95018,37.180512],[126.949622,37.181799],[126.949278,37.182289],[126.949171,37.182808],[126.949289,37.183375],[126.95052,37.186081],[126.952416,37.189163],[126.951749,37.189698],[126.951673,37.190461],[126.950755,37.191714],[126.950811,37.19229],[126.950088,37.193364],[126.951014,37.193901],[126.95358,37.19663],[126.956386,37.1975],[126.959549,37.197011],[126.962117,37.197092],[126.968154,37.198337],[126.970202,37.196789],[126.971022,37.196049],[126.9714,37.195397],[126.972114,37.195191],[126.972882,37.195224],[126.97737,37.198034],[126.980965,37.197978],[126.980961,37.197694],[126.982482,37.196654],[126.982374,37.19628],[126.983618,37.196041],[126.984358,37.195751],[126.983633,37.197546],[126.984466,37.198712],[126.984743,37.199099],[126.984753,37.200267],[126.984962,37.200577],[126.984827,37.202383],[126.983881,37.202825],[126.982023,37.204738],[126.981222,37.205765],[126.979798,37.206895],[126.979243,37.209278],[126.97948,37.211666],[126.979898,37.212723],[126.981696,37.21332],[126.980072,37.214989],[126.97876,37.216751],[126.978507,37.217482],[126.978686,37.217731],[126.97867,37.218596],[126.977576,37.219719],[126.978177,37.220864],[126.977072,37.220487],[126.97659,37.22087],[126.975937,37.221491],[126.975735,37.221887],[126.974976,37.22189],[126.974495,37.222286],[126.971972,37.224588],[126.971603,37.227381],[126.969147,37.230506],[126.968099,37.233681],[126.96643,37.235794],[126.963006,37.237424],[126.962081,37.237334],[126.957654,37.241119]]]}},{"type":"Feature","properties":{"name":"화성7권역","city":"화성","featureType":"kindergartenZone"},"geometry":{"type":"Polygon","coordinates":[[[126.874894,37.277051],[126.873962,37.276012],[126.87163,37.275373],[126.870592,37.274558],[126.863529,37.272153],[126.857283,37.272923],[126.8567,37.271913],[126.859928,37.27134],[126.860512,37.27037],[126.861126,37.268724],[126.861347,37.267816],[126.861221,37.266525],[126.862332,37.266117],[126.863034,37.26715],[126.86435,37.267206],[126.864944,37.266687],[126.864897,37.266001],[126.866782,37.264768],[126.866264,37.264457],[126.865489,37.26425],[126.866712,37.263139],[126.867333,37.261721],[126.857177,37.26923],[126.855539,37.269411],[126.851852,37.267512],[126.849711,37.265681],[126.85135,37.264478],[126.849136,37.261935],[126.8496,37.260812],[126.850185,37.260478],[126.849895,37.259605],[126.849826,37.259286],[126.849483,37.258706],[126.849548,37.257905],[126.849378,37.257739],[126.849339,37.256876],[126.849174,37.256962],[126.848717,37.257201],[126.84846,37.257535],[126.848289,37.257971],[126.846031,37.259692],[126.845226,37.25998],[126.844722,37.260045],[126.844628,37.261063],[126.844871,37.261423],[126.844212,37.262801],[126.844977,37.26348],[126.842986,37.264824],[126.841156,37.266338],[126.839042,37.264561],[126.836293,37.261172],[126.833351,37.257493],[126.833538,37.254661],[126.831657,37.253416],[126.827116,37.251966],[126.82508,37.238735],[126.82341,37.237089],[126.825107,37.23507],[126.826298,37.235393],[126.827194,37.231249],[126.829016,37.230032],[126.834861,37.230756],[126.835252,37.232143],[126.836735,37.23246],[126.839064,37.23238],[126.839909,37.230116],[126.842754,37.228986],[126.844562,37.229276],[126.848322,37.227204],[126.849363,37.22818],[126.850527,37.228224],[126.849522,37.226093],[126.85022,37.224105],[126.849626,37.221778],[126.848599,37.220786],[126.849332,37.219691],[126.852208,37.220135],[126.854182,37.218187],[126.856178,37.213613],[126.860707,37.214028],[126.861858,37.212624],[126.865247,37.211693],[126.865303,37.210041],[126.866615,37.209574],[126.866283,37.204576],[126.864635,37.202592],[126.862902,37.200746],[126.864204,37.200244],[126.865421,37.200733],[126.866669,37.200462],[126.86751,37.19966],[126.873022,37.197365],[126.873213,37.196534],[126.874535,37.195112],[126.874672,37.194516],[126.876295,37.193721],[126.876586,37.194168],[126.896148,37.187189],[126.900021,37.193853],[126.90089,37.195952],[126.901756,37.196028],[126.903048,37.197775],[126.904339,37.199044],[126.906021,37.199205],[126.907384,37.208819],[126.906838,37.209588],[126.907208,37.211921],[126.904433,37.213634],[126.902959,37.21661],[126.905269,37.218064],[126.909514,37.222892],[126.909405,37.224622],[126.908606,37.225738],[126.908149,37.226991],[126.90927,37.22797],[126.91097,37.230487],[126.913561,37.233041],[126.912589,37.23416],[126.912577,37.23486],[126.911909,37.234962],[126.912376,37.236395],[126.912064,37.237416],[126.912256,37.238503],[126.913499,37.238216],[126.913753,37.238871],[126.914862,37.238748],[126.916908,37.240414],[126.919138,37.239151],[126.920138,37.23917],[126.921239,37.239893],[126.922048,37.239444],[126.925201,37.238947],[126.924283,37.235243],[126.92502,37.235277],[126.926553,37.235732],[126.927439,37.235714],[126.927964,37.235337],[126.928211,37.236736],[126.929488,37.237931],[126.9292,37.239318],[126.930568,37.242688],[126.931756,37.242845],[126.930742,37.24427],[126.934144,37.243422],[126.937194,37.243101],[126.939947,37.242025],[126.941522,37.23978],[126.943534,37.238714],[126.946226,37.239144],[126.947789,37.241689],[126.947785,37.24243],[126.948421,37.243263],[126.951612,37.242469],[126.953128,37.242375],[126.954767,37.243733],[126.955743,37.245108],[126.95657,37.245151],[126.955978,37.246859],[126.95288,37.248652],[126.952285,37.251538],[126.950296,37.25282],[126.949865,37.254188],[126.950292,37.255352],[126.946682,37.257644],[126.94506,37.257129],[126.942924,37.257091],[126.941985,37.256765],[126.941045,37.256712],[126.939081,37.256812],[126.935689,37.256578],[126.93528,37.2581],[126.933241,37.259418],[126.93032,37.263937],[126.929705,37.270584],[126.928282,37.276913],[126.925338,37.281034],[126.921708,37.282695],[126.919533,37.284651],[126.917843,37.285215],[126.91618,37.288596],[126.914603,37.290202],[126.914227,37.291808],[126.900834,37.291503],[126.900045,37.291029],[126.899664,37.290589],[126.898435,37.289892],[126.898003,37.28963],[126.897014,37.289362],[126.896531,37.289381],[126.896236,37.289323],[126.89609,37.289008],[126.89299,37.286446],[126.893212,37.285216],[126.89159,37.284157],[126.891251,37.283843],[126.891256,37.283325],[126.890316,37.282499],[126.890211,37.282154],[126.889751,37.281965],[126.888234,37.282826],[126.886402,37.283308],[126.885465,37.282917],[126.88446,37.283063],[126.884172,37.283392],[126.883492,37.283574],[126.8824,37.283733],[126.881683,37.283915],[126.881807,37.284416],[126.880496,37.284786],[126.879068,37.285568],[126.878526,37.284696],[126.878083,37.284806],[126.877304,37.284281],[126.876978,37.283216],[126.877245,37.282734],[126.876713,37.282408],[126.875642,37.281102],[126.874882,37.280602],[126.873708,37.280249],[126.873507,37.279612],[126.872205,37.279516],[126.871629,37.280594],[126.869679,37.28099],[126.867137,37.281698],[126.862942,37.281553],[126.86203,37.280787],[126.862142,37.2802],[126.862413,37.279667],[126.862077,37.279708],[126.862059,37.278891],[126.862887,37.278961],[126.863115,37.278356],[126.862786,37.277545],[126.862284,37.275403],[126.863021,37.274024],[126.863303,37.272635],[126.86573,37.273562],[126.870505,37.275375],[126.874894,37.277051]]]}},{"type":"Feature","properties":{"name":"화성8권역","city":"화성","featureType":"kindergartenZone"},"geometry":{"type":"Polygon","coordinates":[[[126.862902,37.200746],[126.862142,37.200141],[126.862198,37.198742],[126.862149,37.198011],[126.86269,37.195905],[126.859626,37.195653],[126.859238,37.190626],[126.859188,37.189895],[126.857764,37.188063],[126.857114,37.187469],[126.857212,37.185415],[126.857168,37.184442],[126.858876,37.181096],[126.860071,37.177546],[126.861689,37.177488],[126.864752,37.174842],[126.862638,37.17085],[126.86267,37.168705],[126.859318,37.166197],[126.852409,37.162678],[126.845631,37.160156],[126.843749,37.156617],[126.835133,37.151681],[126.836774,37.14777],[126.839827,37.14814],[126.839925,37.146677],[126.839845,37.146013],[126.840538,37.145384],[126.842364,37.143825],[126.845722,37.142668],[126.846778,37.141473],[126.847821,37.140791],[126.847216,37.138491],[126.846903,37.138496],[126.845545,37.139002],[126.845338,37.139649],[126.844526,37.138878],[126.841159,37.137081],[126.841386,37.136388],[126.841134,37.134707],[126.841201,37.133302],[126.841379,37.132703],[126.841857,37.132206],[126.842957,37.130957],[126.844693,37.130576],[126.846575,37.129371],[126.848415,37.127994],[126.849064,37.126714],[126.848809,37.12622],[126.849089,37.125049],[126.848154,37.123906],[126.848318,37.122543],[126.848842,37.121576],[126.851398,37.120599],[126.852108,37.119382],[126.853116,37.118937],[126.853621,37.117346],[126.85449,37.117106],[126.855902,37.116554],[126.85699,37.115796],[126.859215,37.112736],[126.860567,37.112692],[126.861543,37.112482],[126.862632,37.110906],[126.863155,37.110665],[126.862794,37.110322],[126.864983,37.106232],[126.865339,37.105868],[126.865597,37.105378],[126.86534,37.104859],[126.86563,37.104454],[126.866467,37.104132],[126.867062,37.104169],[126.867522,37.103835],[126.868078,37.103621],[126.869128,37.103873],[126.869519,37.102959],[126.87188,37.102593],[126.872692,37.10258],[126.873182,37.101393],[126.875096,37.100827],[126.87578,37.101239],[126.876068,37.10162],[126.877655,37.101575],[126.877441,37.097444],[126.877822,37.097356],[126.87783,37.097064],[126.877542,37.096687],[126.877161,37.096583],[126.879015,37.094466],[126.879895,37.093499],[126.878715,37.091763],[126.878054,37.088354],[126.878535,37.086918],[126.879188,37.085653],[126.879556,37.084626],[126.879882,37.08353],[126.880701,37.081254],[126.880876,37.079897],[126.881004,37.07932],[126.882471,37.074219],[126.883422,37.067748],[126.888507,37.067731],[126.891548,37.067822],[126.893776,37.06869],[126.895899,37.069209],[126.897303,37.0694],[126.897662,37.069478],[126.898314,37.070373],[126.899219,37.070513],[126.901152,37.070959],[126.901819,37.072672],[126.90419,37.074213],[126.905333,37.074264],[126.905046,37.074016],[126.905203,37.072676],[126.904788,37.07228],[126.904946,37.071432],[126.905303,37.070768],[126.905739,37.07035],[126.906236,37.07009],[126.906914,37.070508],[126.907382,37.070529],[126.907852,37.069786],[126.908602,37.069722],[126.909105,37.069964],[126.911047,37.069693],[126.912419,37.068825],[126.914672,37.066559],[126.91554,37.066042],[126.916618,37.066314],[126.917458,37.065869],[126.918242,37.066724],[126.918441,37.066245],[126.919785,37.065936],[126.922625,37.066775],[126.92825,37.069112],[126.930075,37.068004],[126.930441,37.067552],[126.931514,37.064707],[126.931729,37.064089],[126.931322,37.063402],[126.932174,37.063182],[126.933819,37.063153],[126.93417,37.062641],[126.934527,37.062368],[126.935164,37.06237],[126.936509,37.062366],[126.938337,37.062114],[126.939226,37.061834],[126.939874,37.061531],[126.940381,37.061482],[126.940759,37.06193],[126.94284,37.0617],[126.945468,37.062013],[126.947732,37.062617],[126.948858,37.062382],[126.947576,37.066135],[126.947535,37.066521],[126.948159,37.066732],[126.949169,37.069579],[126.950859,37.069667],[126.951168,37.069352],[126.952309,37.069126],[126.952966,37.069133],[126.953315,37.068999],[126.956258,37.069052],[126.959124,37.069678],[126.959931,37.070235],[126.960065,37.070024],[126.959918,37.069627],[126.961003,37.068812],[126.96412,37.068439],[126.969105,37.074007],[126.971737,37.073191],[126.973449,37.072697],[126.974392,37.071732],[126.975614,37.0713],[126.977705,37.071803],[126.980403,37.071781],[126.983402,37.07193],[126.985228,37.072102],[126.986854,37.071957],[126.986622,37.071266],[126.986519,37.070797],[126.987063,37.070442],[126.987034,37.070126],[126.989487,37.070309],[126.990599,37.071384],[126.992978,37.070662],[126.994149,37.070422],[126.995029,37.070405],[126.99548,37.070422],[126.993129,37.078299],[126.992124,37.086346],[126.994884,37.089207],[126.999783,37.090706],[126.997942,37.095221],[126.998137,37.098232],[126.996861,37.101381],[126.998859,37.103264],[126.998454,37.10542],[126.996247,37.107303],[126.997203,37.113309],[126.998111,37.116381],[126.99762,37.119354],[126.996958,37.124107],[126.996429,37.124599],[126.996485,37.1262],[126.996952,37.127866],[126.996459,37.128457],[126.995257,37.129364],[126.993841,37.129605],[126.991137,37.128956],[126.990593,37.128042],[126.987148,37.129648],[126.985355,37.13059],[126.982992,37.131531],[126.982692,37.133952],[126.981884,37.134775],[126.981557,37.135735],[126.982041,37.137424],[126.981963,37.139714],[126.9821,37.142483],[126.980564,37.142711],[126.978438,37.144057],[126.977104,37.143807],[126.975458,37.143286],[126.972166,37.144571],[126.969186,37.145224],[126.96769,37.145298],[126.966414,37.144351],[126.960601,37.144783],[126.95876,37.143458],[126.956793,37.143543],[126.954233,37.143439],[126.952718,37.146104],[126.95226,37.149109],[126.946529,37.150316],[126.94282,37.143046],[126.938305,37.144749],[126.936867,37.145297],[126.935686,37.14564],[126.934505,37.144902],[126.933495,37.144028],[126.928428,37.143254],[126.928683,37.147094],[126.929374,37.148032],[126.930629,37.1488],[126.933283,37.1498],[126.934564,37.151124],[126.935691,37.155594],[126.937293,37.157428],[126.936757,37.159797],[126.934033,37.160773],[126.93295,37.160775],[126.931278,37.161154],[126.931045,37.161504],[126.930452,37.161774],[126.929672,37.16182],[126.929356,37.161483],[126.926129,37.160947],[126.924936,37.160538],[126.925143,37.159868],[126.924163,37.159588],[126.924112,37.159147],[126.923603,37.158403],[126.922693,37.15777],[126.922223,37.156127],[126.920668,37.155036],[126.920535,37.154696],[126.919539,37.154324],[126.917354,37.155512],[126.917403,37.156109],[126.9166,37.156772],[126.914802,37.157449],[126.915722,37.159222],[126.915321,37.159716],[126.914454,37.160241],[126.914135,37.160677],[126.915491,37.166125],[126.917498,37.166766],[126.920384,37.166774],[126.922497,37.168151],[126.918983,37.168101],[126.918044,37.168597],[126.919549,37.171683],[126.91952,37.17306],[126.918259,37.173969],[126.916936,37.176215],[126.917618,37.176801],[126.919324,37.177561],[126.919046,37.178876],[126.920723,37.179249],[126.920985,37.179927],[126.920223,37.180531],[126.921015,37.182149],[126.920017,37.18625],[126.91923,37.187707],[126.919974,37.188707],[126.919745,37.189749],[126.917399,37.190945],[126.914851,37.191422],[126.914304,37.192101],[126.913898,37.191888],[126.910856,37.191634],[126.909233,37.19198],[126.908217,37.191576],[126.905928,37.191385],[126.904947,37.192122],[126.903374,37.191982],[126.901622,37.19289],[126.899954,37.193798],[126.89618,37.187189],[126.876618,37.194168],[126.876327,37.193721],[126.875268,37.194156],[126.874704,37.194516],[126.874567,37.195112],[126.873213,37.196534],[126.873054,37.197365],[126.867542,37.19966],[126.866702,37.200462],[126.865453,37.200733],[126.864237,37.200244],[126.862902,37.200746]]]}},{"type":"Feature","properties":{"name":"화성9권역","city":"화성","featureType":"kindergartenZone"},"geometry":{"type":"Polygon","coordinates":[[[126.776966,37.2501],[126.777337,37.239072],[126.777436,37.237111],[126.778516,37.235926],[126.780236,37.235641],[126.781568,37.234832],[126.782126,37.234137],[126.78305,37.231024],[126.785861,37.233327],[126.786655,37.233111],[126.787009,37.232874],[126.787143,37.232652],[126.788436,37.23238],[126.789133,37.232032],[126.791027,37.232088],[126.792564,37.230049],[126.793182,37.229063],[126.792987,37.228797],[126.79349,37.228485],[126.7938,37.227676],[126.794604,37.226546],[126.795542,37.226084],[126.796033,37.225938],[126.796825,37.22572],[126.796974,37.224372],[126.797779,37.223596],[126.799248,37.222272],[126.798705,37.22093],[126.798326,37.220003],[126.799639,37.218429],[126.801776,37.214822],[126.801574,37.213608],[126.800202,37.213331],[126.798873,37.211808],[126.798122,37.211748],[126.79749,37.210897],[126.796744,37.210762],[126.796522,37.210456],[126.79602,37.208953],[126.794831,37.20748],[126.794798,37.206437],[126.795065,37.205394],[126.792572,37.204179],[126.791654,37.203569],[126.790952,37.200976],[126.790733,37.200379],[126.790042,37.199884],[126.791515,37.197597],[126.792128,37.195898],[126.793711,37.194706],[126.79521,37.193487],[126.796604,37.192911],[126.797396,37.192694],[126.798818,37.194349],[126.799441,37.194895],[126.799679,37.195749],[126.799744,37.196124],[126.800604,37.19609],[126.800282,37.195654],[126.800035,37.194667],[126.799385,37.189762],[126.79123,37.170151],[126.777929,37.157664],[126.755706,37.155298],[126.734472,37.139235],[126.806492,37.14854],[126.835133,37.151681],[126.843729,37.156471],[126.845538,37.160098],[126.852409,37.162678],[126.858717,37.165605],[126.86267,37.168705],[126.862638,37.17085],[126.864752,37.174842],[126.861689,37.177488],[126.860071,37.177546],[126.858876,37.181096],[126.857163,37.184684],[126.857114,37.187469],[126.859188,37.189895],[126.859626,37.195653],[126.86269,37.195905],[126.862149,37.198011],[126.862142,37.200141],[126.862902,37.200746],[126.864797,37.202832],[126.866315,37.204576],[126.866648,37.209574],[126.865335,37.210041],[126.865279,37.211693],[126.86478,37.211938],[126.86189,37.212624],[126.860739,37.214028],[126.856211,37.213613],[126.854214,37.218187],[126.85224,37.220135],[126.849364,37.219691],[126.848631,37.220786],[126.849658,37.221778],[126.850253,37.224105],[126.849554,37.226093],[126.85056,37.228224],[126.849395,37.22818],[126.848354,37.227204],[126.847044,37.227781],[126.844594,37.229276],[126.842786,37.228986],[126.839942,37.230116],[126.839746,37.230734],[126.839096,37.23238],[126.836767,37.23246],[126.835284,37.232143],[126.834894,37.230756],[126.829048,37.230032],[126.827227,37.231249],[126.82633,37.235393],[126.825139,37.23507],[126.823442,37.237089],[126.825112,37.238735],[126.826134,37.245036],[126.827148,37.251966],[126.83169,37.253416],[126.83357,37.254661],[126.833384,37.257493],[126.8371,37.262263],[126.839074,37.264561],[126.841188,37.266338],[126.839272,37.268142],[126.838376,37.269144],[126.837755,37.269868],[126.837521,37.270011],[126.837159,37.270414],[126.835447,37.2707],[126.833609,37.27175],[126.831169,37.27356],[126.828895,37.270624],[126.828059,37.270436],[126.827289,37.270538],[126.826308,37.270983],[126.825417,37.271598],[126.82507,37.271972],[126.823821,37.273319],[126.821516,37.27498],[126.820773,37.275493],[126.818717,37.276607],[126.817442,37.276946],[126.816187,37.277285],[126.8157,37.277625],[126.815128,37.277785],[126.814595,37.277973],[126.814051,37.278468],[126.813605,37.27857],[126.812987,37.27872],[126.812261,37.278912],[126.811621,37.279053],[126.811217,37.279407],[126.809649,37.280756],[126.810549,37.28272],[126.81108,37.283028],[126.811578,37.283309],[126.812798,37.28442],[126.813394,37.284575],[126.813834,37.284852],[126.812789,37.285658],[126.812291,37.286052],[126.811467,37.286264],[126.810842,37.286421],[126.810281,37.286582],[126.809539,37.286152],[126.808091,37.285898],[126.807501,37.285473],[126.806847,37.285014],[126.805924,37.284613],[126.804487,37.284596],[126.802672,37.279205],[126.800257,37.278048],[126.80225,37.277033],[126.803661,37.276983],[126.80511,37.274219],[126.806463,37.271815],[126.809511,37.266872],[126.805351,37.267875],[126.803337,37.268195],[126.801884,37.269245],[126.800351,37.269501],[126.798314,37.270285],[126.795956,37.270693],[126.795111,37.268706],[126.791876,37.268146],[126.790643,37.266684],[126.792382,37.264034],[126.791482,37.262013],[126.793118,37.260294],[126.793127,37.258972],[126.788341,37.255031],[126.789326,37.250222],[126.776966,37.2501]]]}},{"type":"Feature","properties":{"name":"화성10권역","city":"화성","featureType":"kindergartenZone"},"geometry":{"type":"Polygon","coordinates":[[[126.764243,37.142968],[126.747714,37.140671],[126.741618,37.135809],[126.734921,37.131495],[126.727432,37.12494],[126.72444,37.120208],[126.723507,37.115202],[126.733852,37.073276],[126.757032,37.05506],[126.753362,37.053091],[126.749178,37.048931],[126.746646,37.045678],[126.744372,37.038247],[126.749136,37.029788],[126.789698,37.029555],[126.794783,37.02666],[126.795523,37.01795],[126.797296,37.016286],[126.797524,37.014348],[126.797636,37.012528],[126.822738,37.01352],[126.835547,37.014014],[126.84767,37.015329],[126.880152,37.056774],[126.882325,37.060755],[126.88364,37.064735],[126.882364,37.073963],[126.880975,37.079064],[126.879457,37.084166],[126.878153,37.087521],[126.878241,37.089676],[126.878715,37.091763],[126.879388,37.092722],[126.879895,37.093499],[126.877161,37.096583],[126.877542,37.096687],[126.87783,37.097064],[126.877822,37.097356],[126.877441,37.097444],[126.877655,37.101575],[126.876068,37.10162],[126.87578,37.101239],[126.875096,37.100827],[126.874263,37.101041],[126.873182,37.101393],[126.872796,37.102306],[126.872692,37.10258],[126.87188,37.102593],[126.870192,37.102892],[126.869519,37.102959],[126.869128,37.103873],[126.868078,37.103621],[126.867522,37.103835],[126.867062,37.104169],[126.866467,37.104132],[126.86563,37.104454],[126.86534,37.104859],[126.865597,37.105378],[126.865339,37.105868],[126.864983,37.106232],[126.864262,37.10766],[126.863086,37.109586],[126.862794,37.110322],[126.863155,37.110665],[126.862632,37.110906],[126.861543,37.112482],[126.860567,37.112692],[126.859215,37.112736],[126.857455,37.115185],[126.85699,37.115796],[126.855902,37.116554],[126.85449,37.117106],[126.853621,37.117346],[126.853352,37.118132],[126.853116,37.118937],[126.852108,37.119382],[126.851398,37.120599],[126.848842,37.121576],[126.848318,37.122543],[126.848154,37.123906],[126.849089,37.125049],[126.848809,37.12622],[126.849064,37.126714],[126.848415,37.127994],[126.847374,37.128809],[126.844693,37.130576],[126.842934,37.130825],[126.842013,37.131999],[126.841674,37.132334],[126.841379,37.132703],[126.841178,37.133498],[126.841134,37.134707],[126.841245,37.135761],[126.841386,37.136388],[126.841159,37.137081],[126.844526,37.138878],[126.845338,37.139649],[126.845545,37.139002],[126.847216,37.138491],[126.847821,37.140791],[126.846778,37.141473],[126.845722,37.142668],[126.842364,37.143825],[126.839845,37.146013],[126.839827,37.14814],[126.836774,37.14777],[126.835133,37.151681],[126.764243,37.142968]]]}},{"type":"Feature","properties":{"name":"화성11권역","city":"화성","featureType":"kindergartenZone"},"geometry":{"type":"Polygon","coordinates":[[[126.695786,37.248968],[126.653857,37.271753],[126.644216,37.279727],[126.638193,37.283372],[126.631826,37.28811],[126.628791,37.283329],[126.638206,37.276397],[126.642226,37.274092],[126.643893,37.270958],[126.646589,37.268371],[126.644083,37.252793],[126.650851,37.239331],[126.659333,37.226826],[126.653794,37.196205],[126.621791,37.180073],[126.615026,37.173262],[126.61439,37.155494],[126.675873,37.116101],[126.695687,37.115084],[126.704771,37.118618],[126.715916,37.125162],[126.733748,37.138796],[126.755706,37.155298],[126.777929,37.157664],[126.79123,37.170151],[126.796312,37.18295],[126.799385,37.189762],[126.799801,37.192977],[126.800282,37.195654],[126.800604,37.19609],[126.799744,37.196124],[126.799441,37.194895],[126.797396,37.192694],[126.79521,37.193487],[126.792128,37.195898],[126.791428,37.19772],[126.790042,37.199884],[126.790733,37.200379],[126.791654,37.203569],[126.795065,37.205394],[126.794831,37.20748],[126.79602,37.208953],[126.796522,37.210456],[126.79749,37.210897],[126.798122,37.211748],[126.798873,37.211808],[126.800202,37.213331],[126.801574,37.213608],[126.801776,37.214822],[126.799639,37.218429],[126.798326,37.220003],[126.799248,37.222272],[126.796974,37.224372],[126.796825,37.22572],[126.795542,37.226084],[126.794604,37.226546],[126.7938,37.227676],[126.79349,37.228485],[126.792987,37.228797],[126.793182,37.229063],[126.791027,37.232088],[126.789133,37.232032],[126.785861,37.233327],[126.78305,37.231024],[126.782126,37.234137],[126.781568,37.234832],[126.780236,37.235641],[126.778516,37.235926],[126.777436,37.237111],[126.776966,37.2501],[126.695786,37.248968]]]}},{"type":"Feature","properties":{"name":"화성12권역","city":"화성","featureType":"kindergartenZone"},"geometry":{"type":"Polygon","coordinates":[[[126.804485,37.293075],[126.804376,37.287905],[126.804487,37.284596],[126.805924,37.284613],[126.806847,37.285014],[126.808091,37.285898],[126.809539,37.286152],[126.810281,37.286582],[126.812291,37.286052],[126.813834,37.284852],[126.813394,37.284575],[126.812798,37.28442],[126.811578,37.283309],[126.810549,37.28272],[126.809649,37.280756],[126.811621,37.279053],[126.814051,37.278468],[126.814595,37.277973],[126.8157,37.277625],[126.816187,37.277285],[126.818717,37.276607],[126.820773,37.275493],[126.823821,37.273319],[126.825417,37.271598],[126.826308,37.270983],[126.827289,37.270538],[126.828059,37.270436],[126.828895,37.270624],[126.829172,37.271084],[126.831178,37.273612],[126.833609,37.27175],[126.835447,37.2707],[126.837159,37.270414],[126.8392721,37.2681419],[126.84132,37.266156],[126.843025,37.264799],[126.844977,37.26348],[126.844775,37.263297],[126.844212,37.262801],[126.844503,37.262221],[126.844712,37.261769],[126.844871,37.261423],[126.844628,37.261063],[126.844722,37.260045],[126.8453154,37.2599809],[126.846031,37.259692],[126.8464245,37.2593916],[126.8468099,37.2590955],[126.8472637,37.2587477],[126.8477068,37.2584062],[126.848289,37.257971],[126.84851,37.257441],[126.848717,37.257201],[126.849174,37.256962],[126.849339,37.256876],[126.849378,37.257739],[126.849548,37.257905],[126.849483,37.258706],[126.849826,37.259286],[126.849895,37.259605],[126.849214,37.259908],[126.849127,37.2604],[126.848966,37.260766],[126.848713,37.260898],[126.847696,37.260067],[126.846941,37.259951],[126.846038,37.259858],[126.845565,37.260094],[126.845275,37.260553],[126.845258,37.261142],[126.845679,37.261735],[126.846405,37.263662],[126.846435,37.263968],[126.84601,37.264181],[126.845379,37.26492],[126.845231,37.265897],[126.844038,37.266746],[126.841523,37.267616],[126.840484,37.268177],[126.837119,37.272783],[126.83734,37.273731],[126.837353,37.275558],[126.836865,37.27648],[126.833938,37.277063],[126.831184,37.277031],[126.829794,37.276694],[126.828046,37.277112],[126.826994,37.278256],[126.825942,37.280652],[126.825018,37.284108],[126.824114,37.285623],[126.82222,37.287902],[126.81972,37.290343],[126.817038,37.292153],[126.814704,37.292938],[126.813058,37.293075],[126.810346,37.293118],[126.807849,37.293399],[126.804485,37.293075]]]}},{"type":"Feature","properties":{"name":"화성1권역","city":"화성","featureType":"kindergartenZone"},"geometry":{"type":"Polygon","coordinates":[[[127.0914001,37.2168107],[127.0884411,37.2165947],[127.0848471,37.2105737],[127.0843521,37.2092647],[127.0858451,37.2067407],[127.0859561,37.2049057],[127.0854491,37.2037197],[127.0836101,37.2018487],[127.0831641,37.2003547],[127.0829761,37.1968437],[127.0822121,37.1925557],[127.0836651,37.1893877],[127.0830231,37.1842227],[127.0813771,37.1845067],[127.0808891,37.1844457],[127.0799041,37.1846207],[127.0793151,37.1848617],[127.0782271,37.1854617],[127.0765221,37.1861907],[127.0736431,37.1872637],[127.0706951,37.1843937],[127.0702411,37.1675717],[127.0797361,37.1637777],[127.0819961,37.1617227],[127.0863451,37.1607297],[127.0887991,37.1605237],[127.0900041,37.1607457],[127.0909521,37.1598737],[127.0942141,37.1589457],[127.0991841,37.1503947],[127.1106761,37.1438567],[127.1267931,37.1455577],[127.1284691,37.1475887],[127.1305361,37.1512407],[127.1292631,37.1536197],[127.1286921,37.1583077],[127.1278081,37.1605017],[127.1278441,37.1613997],[127.1289451,37.1625817],[127.1315761,37.1636457],[127.1334921,37.1642677],[127.1338901,37.1649637],[127.1338281,37.1658107],[127.1328461,37.1672977],[127.1326851,37.1684957],[127.1373411,37.1694527],[127.1491451,37.1702017],[127.1519451,37.1717157],[127.1541611,37.1762697],[127.1580161,37.1772467],[127.161013,37.1800017],[127.159064,37.1839917],[127.161176,37.1918337],[127.1557861,37.1975367],[127.1529021,37.1970457],[127.1533131,37.2007137],[127.1577411,37.2070937],[127.1568141,37.2085067],[127.1544431,37.2098287],[127.1534771,37.2120627],[127.1518891,37.2140037],[127.1505151,37.2201427],[127.1424451,37.2177727],[127.1371861,37.2154877],[127.1312471,37.2170257],[127.1276681,37.2181697],[127.1257471,37.2189187],[127.1228911,37.2189497],[127.1171681,37.2200857],[127.1163381,37.2197537],[127.1137531,37.2192067],[127.1109121,37.2192417],[127.1043701,37.2194117],[127.0952391,37.2183857],[127.0914001,37.2168107]]]}},{"type":"Feature","properties":{"name":"화성2권역","city":"화성","featureType":"kindergartenZone"},"geometry":{"type":"Polygon","coordinates":[[[127.05871,37.210984],[127.05882,37.210781],[127.05878,37.210665],[127.058652,37.210401],[127.058331,37.210258],[127.058118,37.210257],[127.057957,37.210282],[127.057724,37.210201],[127.057703,37.210107],[127.05762,37.210043],[127.057382,37.209889],[127.056909,37.210055],[127.056463,37.210216],[127.056208,37.210103],[127.054691,37.210662],[127.054326,37.210313],[127.0541,37.210433],[127.053863,37.209865],[127.054095,37.209323],[127.054465,37.208682],[127.054503,37.208121],[127.053423,37.20811],[127.053065,37.208174],[127.051447,37.20867],[127.051439,37.209421],[127.05107,37.20992],[127.05103,37.210443],[127.051343,37.21076],[127.051189,37.210953],[127.051278,37.211169],[127.051166,37.211277],[127.051073,37.211182],[127.050936,37.211313],[127.051065,37.211477],[127.05084,37.211675],[127.05076,37.211914],[127.050648,37.211923],[127.049892,37.208656],[127.049269,37.20505],[127.051974,37.203491],[127.052801,37.203739],[127.053209,37.202698],[127.053274,37.20226],[127.05305,37.201312],[127.052873,37.200697],[127.052753,37.200334],[127.052215,37.200431],[127.051914,37.20015],[127.051828,37.200082],[127.05171,37.20021],[127.05157,37.200215],[127.051152,37.199713],[127.050922,37.199685],[127.05135,37.198684],[127.050129,37.198325],[127.050033,37.198294],[127.050239,37.197944],[127.04997,37.197888],[127.050541,37.197195],[127.049883,37.196926],[127.049866,37.196893],[127.050481,37.19645],[127.051174,37.196605],[127.051808,37.196919],[127.051913,37.196987],[127.05221,37.196988],[127.052449,37.197064],[127.052735,37.197033],[127.052795,37.196941],[127.053426,37.197189],[127.054053,37.197372],[127.054489,37.197464],[127.055657,37.197309],[127.056096,37.197142],[127.056718,37.197191],[127.056745,37.197484],[127.057042,37.197589],[127.057218,37.197782],[127.057735,37.197833],[127.058053,37.197874],[127.058882,37.198283],[127.059517,37.19868],[127.059842,37.198968],[127.060098,37.199245],[127.060613,37.199498],[127.06146,37.199395],[127.061889,37.199202],[127.062211,37.199148],[127.062919,37.199147],[127.063386,37.199154],[127.064413,37.198894],[127.064641,37.19868],[127.065031,37.197878],[127.065092,37.197579],[127.065413,37.196947],[127.065755,37.196289],[127.066173,37.195768],[127.066296,37.195435],[127.066272,37.195024],[127.066179,37.194969],[127.065634,37.194249],[127.065742,37.193607],[127.065494,37.193425],[127.065439,37.193084],[127.065645,37.192336],[127.065646,37.192084],[127.065892,37.191739],[127.06625,37.191446],[127.066697,37.191133],[127.067167,37.19094],[127.068007,37.190886],[127.06827,37.190789],[127.068627,37.190672],[127.0681,37.190395],[127.067935,37.189526],[127.067853,37.188767],[127.06697,37.188432],[127.066505,37.187653],[127.06539,37.185706],[127.06599,37.185204],[127.065937,37.184747],[127.066736,37.1841],[127.068219,37.184528],[127.069272,37.184118],[127.070635,37.184392],[127.072647,37.18641],[127.073582,37.187262],[127.07455,37.186909],[127.076549,37.186153],[127.078166,37.18546],[127.079255,37.184861],[127.079844,37.184619],[127.080828,37.184445],[127.081317,37.184506],[127.081823,37.184405],[127.082963,37.184221],[127.083505,37.187801],[127.083605,37.189386],[127.082152,37.192555],[127.082916,37.196842],[127.083104,37.200353],[127.08355,37.201848],[127.085388,37.203718],[127.085896,37.204905],[127.085785,37.206739],[127.085187,37.207581],[127.084292,37.209263],[127.084562,37.210082],[127.087179,37.214705],[127.088381,37.216593],[127.085892,37.21791],[127.085462,37.218253],[127.08469,37.218906],[127.084002,37.219151],[127.083485,37.21954],[127.082109,37.22001],[127.081243,37.221086],[127.080757,37.22136],[127.080128,37.221702],[127.079643,37.221805],[127.079403,37.222079],[127.079179,37.222491],[127.07856,37.222631],[127.078266,37.22257],[127.077892,37.222858],[127.078216,37.223296],[127.077357,37.223962],[127.077055,37.224551],[127.075851,37.225592],[127.075328,37.225808],[127.073577,37.226101],[127.073122,37.226304],[127.071395,37.225265],[127.066577,37.222282],[127.070957,37.213256],[127.064037,37.212347],[127.062973,37.216114],[127.062977,37.218236],[127.062165,37.219327],[127.061718,37.220314],[127.06023,37.221444],[127.056259,37.218501],[127.055221,37.2176],[127.055466,37.216191],[127.054893,37.21583],[127.054298,37.215502],[127.053576,37.215146],[127.052896,37.214858],[127.053266,37.214412],[127.05417,37.213826],[127.054956,37.213044],[127.055154,37.212789],[127.056059,37.212341],[127.056975,37.21191],[127.057736,37.211534],[127.058732,37.211048],[127.05871,37.210984]]]}},{"type":"Feature","properties":{"name":"화성3권역","city":"화성","featureType":"kindergartenZone"},"geometry":{"type":"Polygon","coordinates":[[[127.051833,37.234284],[127.049407,37.234075],[127.048087,37.233475],[127.047008,37.233055],[127.046491,37.232845],[127.045896,37.232776],[127.045798,37.233092],[127.04547,37.23293],[127.044986,37.233088],[127.045057,37.232728],[127.044152,37.228669],[127.045858,37.229269],[127.045853,37.228322],[127.04633,37.227673],[127.046857,37.226618],[127.047201,37.226113],[127.047861,37.225434],[127.049277,37.224396],[127.049996,37.222922],[127.050627,37.22184],[127.051065,37.221184],[127.051544,37.220668],[127.052328,37.22127],[127.05263,37.221044],[127.052946,37.221002],[127.053701,37.22082],[127.056259,37.218501],[127.058274,37.220009],[127.06023,37.221444],[127.061195,37.220722],[127.061718,37.220314],[127.062165,37.219327],[127.06248,37.218803],[127.062739,37.218498],[127.062858,37.218376],[127.062977,37.218236],[127.062973,37.216114],[127.064037,37.212347],[127.06747,37.212806],[127.070957,37.213256],[127.066577,37.222282],[127.071395,37.225265],[127.072748,37.226095],[127.073122,37.226304],[127.073577,37.226101],[127.074397,37.225957],[127.075328,37.225808],[127.075851,37.225592],[127.075342,37.226665],[127.075214,37.226882],[127.074819,37.22817],[127.074191,37.228144],[127.073858,37.228215],[127.073632,37.228371],[127.073271,37.228784],[127.07277,37.229018],[127.072304,37.229204],[127.070823,37.228869],[127.06985,37.228551],[127.069539,37.229355],[127.068776,37.229834],[127.06875,37.230083],[127.06918,37.230788],[127.069396,37.231314],[127.069376,37.232015],[127.068669,37.232784],[127.068492,37.233418],[127.067972,37.234496],[127.067327,37.23483],[127.06798,37.235528],[127.067914,37.23689],[127.067308,37.238247],[127.067685,37.24004],[127.066576,37.240053],[127.065796,37.240102],[127.065192,37.240042],[127.064879,37.239721],[127.064748,37.239417],[127.063927,37.239063],[127.062959,37.238818],[127.062175,37.238088],[127.061246,37.237348],[127.060071,37.236759],[127.059912,37.236409],[127.059996,37.236172],[127.059331,37.235032],[127.058665,37.234496],[127.056798,37.233254],[127.054771,37.23215],[127.052866,37.231406],[127.052568,37.231572],[127.053761,37.23239],[127.053541,37.233482],[127.051833,37.234284]]]}},{"type":"Feature","properties":{"name":"화성5권역","city":"화성","featureType":"kindergartenZone"},"geometry":{"type":"Polygon","coordinates":[[[126.9821,37.142483],[126.98194,37.139301],[126.982041,37.137424],[126.981774,37.136734],[126.981651,37.136085],[126.981557,37.135735],[126.981534,37.135571],[126.981662,37.135462],[126.981884,37.134775],[126.982692,37.133952],[126.982992,37.131531],[126.985175,37.130683],[126.987148,37.129648],[126.990593,37.128042],[126.991137,37.128956],[126.993841,37.129605],[126.995257,37.129364],[126.996459,37.128457],[126.996952,37.127866],[126.996641,37.126664],[126.996485,37.1262],[126.996429,37.124599],[126.996958,37.124107],[127.001622,37.126112],[127.006478,37.126252],[127.01155,37.128941],[127.013357,37.128926],[127.017253,37.129799],[127.021107,37.131938],[127.02483,37.13265],[127.02946,37.133506],[127.029885,37.133848],[127.029834,37.134139],[127.029698,37.134387],[127.0299,37.13461],[127.030094,37.13483],[127.030455,37.13488],[127.031241,37.134757],[127.034337,37.135546],[127.035026,37.135657],[127.03516,37.136015],[127.036114,37.136733],[127.025696,37.16812],[127.020984,37.162279],[127.008551,37.167216],[127.005314,37.170523],[127.001929,37.169273],[126.997474,37.171627],[126.994572,37.176474],[126.997093,37.179397],[127.004078,37.178125],[127.0057,37.181026],[127.002505,37.182107],[127.006501,37.186493],[127.007166,37.186681],[127.008443,37.189419],[127.010568,37.191221],[127.010439,37.193467],[127.011705,37.194301],[127.015676,37.195235],[127.01909,37.195879],[127.022992,37.197551],[127.024607,37.197585],[127.02583,37.198812],[127.026607,37.199206],[127.02733,37.199155],[127.027731,37.19937],[127.027713,37.19973],[127.027118,37.199948],[127.027133,37.200214],[127.026816,37.200523],[127.025731,37.200815],[127.022789,37.20164],[127.02436,37.205058],[127.024049,37.205964],[127.021209,37.208412],[127.02266,37.20898],[127.025218,37.209842],[127.028404,37.21102],[127.027695,37.211256],[127.026921,37.211762],[127.02709,37.212194],[127.02335,37.215912],[127.022871,37.216391],[127.023273,37.216717],[127.024363,37.217421],[127.025256,37.218266],[127.026205,37.220025],[127.023002,37.226152],[127.02243,37.225209],[127.021456,37.22439],[127.020929,37.224948],[127.020408,37.225305],[127.019693,37.225475],[127.018275,37.225695],[127.015107,37.225886],[127.013974,37.226534],[127.01291,37.226327],[127.010609,37.226459],[127.007809,37.226859],[127.006072,37.228957],[127.005602,37.228746],[127.004532,37.22887],[127.003335,37.229939],[127.002955,37.229996],[127.00237,37.229805],[127.002682,37.228808],[127.002044,37.228908],[127.001792,37.22817],[127.000913,37.227506],[127.000711,37.226405],[127.000094,37.226374],[126.999867,37.226772],[126.999714,37.226611],[126.999278,37.226076],[126.998644,37.226116],[126.998404,37.225513],[126.997926,37.225485],[126.99787,37.225772],[126.997695,37.225988],[126.997794,37.226299],[126.997907,37.226751],[126.997338,37.226835],[126.997145,37.22702],[126.997338,37.227235],[126.997253,37.227615],[126.996347,37.22754],[126.996183,37.227912],[126.996406,37.228268],[126.996616,37.228133],[126.99704,37.228169],[126.997353,37.228389],[126.997508,37.228744],[126.997238,37.229043],[126.996225,37.229248],[126.993986,37.230428],[126.992833,37.230532],[126.992029,37.231184],[126.991184,37.230797],[126.990618,37.231145],[126.990022,37.231277],[126.990119,37.232139],[126.989646,37.23212],[126.98943,37.231467],[126.988934,37.231631],[126.988907,37.231959],[126.989218,37.232666],[126.989131,37.23312],[126.98869,37.233326],[126.987872,37.233859],[126.986965,37.233797],[126.987179,37.233293],[126.986364,37.233403],[126.98632,37.234222],[126.985826,37.233946],[126.98563,37.233411],[126.985819,37.232768],[126.984951,37.232387],[126.984718,37.231984],[126.98437,37.230452],[126.983155,37.231192],[126.982252,37.231649],[126.982032,37.232103],[126.980556,37.23231],[126.979407,37.230896],[126.978653,37.230392],[126.978563,37.229315],[126.977524,37.229433],[126.976131,37.230062],[126.972511,37.228637],[126.97014,37.229153],[126.971603,37.227381],[126.9718,37.225897],[126.971972,37.224588],[126.973424,37.22329],[126.974976,37.22189],[126.975735,37.221887],[126.975937,37.221491],[126.97659,37.22087],[126.977072,37.220487],[126.978177,37.220864],[126.977576,37.219719],[126.97867,37.218596],[126.978507,37.217482],[126.97876,37.216751],[126.979766,37.215314],[126.981696,37.21332],[126.979898,37.212723],[126.979554,37.211835],[126.979423,37.211544],[126.979243,37.209278],[126.979798,37.206895],[126.981222,37.205765],[126.983881,37.202825],[126.984827,37.202383],[126.984962,37.200577],[126.984753,37.200267],[126.984743,37.199099],[126.984143,37.198242],[126.983633,37.197546],[126.983989,37.196579],[126.984358,37.195751],[126.982374,37.19628],[126.982482,37.196654],[126.980961,37.197694],[126.980965,37.197978],[126.97737,37.198034],[126.972611,37.195085],[126.9714,37.195397],[126.971022,37.196049],[126.968154,37.198337],[126.962392,37.197148],[126.959382,37.196981],[126.956386,37.1975],[126.953309,37.196491],[126.952112,37.195075],[126.950743,37.193762],[126.950088,37.193364],[126.950811,37.19229],[126.950755,37.191714],[126.951673,37.190461],[126.951749,37.189698],[126.952416,37.189163],[126.950399,37.185856],[126.949171,37.182808],[126.949622,37.181799],[126.95018,37.180512],[126.950482,37.180398],[126.950355,37.179864],[126.950745,37.179341],[126.950796,37.178708],[126.95167,37.178056],[126.951873,37.177162],[126.950134,37.176502],[126.94906,37.175697],[126.948756,37.174018],[126.946776,37.173668],[126.94482,37.173001],[126.943609,37.171844],[126.944036,37.171304],[126.944588,37.171114],[126.944877,37.170288],[126.944598,37.169082],[126.94507,37.167662],[126.94567,37.167318],[126.945283,37.166665],[126.94558,37.164743],[126.944889,37.163362],[126.945269,37.162634],[126.945048,37.162146],[126.944499,37.161701],[126.944538,37.16098],[126.945003,37.159574],[126.944559,37.159394],[126.944658,37.158795],[126.943782,37.158179],[126.944134,37.157596],[126.94368,37.157252],[126.943742,37.153608],[126.944542,37.152158],[126.946529,37.150316],[126.95226,37.149109],[126.952718,37.146104],[126.954233,37.143439],[126.95876,37.143458],[126.960601,37.144783],[126.966414,37.144351],[126.96769,37.145298],[126.972166,37.144571],[126.975458,37.143286],[126.978438,37.144057],[126.980564,37.142711],[126.9821,37.142483]]]}},{"type":"Feature","properties":{"name":"오산1권역","city":"오산","featureType":"kindergartenZone"},"geometry":{"type":"Polygon","coordinates":[[[127.067354,37.154841],[127.065948,37.141601],[127.065375,37.135863],[127.065032,37.132099],[127.065045,37.131086],[127.066124,37.131161],[127.065848,37.130018],[127.066268,37.12854],[127.066167,37.127929],[127.066664,37.127034],[127.067438,37.127005],[127.06789,37.12761],[127.068877,37.128055],[127.070594,37.126738],[127.071216,37.125694],[127.072772,37.125814],[127.072981,37.12525],[127.074394,37.125652],[127.074822,37.126357],[127.077568,37.127531],[127.078292,37.127883],[127.079099,37.128157],[127.079267,37.125865],[127.080488,37.126267],[127.08201,37.12628],[127.083447,37.126885],[127.085926,37.126717],[127.08754,37.1273],[127.089388,37.128396],[127.090269,37.129675],[127.09072,37.130045],[127.091965,37.129623],[127.093092,37.129312],[127.091027,37.132086],[127.09126,37.134979],[127.091376,37.135878],[127.093581,37.136191],[127.096185,37.136997],[127.110616,37.143856],[127.103756,37.147788],[127.099124,37.150393],[127.094154,37.158945],[127.090892,37.159872],[127.089944,37.160744],[127.088739,37.160523],[127.085899,37.160831],[127.081936,37.161722],[127.079676,37.163776],[127.076097,37.161049],[127.067354,37.154841]]]}},{"type":"Feature","properties":{"name":"오산2권역","city":"오산","featureType":"kindergartenZone"},"geometry":{"type":"Polygon","coordinates":[[[127.025696,37.16812],[127.036114,37.136733],[127.043943,37.126941],[127.04526,37.126972],[127.046691,37.13188],[127.05393,37.131938],[127.055468,37.131951],[127.065032,37.132099],[127.067354,37.154841],[127.075106,37.160115],[127.079676,37.163776],[127.070181,37.167571],[127.061942,37.164493],[127.047694,37.167366],[127.025696,37.16812]]]}},{"type":"Feature","properties":{"name":"오산3권역","city":"오산","featureType":"kindergartenZone"},"geometry":{"type":"Polygon","coordinates":[[[127.010568,37.191221],[127.008443,37.189419],[127.007166,37.186681],[127.002505,37.182107],[127.0057,37.181026],[127.004078,37.178125],[126.997093,37.179397],[126.994572,37.176474],[126.997474,37.171627],[127.001929,37.169273],[127.005314,37.170523],[127.008551,37.167216],[127.020984,37.162279],[127.025696,37.16812],[127.047694,37.167366],[127.061942,37.164493],[127.070181,37.167571],[127.070635,37.184392],[127.069272,37.184118],[127.068219,37.184528],[127.066736,37.1841],[127.065937,37.184747],[127.06599,37.185204],[127.06539,37.185706],[127.06697,37.188432],[127.060215,37.188765],[127.05441,37.192044],[127.050481,37.19645],[127.047608,37.196043],[127.044177,37.197836],[127.042423,37.197716],[127.038556,37.198419],[127.03743,37.199148],[127.037322,37.199752],[127.036593,37.199934],[127.032044,37.199989],[127.030156,37.199724],[127.028652,37.200016],[127.026816,37.200523],[127.027133,37.200214],[127.027118,37.199948],[127.027713,37.19973],[127.027731,37.19937],[127.02733,37.199155],[127.026607,37.199206],[127.02583,37.198812],[127.024607,37.197585],[127.022992,37.197551],[127.01909,37.195879],[127.011705,37.194301],[127.010439,37.193467],[127.010568,37.191221]]]}},{"type":"Feature","properties":{"name":"오산4권역","city":"오산","featureType":"kindergartenZone"},"geometry":{"type":"Polygon","coordinates":[[[127.050481,37.19645],[127.05214,37.194505],[127.05441,37.192044],[127.060215,37.188765],[127.06697,37.188432],[127.067853,37.188767],[127.0681,37.190395],[127.068627,37.190672],[127.068007,37.190886],[127.067167,37.19094],[127.066697,37.191133],[127.066134,37.191525],[127.065646,37.192084],[127.065645,37.192336],[127.065439,37.193084],[127.065494,37.193425],[127.065742,37.193607],[127.065634,37.194249],[127.066179,37.194969],[127.066272,37.195024],[127.066296,37.195435],[127.066173,37.195768],[127.065755,37.196289],[127.065092,37.197579],[127.065031,37.197878],[127.064641,37.19868],[127.064413,37.198894],[127.063386,37.199154],[127.061889,37.199202],[127.06146,37.199395],[127.060613,37.199498],[127.060098,37.199245],[127.059517,37.19868],[127.058053,37.197874],[127.057218,37.197782],[127.057042,37.197589],[127.056745,37.197484],[127.056718,37.197191],[127.056096,37.197142],[127.055657,37.197309],[127.054489,37.197464],[127.053426,37.197189],[127.052795,37.196941],[127.052735,37.197033],[127.052378,37.197038],[127.051913,37.196987],[127.051174,37.196605],[127.050481,37.19645]]]}},{"type":"Feature","properties":{"name":"화성4권역","city":"화성","featureType":"kindergartenZone"},"geometry":{"type":"Polygon","coordinates":[[[127.023023,37.226246],[127.026205,37.220025],[127.025256,37.218266],[127.024363,37.217421],[127.022871,37.216391],[127.02709,37.212194],[127.026921,37.211762],[127.027695,37.211256],[127.028404,37.21102],[127.024849,37.209728],[127.021209,37.208412],[127.024049,37.205964],[127.024382,37.205152],[127.022789,37.20164],[127.028652,37.200016],[127.030156,37.199724],[127.032044,37.199989],[127.036593,37.199934],[127.037322,37.199752],[127.03743,37.199148],[127.038556,37.198419],[127.040493,37.198003],[127.042748,37.19771],[127.044177,37.197836],[127.046221,37.196755],[127.047608,37.196043],[127.049149,37.196217],[127.050481,37.19645],[127.049883,37.196926],[127.050541,37.197195],[127.04997,37.197888],[127.050239,37.197944],[127.050033,37.198294],[127.05135,37.198684],[127.050922,37.199685],[127.051152,37.199713],[127.05157,37.200215],[127.05171,37.20021],[127.051828,37.200082],[127.052215,37.200431],[127.052753,37.200334],[127.053274,37.20226],[127.053209,37.202698],[127.052801,37.203739],[127.051974,37.203491],[127.049269,37.20505],[127.049873,37.208377],[127.049902,37.208783],[127.050648,37.211923],[127.05076,37.211914],[127.05084,37.211675],[127.051065,37.211477],[127.050936,37.211313],[127.051073,37.211182],[127.051166,37.211277],[127.051278,37.211169],[127.051189,37.210953],[127.051343,37.21076],[127.05103,37.210443],[127.05107,37.20992],[127.051439,37.209421],[127.051447,37.20867],[127.052214,37.208455],[127.052629,37.208321],[127.053065,37.208174],[127.053423,37.20811],[127.053979,37.208086],[127.054503,37.208121],[127.05449,37.208345],[127.054465,37.208682],[127.05435,37.208911],[127.054095,37.209323],[127.053916,37.209753],[127.053885,37.209959],[127.05393,37.210068],[127.053987,37.210207],[127.0541,37.210433],[127.054326,37.210313],[127.054691,37.210662],[127.056208,37.210103],[127.056463,37.210216],[127.056909,37.210055],[127.057382,37.209923],[127.05762,37.210043],[127.057724,37.210201],[127.057957,37.210282],[127.058331,37.210258],[127.058563,37.210405],[127.058834,37.210673],[127.058732,37.211048],[127.055154,37.212789],[127.054956,37.213044],[127.05417,37.213826],[127.053266,37.214412],[127.052853,37.214918],[127.055466,37.216191],[127.055243,37.217694],[127.056281,37.218595],[127.053723,37.220914],[127.052651,37.221138],[127.052349,37.221364],[127.051565,37.220762],[127.050832,37.221636],[127.050228,37.22251],[127.049277,37.224396],[127.047252,37.225951],[127.046857,37.226618],[127.04633,37.227673],[127.045853,37.228322],[127.045858,37.229269],[127.044152,37.228669],[127.045057,37.232728],[127.044986,37.233088],[127.04547,37.23293],[127.045798,37.233092],[127.045896,37.232776],[127.046088,37.232801],[127.046083,37.235649],[127.045622,37.235245],[127.045621,37.235976],[127.044204,37.236053],[127.043795,37.23689],[127.043878,37.238702],[127.042757,37.239115],[127.040144,37.239143],[127.037638,37.238812],[127.03752,37.236793],[127.034886,37.236279],[127.032338,37.234945],[127.029956,37.233092],[127.029228,37.231233],[127.0282,37.230863],[127.02683,37.230669],[127.025121,37.23117],[127.022562,37.230326],[127.023023,37.226246]]]}}]}