{"type":"FeatureCollection","name":"송산그린시티_미설립학교_23곳","features":[{"type":"Feature","geometry":{"type":"Polygon","coordinates":[[[126.73960475957085,37.258464258857245],[126.73936394562048,37.258250860150845],[126.73923805397887,37.2580989421304],[126.738769622729,37.25768383220435],[126.7386795624715,37.257680122482135],[126.73772244441842,37.258370168070336],[126.73867878828835,37.25921765605599],[126.7395989591647,37.25855424247354],[126.73960475957085,37.258464258857245]]]},"properties":{"label":"3초","school_name":"송산3초","level":"초","status":"미설립","district":"송산그린시티","source_layer":"KLIP_C_UQ155","source_present_sn":"41590UQ155PS202608200012","shp_area_m2":15012.02,"match_basis":"HWPX 내 송산그린시티 위치도 학교번호 + 도시계획시설 학교부지 위치 대조","review_note":"학교번호 재검증 완료(2026-10-02)","label_lng":126.7386636,"label_lat":37.2584172,"geometry_basis":"도시계획시설 학교용지 폴리곤(SHP)"}},{"type":"Feature","geometry":{"type":"Polygon","coordinates":[[[126.73833269091848,37.26437275723175],[126.73718016956754,37.263351480678445],[126.7361756100087,37.264075650652295],[126.73732812871097,37.26509693684842],[126.73833269091848,37.26437275723175]]]},"properties":{"label":"4초","school_name":"송산4초","level":"초","status":"미설립","district":"송산그린시티","source_layer":"KLIP_C_UQ155","source_present_sn":"41590UQ155PS202608200013","shp_area_m2":18316.8,"match_basis":"HWPX 내 송산그린시티 위치도 학교번호 + 도시계획시설 학교부지 위치 대조","review_note":"학교번호 재검증 완료(2026-10-02)","label_lng":126.7372541,"label_lat":37.2642242,"geometry_basis":"도시계획시설 학교용지 폴리곤(SHP)"}},{"type":"Feature","geometry":{"type":"Polygon","coordinates":[[[126.730944523741,37.26969829182006],[126.72985804980505,37.26873545935087],[126.72889939790512,37.269426377941514],[126.7299858694516,37.270389219085715],[126.730944523741,37.26969829182006]]]},"properties":{"label":"5초","school_name":"송산5초","level":"초","status":"미설립","district":"송산그린시티","source_layer":"KLIP_C_UQ155","source_present_sn":"41590UQ155PS202608200014","shp_area_m2":16475.98,"match_basis":"HWPX 내 송산그린시티 위치도 학교번호 + 도시계획시설 학교부지 위치 대조","review_note":"학교번호 재검증 완료(2026-10-02)","label_lng":126.729922,"label_lat":37.2695623,"geometry_basis":"도시계획시설 학교용지 폴리곤(SHP)"}},{"type":"Feature","geometry":{"type":"Polygon","coordinates":[[[126.72578400567035,37.25936815190034],[126.7265715103927,37.2600661885938],[126.72665561498809,37.26002876809526],[126.7267908340422,37.25996448088404],[126.72692369256252,37.259897122827326],[126.72705408142099,37.2598267492552],[126.72718189351897,37.259753417974565],[126.72730702387547,37.259677189221755],[126.72742936971316,37.25959812561294],[126.72754883054306,37.259516292092776],[126.72759348694063,37.259484455447044],[126.72792428566879,37.25924601941026],[126.72793010001637,37.259156036432195],[126.72709960354369,37.25841990410554],[126.72578400567035,37.25936815190034]]]},"properties":{"label":"6초","school_name":"송산6초","level":"초","status":"미설립","district":"송산그린시티","source_layer":"KLIP_C_UQ155","source_present_sn":"41590UQ155PS202608200015","shp_area_m2":17904.75,"match_basis":"HWPX 내 송산그린시티 위치도 학교번호 + 도시계획시설 학교부지 위치 대조","review_note":"학교번호 재검증 완료(2026-10-02)","label_lng":126.7269715,"label_lat":37.259201,"geometry_basis":"도시계획시설 학교용지 폴리곤(SHP)"}},{"type":"Feature","geometry":{"type":"Polygon","coordinates":[[[126.71340192456469,37.27187326627992],[126.71374157492403,37.27269029989571],[126.71386363691937,37.27265431202007],[126.71419672626163,37.272553502597354],[126.71452819265889,37.27244932745613],[126.71485797963211,37.27234180449364],[126.71518604197796,37.27223095163494],[126.7154511787529,37.27213817369124],[126.71504798207727,37.27135341022467],[126.71340192456469,37.27187326627992]]]},"properties":{"label":"7초","school_name":"송산7초","level":"초","status":"미설립","district":"송산그린시티","source_layer":"KLIP_C_UQ155","source_present_sn":"41590UQ155PS202608200016","shp_area_m2":15330.93,"match_basis":"HWPX 내 송산그린시티 위치도 학교번호 + 도시계획시설 학교부지 위치 대조","review_note":"학교번호 재검증 완료(2026-10-02)","label_lng":126.7144201,"label_lat":37.2720057,"geometry_basis":"도시계획시설 학교용지 폴리곤(SHP)"}},{"type":"Feature","geometry":{"type":"Polygon","coordinates":[[[126.71167819263017,37.26317749513875],[126.71136848394477,37.263264776449525],[126.71105731079832,37.26334865646488],[126.71074471842496,37.26342910825361],[126.71068826348059,37.26344323293736],[126.7106835729524,37.26347569460521],[126.71067288854053,37.263507231507724],[126.7106564383712,37.26353715040912],[126.71063458581692,37.26356476741548],[126.7106078179813,37.26358947101894],[126.71095301472427,37.2645094791734],[126.71100138986107,37.264497623163784],[126.71132335700871,37.26441656297391],[126.71164393869262,37.26433207459364],[126.71196308974567,37.264244166933835],[126.71228073114692,37.264152857833466],[126.71233052576942,37.26413819352749],[126.71186133123331,37.26312361106253],[126.71167819263017,37.26317749513875]]]},"properties":{"label":"8초","school_name":"송산8초","level":"초","status":"미설립","district":"송산그린시티","source_layer":"KLIP_C_UQ155","source_present_sn":"41590UQ155PS202608200017","shp_area_m2":14928.53,"match_basis":"HWPX 내 송산그린시티 위치도 학교번호 + 도시계획시설 학교부지 위치 대조","review_note":"학교번호 재검증 완료(2026-10-02)","label_lng":126.7114572,"label_lat":37.2638638,"geometry_basis":"도시계획시설 학교용지 폴리곤(SHP)"}},{"type":"Feature","geometry":{"type":"Polygon","coordinates":[[[126.7019239186933,37.26430074342267],[126.70190225379007,37.264322817938194],[126.70187723890042,37.26434248722819],[126.70184928111553,37.26435943695982],[126.70181883251443,37.2643733799452],[126.7018042461603,37.264378677131056],[126.70165140860264,37.265331941862165],[126.70171987973265,37.26533604374693],[126.70205669887213,37.26535402469679],[126.70239378041425,37.265368410236334],[126.702731079217,37.265379200249335],[126.70306852766227,37.265386376542814],[126.70313674051572,37.26538739542991],[126.70317128705837,37.26430602843773],[126.70299739162127,37.26430363490639],[126.70266913959081,37.264295526536074],[126.70234107102894,37.26428380458283],[126.70201323096906,37.26426849619308],[126.70194873771908,37.26426505328597],[126.70194186009084,37.26427664117165],[126.7019239186933,37.26430074342267]]]},"properties":{"label":"9초","school_name":"송산9초","level":"초","status":"미설립","district":"송산그린시티","source_layer":"KLIP_C_UQ155","source_present_sn":"41590UQ155PS202608200018","shp_area_m2":15000.0,"match_basis":"HWPX 내 송산그린시티 위치도 학교번호 + 도시계획시설 학교부지 위치 대조","review_note":"학교번호 재검증 완료(2026-10-02)","label_lng":126.7024408,"label_lat":37.2648553,"geometry_basis":"도시계획시설 학교용지 폴리곤(SHP)"}},{"type":"Feature","geometry":{"type":"Polygon","coordinates":[[[126.69368180377978,37.27247112479515],[126.69389144663329,37.272537399840054],[126.69422428159012,37.272638738041124],[126.69455869833472,37.27273670054467],[126.69489464052839,37.2728312691708],[126.69523206306977,37.27292243477969],[126.69534162748694,37.27295122676117],[126.6956638417594,37.272105748992686],[126.69407965595465,37.271630497254414],[126.69368180377978,37.27247112479515]]]},"properties":{"label":"10초","school_name":"송산10초","level":"초","status":"미설립","district":"송산그린시티","source_layer":"KLIP_C_UQ155","source_present_sn":"41590UQ155PS202608200019","shp_area_m2":15280.48,"match_basis":"HWPX 내 송산그린시티 위치도 학교번호 + 도시계획시설 학교부지 위치 대조","review_note":"학교번호 재검증 완료(2026-10-02)","label_lng":126.6946812,"label_lat":37.2722884,"geometry_basis":"도시계획시설 학교용지 폴리곤(SHP)"}},{"type":"Feature","geometry":{"type":"Polygon","coordinates":[[[126.79868344657802,37.27527588003059],[126.79890613911061,37.27544697567619],[126.79891672647685,37.27543861981927],[126.79909413835723,37.275301286079674],[126.79927465777092,37.27516656351524],[126.79945822453708,37.275034497027285],[126.7996447774601,37.27490513063165],[126.79983425435023,37.27477850744405],[126.79984604402503,37.27477078258884],[126.79948202488183,37.274421325814096],[126.79907991042157,37.274035292636505],[126.79906615141043,37.274044756252415],[126.79902204145276,37.274075081634436],[126.79901495858907,37.2740801062885],[126.7988260936269,37.274213919721795],[126.79863273218162,37.274355050533615],[126.79844200231038,37.2744984381186],[126.79825392660943,37.27464406450747],[126.79806856157361,37.274791884758194],[126.79810364946421,37.2748304137677],[126.79824745506525,37.274940902385644],[126.79839672353306,37.27501184054209],[126.79854823876377,37.27512825160057],[126.79868344657802,37.27527588003059]]]},"properties":{"label":"13초","school_name":"송산13초","level":"초","status":"미설립","district":"송산그린시티","source_layer":"KLIP_C_UQ155","source_present_sn":"41590UQ155PS202608200020","shp_area_m2":12253.32,"match_basis":"HWPX 내 송산그린시티 위치도 학교번호 + 도시계획시설 학교부지 위치 대조","review_note":"학교번호 재검증 완료(2026-10-02)","label_lng":126.7989773,"label_lat":37.2747074,"geometry_basis":"도시계획시설 학교용지 폴리곤(SHP)"}},{"type":"Feature","geometry":{"type":"Polygon","coordinates":[[[126.79769306398924,37.27451495028186],[126.79769600912313,37.27451633017826],[126.7978874200457,37.274363421062375],[126.79808164279531,37.27421279607413],[126.79827864345131,37.27406449118292],[126.79847836559271,37.27391852429892],[126.79868077525275,37.27377494941227],[126.79869027501744,37.273768406174426],[126.7987415352583,37.2737331194645],[126.79875528943492,37.27372364994909],[126.79797926151119,37.2729786334613],[126.79788543436895,37.27297250704991],[126.79778330600749,37.27304391956269],[126.79756206261246,37.273202110569834],[126.7973438508264,37.273362968772965],[126.79712872100386,37.27352645706648],[126.79691672278939,37.27369253773789],[126.79682010468431,37.273769927137394],[126.79682133212161,37.27384516257149],[126.79769306398924,37.27451495028186]]]},"properties":{"label":"14초","school_name":"송산14초","level":"초","status":"미설립","district":"송산그린시티","source_layer":"KLIP_C_UQ155","source_present_sn":"41590UQ155PS202608200021","shp_area_m2":15297.26,"match_basis":"HWPX 내 송산그린시티 위치도 학교번호 + 도시계획시설 학교부지 위치 대조","review_note":"학교번호 재검증 완료(2026-10-02)","label_lng":126.79778,"label_lat":37.2737508,"geometry_basis":"도시계획시설 학교용지 폴리곤(SHP)"}},{"type":"Feature","geometry":{"type":"Polygon","coordinates":[[[126.74071949217806,37.272431881851375],[126.74174653570142,37.27334179335579],[126.74274189230884,37.272624262701314],[126.74274085206152,37.27262148392061],[126.74270202485364,37.272530337225284],[126.74265895679589,37.272440415544196],[126.74261170823648,37.27235184484669],[126.74256034537916,37.27226474920905],[126.74250494019063,37.27217925064087],[126.74244557029957,37.272095468913925],[126.74238231888786,37.272013521394626],[126.742315274574,37.27193352287952],[126.74224453128889,37.27185558543453],[126.74217018814412,37.27177981823796],[126.74209234929339,37.27170632742763],[126.74206494873984,37.27168173728221],[126.74192818261083,37.27156056895593],[126.74071949217806,37.272431881851375]]]},"properties":{"label":"15초","school_name":"송산15초","level":"초","status":"미설립","district":"송산그린시티","source_layer":"KLIP_C_UQ155","source_present_sn":"41590UQ155PS202608200022","shp_area_m2":18648.52,"match_basis":"HWPX 내 송산그린시티 위치도 학교번호 + 도시계획시설 학교부지 위치 대조","review_note":"학교번호 재검증 완료(2026-10-02)","label_lng":126.7417302,"label_lat":37.2724854,"geometry_basis":"도시계획시설 학교용지 폴리곤(SHP)"}},{"type":"Feature","geometry":{"type":"Polygon","coordinates":[[[126.73855516969009,37.27449123658167],[126.73800093244422,37.27400018592371],[126.7368287854437,37.27484505370787],[126.73745829790009,37.27540280979507],[126.73747658633039,37.275418915959065],[126.73757812234224,37.27550519979386],[126.73768289206691,37.27558896786131],[126.73770216583081,37.27560384177399],[126.73879303430283,37.27477157975637],[126.73879125046378,37.274681409546055],[126.73876111075532,37.27465913235816],[126.73867047888588,37.27458865979282],[126.7385830468598,37.27451564434684],[126.73855516969009,37.27449123658167]]]},"properties":{"label":"16초","school_name":"송산16초","level":"초","status":"미설립","district":"송산그린시티","source_layer":"KLIP_C_UQ155","source_present_sn":"41590UQ155PS202608200023","shp_area_m2":15733.36,"match_basis":"HWPX 내 송산그린시티 위치도 학교번호 + 도시계획시설 학교부지 위치 대조","review_note":"학교번호 재검증 완료(2026-10-02)","label_lng":126.7378123,"label_lat":37.2748083,"geometry_basis":"도시계획시설 학교용지 폴리곤(SHP)"}},{"type":"Feature","geometry":{"type":"Polygon","coordinates":[[[126.73732812871097,37.26509693684842],[126.73636667498121,37.264244962537745],[126.73512350536842,37.2651411128285],[126.73603156524882,37.26594578557481],[126.7361441526936,37.265950425275406],[126.73732812871097,37.26509693684842]]]},"properties":{"label":"2중","school_name":"송산2중","level":"중","status":"미설립","district":"송산그린시티","source_layer":"KLIP_C_UQ155","source_present_sn":"41590UQ155PS202608200005","shp_area_m2":18884.25,"match_basis":"HWPX 내 송산그린시티 위치도 학교번호 + 도시계획시설 학교부지 위치 대조","review_note":"학교번호 재검증 완료(2026-10-02)","label_lng":126.7362258,"label_lat":37.265119,"geometry_basis":"도시계획시설 학교용지 폴리곤(SHP)"}},{"type":"Feature","geometry":{"type":"Polygon","coordinates":[[[126.72771426493358,37.26676826552247],[126.72746583126184,37.26654808652545],[126.72643560117318,37.26563498862101],[126.72548951805,37.266316830946195],[126.7264770377455,37.267192080972734],[126.7267681774064,37.26745011594773],[126.72771426493358,37.26676826552247]]]},"properties":{"label":"3중","school_name":"송산3중","level":"중","status":"미설립","district":"송산그린시티","source_layer":"KLIP_C_UQ155","source_present_sn":"41590UQ155PS202608200006","shp_area_m2":19137.92,"match_basis":"HWPX 내 송산그린시티 위치도 학교번호 + 도시계획시설 학교부지 위치 대조","review_note":"학교번호 재검증 완료(2026-10-02)","label_lng":126.7264777,"label_lat":37.2664325,"geometry_basis":"도시계획시설 학교용지 폴리곤(SHP)"}},{"type":"Feature","geometry":{"type":"Polygon","coordinates":[[[126.71349669166788,37.26910750330722],[126.71318110476291,37.26920487548988],[126.71286391771137,37.269298873071094],[126.71254518695508,37.26938948716572],[126.71238746326166,37.269432910239225],[126.71253586628903,37.26978990961452],[126.71263905939468,37.269952410078076],[126.71283927939105,37.27043405792707],[126.71294074279231,37.270406157066915],[126.71326795154181,37.27031367941599],[126.71359361654581,37.270217809227546],[126.71391769260062,37.27011856442488],[126.71411201395676,37.27005719853382],[126.71369129874573,37.269228183105014],[126.7136878416533,37.26922118269985],[126.71367179722004,37.26918299403962],[126.71366008590302,37.26914380675708],[126.71365280792816,37.26910394546836],[126.71365000718458,37.26906372564179],[126.71365021787966,37.269058725431556],[126.71349669166788,37.26910750330722]]]},"properties":{"label":"4중","school_name":"송산4중","level":"중","status":"미설립","district":"송산그린시티","source_layer":"KLIP_C_UQ155","source_present_sn":"41590UQ155PS202608200007","shp_area_m2":13947.57,"match_basis":"HWPX 내 송산그린시티 위치도 학교번호 + 도시계획시설 학교부지 위치 대조","review_note":"학교번호 재검증 완료(2026-10-02)","label_lng":126.7131737,"label_lat":37.2696114,"geometry_basis":"도시계획시설 학교용지 폴리곤(SHP)"}},{"type":"Feature","geometry":{"type":"Polygon","coordinates":[[[126.70553117094661,37.26424456297367],[126.70564203389347,37.26532251885431],[126.70580870290762,37.26531112269697],[126.70614473518516,37.265285444088086],[126.70648030770643,37.26525618628427],[126.70681536409171,37.26522334013862],[126.70698319636438,37.265205520867504],[126.70681362814275,37.26425401503787],[126.7068009725968,37.26424994691642],[126.70676970445757,37.264237218599774],[126.706740736938,37.26422138744314],[126.70671454250314,37.264202715923695],[126.70669155955073,37.26418152950625],[126.70667215883692,37.2641581534873],[126.7066656576241,37.26414855933147],[126.70660160983002,37.26415516657107],[126.70627558223487,37.264186638040755],[126.70594903853936,37.264214521217696],[126.70562204642974,37.26423881626692],[126.70553117094661,37.26424456297367]]]},"properties":{"label":"5중","school_name":"송산5중","level":"중","status":"미설립","district":"송산그린시티","source_layer":"KLIP_C_UQ155","source_present_sn":"41590UQ155PS202608200008","shp_area_m2":13839.55,"match_basis":"HWPX 내 송산그린시티 위치도 학교번호 + 도시계획시설 학교부지 위치 대조","review_note":"학교번호 재검증 완료(2026-10-02)","label_lng":126.7062397,"label_lat":37.2647298,"geometry_basis":"도시계획시설 학교용지 폴리곤(SHP)"}},{"type":"Feature","geometry":{"type":"Polygon","coordinates":[[[126.6979188298191,37.27098221040711],[126.69823620721347,37.269930683225475],[126.69811060833038,37.269906105690154],[126.6977829173372,37.26983941818362],[126.69745636836718,37.2697692457148],[126.69713101779679,37.26969559744835],[126.69700596860518,37.269666289744],[126.69686242888329,37.27004296574634],[126.69682909716349,37.270223230248924],[126.69664407777158,37.27070874278826],[126.696778399074,37.27074012007726],[126.69711239434757,37.27081549448137],[126.69744758808547,37.270887393043935],[126.69778392390943,37.27095580659987],[126.6979188298191,37.27098221040711]]]},"properties":{"label":"6중","school_name":"송산6중","level":"중","status":"미설립","district":"송산그린시티","source_layer":"KLIP_C_UQ155","source_present_sn":"41590UQ155PS202608200009","shp_area_m2":13792.0,"match_basis":"HWPX 내 송산그린시티 위치도 학교번호 + 도시계획시설 학교부지 위치 대조","review_note":"학교번호 재검증 완료(2026-10-02)","label_lng":126.6974056,"label_lat":37.270466,"geometry_basis":"도시계획시설 학교용지 폴리곤(SHP)"}},{"type":"Feature","geometry":{"type":"Polygon","coordinates":[[[126.79990448231212,37.276213992427614],[126.80001657082553,37.2762141832502],[126.80007716170063,37.27616752031438],[126.80024723208895,37.2760400071129],[126.80042035582161,37.2759151456855],[126.80059646815425,37.27579298271698],[126.80077550322602,37.27567356388304],[126.80078207613776,37.275669349284286],[126.80051094590428,37.275409074215],[126.79984604402503,37.27477078258884],[126.79983425435023,37.27477850744405],[126.7996447774601,37.27490513063165],[126.79945822453708,37.275034497027285],[126.79927465777092,37.27516656351524],[126.79909413835723,37.275301286079674],[126.79891672647685,37.27543861981927],[126.79890613911061,37.27544697567619],[126.79990448231212,37.276213992427614]]]},"properties":{"label":"8중","school_name":"송산8중","level":"중","status":"미설립","district":"송산그린시티","source_layer":"KLIP_C_UQ155","source_present_sn":"41590UQ155PS202608200010","shp_area_m2":13600.21,"match_basis":"HWPX 내 송산그린시티 위치도 학교번호 + 도시계획시설 학교부지 위치 대조","review_note":"학교번호 재검증 완료(2026-10-02)","label_lng":126.7998586,"label_lat":37.2755582,"geometry_basis":"도시계획시설 학교용지 폴리곤(SHP)"}},{"type":"Feature","geometry":{"type":"Polygon","coordinates":[[[126.74150528834973,37.27118590116756],[126.74055923238221,37.2703477136176],[126.74051756977794,37.2703203461899],[126.73927451264903,37.27121642081587],[126.7402562880333,37.272086268297585],[126.74150528834973,37.27118590116756]]]},"properties":{"label":"9중","school_name":"송산9중","level":"중","status":"미설립","district":"송산그린시티","source_layer":"KLIP_C_UQ155","source_present_sn":"41590UQ155PS202608200011","shp_area_m2":19394.51,"match_basis":"HWPX 내 송산그린시티 위치도 학교번호 + 도시계획시설 학교부지 위치 대조","review_note":"학교번호 재검증 완료(2026-10-02)","label_lng":126.7403899,"label_lat":37.2712012,"geometry_basis":"도시계획시설 학교용지 폴리곤(SHP)"}},{"type":"Feature","geometry":{"type":"Polygon","coordinates":[[[126.7327222769621,37.2709373215781],[126.73363040480315,37.270127621276245],[126.73249882904825,37.269124881801645],[126.7323862371237,37.269120238619315],[126.73144075693955,37.26980169730663],[126.7327222769621,37.2709373215781]]]},"properties":{"label":"2고","school_name":"송산2고","level":"고","status":"미설립","district":"송산그린시티","source_layer":"KLIP_C_UQ155","source_present_sn":"41590UQ155PS202608200001","shp_area_m2":19574.32,"match_basis":"HWPX 내 송산그린시티 위치도 학교번호 + 도시계획시설 학교부지 위치 대조","review_note":"학교번호 재검증 완료(2026-10-02)","label_lng":126.7325356,"label_lat":37.2699647,"geometry_basis":"도시계획시설 학교용지 폴리곤(SHP)"}},{"type":"Feature","geometry":{"type":"Polygon","coordinates":[[[126.7130596672871,37.27096422098614],[126.7133308803455,37.2716166330159],[126.71336987146626,37.27179616817498],[126.71340192456469,37.27187326627992],[126.71504798207727,37.27135341022467],[126.71460902482778,37.27049901708088],[126.71452528739343,37.2705263676591],[126.71419877887175,37.27063055487287],[126.71387062491019,37.27073137634013],[126.71354088191792,37.27082883218465],[126.71320959509929,37.27092290448282],[126.7130596672871,37.27096422098614]]]},"properties":{"label":"3고","school_name":"송산3고","level":"고","status":"미설립","district":"송산그린시티","source_layer":"KLIP_C_UQ155","source_present_sn":"41590UQ155PS202608200002","shp_area_m2":15556.06,"match_basis":"HWPX 내 송산그린시티 위치도 학교번호 + 도시계획시설 학교부지 위치 대조","review_note":"학교번호 재검증 완료(2026-10-02)","label_lng":126.7140443,"label_lat":37.2711588,"geometry_basis":"도시계획시설 학교용지 폴리곤(SHP)"}},{"type":"Feature","geometry":{"type":"Polygon","coordinates":[[[126.69407965595465,37.271630497254414],[126.6956638417594,37.272105748992686],[126.69577995111241,37.27180106816487],[126.69581329732773,37.271620804049505],[126.69599822182882,37.2711355449418],[126.69588323782344,37.271106487284996],[126.69554895138788,37.27101946735195],[126.69521608885489,37.270929035253786],[126.69488470663597,37.27083519114851],[126.69455484975785,37.270737962196115],[126.69450864726231,37.27072402960461],[126.69407965595465,37.271630497254414]]]},"properties":{"label":"4고","school_name":"송산4고","level":"고","status":"미설립","district":"송산그린시티","source_layer":"KLIP_C_UQ155","source_present_sn":"41590UQ155PS202608200003","shp_area_m2":15740.98,"match_basis":"HWPX 내 송산그린시티 위치도 학교번호 + 도시계획시설 학교부지 위치 대조","review_note":"학교번호 재검증 완료(2026-10-02)","label_lng":126.6950524,"label_lat":37.2713782,"geometry_basis":"도시계획시설 학교용지 폴리곤(SHP)"}},{"type":"Feature","geometry":{"type":"Polygon","coordinates":[[[126.73840397925599,37.26647921748061],[126.73734811337314,37.26554361868214],[126.7364310783374,37.266204677370425],[126.73642527350691,37.26629466069577],[126.7372697844291,37.26704298848573],[126.73840397925599,37.26647921748061]]]},"properties":{"label":"7고","school_name":"송산7고","level":"고","status":"미설립","district":"송산그린시티","source_layer":"KLIP_C_UQ155","source_present_sn":"41590UQ155PS202608200004","shp_area_m2":15061.79,"match_basis":"HWPX 내 송산그린시티 위치도 학교번호 + 도시계획시설 학교부지 위치 대조","review_note":"학교번호 재검증 완료(2026-10-02)","label_lng":126.7372865,"label_lat":37.2662497,"geometry_basis":"도시계획시설 학교용지 폴리곤(SHP)"}}]}