{
  "type": "FeatureCollection",
  "name": "planned-kindergartens-additional-v34",
  "features": [
    {
      "type": "Feature",
      "properties": {
        "label": "유1",
        "kindergarten_name": "가칭)태안3-1유",
        "district": "태안3",
        "establishment": "공립",
        "status": "미설립",
        "address": "송산동 197-14 일원",
        "document_area_m2": 2000,
        "city": "화성",
        "source_layer": "KLIP_C_UQ155",
        "source_present_sn": "41590UQ155PS201807310007",
        "shp_area_m2": 2000.03,
        "label_lng": 127.00429909,
        "label_lat": 37.20739903,
        "geometry_basis": "도시계획시설 학교용지 폴리곤(SHP)",
        "identity_basis": "2026-02-06 학교용지 현황 소재지·면적 + 사용자 제공 지구계획도 대조"
      },
      "geometry": {
        "type": "Polygon",
        "coordinates": [
          [
            [
              127.00425591667008,
              37.20768196822942
            ],
            [
              127.0046530011742,
              37.207429576020964
            ],
            [
              127.00434229884905,
              37.20711584045054
            ],
            [
              127.0039509600353,
              37.20736516796412
            ],
            [
              127.00394972115477,
              37.20737372790467
            ],
            [
              127.00405719346993,
              37.207481940984586
            ],
            [
              127.00425591667008,
              37.20768196822942
            ]
          ]
        ]
      }
    },
    {
      "type": "Feature",
      "properties": {
        "label": "유1",
        "kindergarten_name": "가칭)효행1유",
        "district": "효행",
        "establishment": "공립",
        "status": "미설립",
        "address": "봉담읍 수영리 3-6 일원",
        "document_area_m2": 3849,
        "city": "화성",
        "source_layer": "KLIP_C_UQ155",
        "source_present_sn": "41590UQ155PS202512100005",
        "shp_area_m2": 3849.55,
        "label_lng": 126.96575481,
        "label_lat": 37.23018732,
        "geometry_basis": "도시계획시설 학교용지 폴리곤(SHP)",
        "identity_basis": "2026-02-06 학교용지 현황 소재지·면적 + 사용자 제공 지구계획도 대조"
      },
      "geometry": {
        "type": "Polygon",
        "coordinates": [
          [
            [
              126.96545454898764,
              37.23050129764886
            ],
            [
              126.9660799505836,
              37.230501486366165
            ],
            [
              126.96608020835261,
              37.22995047773939
            ],
            [
              126.9660674861594,
              37.229947941160695
            ],
            [
              126.96606639283816,
              37.22994772302443
            ],
            [
              126.9660652996036,
              37.22994750461066
            ],
            [
              126.96606420645581,
              37.22994728591936
            ],
            [
              126.96606311339491,
              37.22994706695057
            ],
            [
              126.96606202042098,
              37.229946847704305
            ],
            [
              126.96606092753417,
              37.229946628180606
            ],
            [
              126.9660598347346,
              37.22994640837948
            ],
            [
              126.96605874202234,
              37.22994618830094
            ],
            [
              126.96605764939748,
              37.22994596794504
            ],
            [
              126.96605655686021,
              37.229945747311774
            ],
            [
              126.96605546441056,
              37.22994552640117
            ],
            [
              126.96605437204873,
              37.22994530521324
            ],
            [
              126.96605327977475,
              37.229945083748035
            ],
            [
              126.96605218758873,
              37.22994486200557
            ],
            [
              126.96605109549085,
              37.22994463998585
            ],
            [
              126.96605000348113,
              37.2299444176889
            ],
            [
              126.96604891155978,
              37.22994419511476
            ],
            [
              126.96604781972684,
              37.229943972263435
            ],
            [
              126.96604672798243,
              37.229943749134925
            ],
            [
              126.96604563632665,
              37.229943525729325
            ],
            [
              126.96604454475965,
              37.229943302046586
            ],
            [
              126.9660434532815,
              37.229943078086784
            ],
            [
              126.96604236189233,
              37.2299428538499
            ],
            [
              126.96604127059227,
              37.229942629335966
            ],
            [
              126.96604017938141,
              37.22994240454502
            ],
            [
              126.9660390882598,
              37.22994217947707
            ],
            [
              126.96603799722764,
              37.229941954132144
            ],
            [
              126.96603690628503,
              37.22994172851027
            ],
            [
              126.96603581543205,
              37.22994150261147
            ],
            [
              126.9660347246688,
              37.22994127643575
            ],
            [
              126.96603363399541,
              37.22994104998315
            ],
            [
              126.96603254341198,
              37.22994082325369
            ],
            [
              126.96603145291864,
              37.22994059624739
            ],
            [
              126.9660303625155,
              37.22994036896427
            ],
            [
              126.96602927220262,
              37.22994014140438
            ],
            [
              126.96602818198018,
              37.229939913567684
            ],
            [
              126.96602709184826,
              37.22993968545424
            ],
            [
              126.96602600180694,
              37.229939457064106
            ],
            [
              126.96602491185637,
              37.22993922839725
            ],
            [
              126.96602382199664,
              37.229938999453715
            ],
            [
              126.96602273222784,
              37.22993877023354
            ],
            [
              126.96602164255015,
              37.22993854073671
            ],
            [
              126.96602055296361,
              37.22993831096328
            ],
            [
              126.96601946346837,
              37.229938080913264
            ],
            [
              126.96601837406452,
              37.22993785058669
            ],
            [
              126.96601728475218,
              37.229937619983566
            ],
            [
              126.96601619553144,
              37.22993738910394
            ],
            [
              126.96601510640244,
              37.22993715794782
            ],
            [
              126.96601401736525,
              37.22993692651522
            ],
            [
              126.96601292842004,
              37.229936694806185
            ],
            [
              126.96601183956685,
              37.22993646282071
            ],
            [
              126.96601075080582,
              37.22993623055886
            ],
            [
              126.9660096621371,
              37.22993599802062
            ],
            [
              126.96600857356076,
              37.229935765206
            ],
            [
              126.9660074850769,
              37.22993553211509
            ],
            [
              126.96600639668563,
              37.22993529874786
            ],
            [
              126.96600530838705,
              37.22993506510436
            ],
            [
              126.96600422018135,
              37.229934831184586
            ],
            [
              126.96600313206852,
              37.22993459698858
            ],
            [
              126.9660020440488,
              37.22993436251637
            ],
            [
              126.96600095612219,
              37.22993412776797
            ],
            [
              126.96599986828886,
              37.2299338927434
            ],
            [
              126.96599878054887,
              37.229933657442686
            ],
            [
              126.96599769290238,
              37.22993342186585
            ],
            [
              126.96599660534946,
              37.229933186012936
            ],
            [
              126.96599551789028,
              37.22993294988395
            ],
            [
              126.96599443052487,
              37.229932713478924
            ],
            [
              126.9659933432534,
              37.22993247679785
            ],
            [
              126.96599225607594,
              37.22993223984079
            ],
            [
              126.96599116899263,
              37.22993200260778
            ],
            [
              126.96599008200357,
              37.2299317650988
            ],
            [
              126.96598899510887,
              37.229931527313894
            ],
            [
              126.9659879083086,
              37.22993128925308
            ],
            [
              126.96598682160294,
              37.22993105091642
            ],
            [
              126.96598573499197,
              37.229930812303884
            ],
            [
              126.96598464847578,
              37.229930573415515
            ],
            [
              126.9659835620545,
              37.22993033425133
            ],
            [
              126.96598247572821,
              37.229930094811365
            ],
            [
              126.96598138949709,
              37.22992985509565
            ],
            [
              126.96598030336118,
              37.229929615104204
            ],
            [
              126.96597921732058,
              37.22992937483705
            ],
            [
              126.96597813137548,
              37.22992913429421
            ],
            [
              126.96597704552592,
              37.22992889347571
            ],
            [
              126.965975959772,
              37.22992865238155
            ],
            [
              126.9659748741139,
              37.22992841101182
            ],
            [
              126.96597378855171,
              37.229928169366474
            ],
            [
              126.96597270308547,
              37.22992792744557
            ],
            [
              126.96597161771535,
              37.22992768524912
            ],
            [
              126.96597053244145,
              37.22992744277716
            ],
            [
              126.9659694472639,
              37.22992720002972
            ],
            [
              126.96596836218276,
              37.229926957006796
            ],
            [
              126.96596727719819,
              37.22992671370844
            ],
            [
              126.96596619231022,
              37.229926470134686
            ],
            [
              126.96596510751907,
              37.22992622628552
            ],
            [
              126.96596402282479,
              37.229925982160964
            ],
            [
              126.96596293822748,
              37.2299257377611
            ],
            [
              126.96596185372726,
              37.22992549308589
            ],
            [
              126.96596076932421,
              37.22992524813541
            ],
            [
              126.96595968501852,
              37.22992500290964
            ],
            [
              126.96595860081023,
              37.22992475740865
            ],
            [
              126.96595751669949,
              37.22992451163241
            ],
            [
              126.96595643268638,
              37.229924265581005
            ],
            [
              126.965955348771,
              37.22992401925442
            ],
            [
              126.96595426495348,
              37.22992377265267
            ],
            [
              126.96595318123396,
              37.22992352577583
            ],
            [
              126.96595209761246,
              37.229923278623865
            ],
            [
              126.9659510140892,
              37.22992303119686
            ],
            [
              126.9659499306642,
              37.22992278349479
            ],
            [
              126.9659488473376,
              37.2299225355177
            ],
            [
              126.96594776410953,
              37.22992228726561
            ],
            [
              126.96594668098008,
              37.22992203873856
            ],
            [
              126.96594559794936,
              37.229921789936554
            ],
            [
              126.96594451501748,
              37.22992154085964
            ],
            [
              126.96594343218456,
              37.22992129150782
            ],
            [
              126.96594234945067,
              37.22992104188113
            ],
            [
              126.96594126681596,
              37.229920791979616
            ],
            [
              126.96594018428054,
              37.22992054180324
            ],
            [
              126.96593910184448,
              37.229920291352094
            ],
            [
              126.96593801950796,
              37.22992004062618
            ],
            [
              126.965936937271,
              37.229919789625534
            ],
            [
              126.96593585513378,
              37.229919538350146
            ],
            [
              126.96593477309635,
              37.22991928680007
            ],
            [
              126.96593369115887,
              37.22991903497534
            ],
            [
              126.96593260932141,
              37.22991878287595
            ],
            [
              126.96593152758413,
              37.22991853050193
            ],
            [
              126.96593044594712,
              37.22991827785334
            ],
            [
              126.96592936441044,
              37.22991802493018
            ],
            [
              126.96592828297425,
              37.229917771732474
            ],
            [
              126.96592720163866,
              37.22991751826026
            ],
            [
              126.96592612040372,
              37.22991726451354
            ],
            [
              126.96592503926965,
              37.22991701049237
            ],
            [
              126.96592395823644,
              37.22991675619676
            ],
            [
              126.96592287730428,
              37.229916501626725
            ],
            [
              126.96592179647322,
              37.22991624678231
            ],
            [
              126.96592071574341,
              37.22991599166354
            ],
            [
              126.96591963511497,
              37.22991573627042
            ],
            [
              126.96591855458799,
              37.22991548060301
            ],
            [
              126.96591747416254,
              37.2299152246613
            ],
            [
              126.9659163938388,
              37.22991496844533
            ],
            [
              126.9659153136168,
              37.22991471195512
            ],
            [
              126.96591423349672,
              37.22991445519072
            ],
            [
              126.96591315347865,
              37.22991419815213
            ],
            [
              126.9659120735627,
              37.229913940839396
            ],
            [
              126.96591099374895,
              37.22991368325251
            ],
            [
              126.9659099140375,
              37.229913425391544
            ],
            [
              126.96590883442853,
              37.22991316725648
            ],
            [
              126.9659077549221,
              37.229912908847375
            ],
            [
              126.96590667551827,
              37.229912650164245
            ],
            [
              126.96590559621727,
              37.22991239120712
            ],
            [
              126.96590451701911,
              37.22991213197601
            ],
            [
              126.96590343792393,
              37.22991187247096
            ],
            [
              126.96590235893186,
              37.22991161269197
            ],
            [
              126.965901280043,
              37.22991135263911
            ],
            [
              126.9659002012574,
              37.22991109231237
            ],
            [
              126.96589912257525,
              37.229910831711784
            ],
            [
              126.96589804399662,
              37.2299105708374
            ],
            [
              126.9658969655216,
              37.22991030968921
            ],
            [
              126.96589588715032,
              37.22991004826725
            ],
            [
              126.96589480888295,
              37.229909786571575
            ],
            [
              126.96589373071947,
              37.22990952460217
            ],
            [
              126.96589265266007,
              37.229909262359094
            ],
            [
              126.96589157470488,
              37.22990899984236
            ],
            [
              126.96589049685399,
              37.229908737051986
            ],
            [
              126.96588941910744,
              37.22990847398799
            ],
            [
              126.96588834146543,
              37.229908210650436
            ],
            [
              126.96588726392801,
              37.22990794703934
            ],
            [
              126.96588618649531,
              37.2299076831547
            ],
            [
              126.96588510916743,
              37.229907418996575
            ],
            [
              126.9658840319445,
              37.22990715456497
            ],
            [
              126.9658829548266,
              37.22990688985992
            ],
            [
              126.9658818778139,
              37.229906624881444
            ],
            [
              126.9658808009064,
              37.22990635962958
            ],
            [
              126.96587972410434,
              37.229906094104365
            ],
            [
              126.96587864740768,
              37.22990582830579
            ],
            [
              126.96587757081666,
              37.22990556223392
            ],
            [
              126.96587649433134,
              37.229905295888756
            ],
            [
              126.96587541795179,
              37.22990502927034
            ],
            [
              126.9658743416782,
              37.22990476237869
            ],
            [
              126.9658732655106,
              37.22990449521383
            ],
            [
              126.96587218944913,
              37.2299042277758
            ],
            [
              126.96587111349392,
              37.22990396006461
            ],
            [
              126.96587003764505,
              37.2299036920803
            ],
            [
              126.96586896190261,
              37.229903423822904
            ],
            [
              126.96586788626676,
              37.22990315529242
            ],
            [
              126.9658668107376,
              37.229902886488915
            ],
            [
              126.96586573531519,
              37.22990261741238
            ],
            [
              126.96586465999967,
              37.22990234806285
            ],
            [
              126.96586358479115,
              37.22990207844038
            ],
            [
              126.96586250968976,
              37.22990180854496
            ],
            [
              126.96586143469555,
              37.229901538376645
            ],
            [
              126.9658603598087,
              37.22990126793543
            ],
            [
              126.96585928502925,
              37.22990099722138
            ],
            [
              126.96585821035735,
              37.22990072623449
            ],
            [
              126.96585713579309,
              37.229900454974825
            ],
            [
              126.96585606133661,
              37.229900183442375
            ],
            [
              126.96585498698798,
              37.22989991163718
            ],
            [
              126.96585391274732,
              37.229899639559285
            ],
            [
              126.96585283861474,
              37.22989936720868
            ],
            [
              126.96585176459035,
              37.22989909458543
            ],
            [
              126.96585069067426,
              37.22989882168955
            ],
            [
              126.96584961686658,
              37.22989854852104
            ],
            [
              126.9658485431674,
              37.229898275079975
            ],
            [
              126.96584746957684,
              37.22989800136636
            ],
            [
              126.96584639609503,
              37.22989772738021
            ],
            [
              126.96584532272207,
              37.22989745312157
            ],
            [
              126.96584424945804,
              37.22989717859047
            ],
            [
              126.96584317630307,
              37.2298969037869
            ],
            [
              126.96584210325726,
              37.229896628710954
            ],
            [
              126.96584103032069,
              37.22989635336259
            ],
            [
              126.96583995749354,
              37.2298960777419
            ],
            [
              126.96583888477588,
              37.22989580184886
            ],
            [
              126.9658378121678,
              37.229895525683546
            ],
            [
              126.96583673966943,
              37.229895249245935
            ],
            [
              126.96583566728084,
              37.22989497253607
            ],
            [
              126.96583459500222,
              37.229894695554
            ],
            [
              126.9658335228336,
              37.22989441829975
            ],
            [
              126.96583245077512,
              37.229894140773325
            ],
            [
              126.96583137882688,
              37.22989386297477
            ],
            [
              126.96583030698899,
              37.229893584904104
            ],
            [
              126.96582923526157,
              37.22989330656137
            ],
            [
              126.96582816364473,
              37.22989302794658
            ],
            [
              126.96582709213854,
              37.22989274905976
            ],
            [
              126.96582602074315,
              37.22989246990095
            ],
            [
              126.96582494945866,
              37.2298921904702
            ],
            [
              126.96582387828518,
              37.22989191076749
            ],
            [
              126.96582280722278,
              37.22989163079287
            ],
            [
              126.9658217362716,
              37.229891350546374
            ],
            [
              126.96582066543174,
              37.22989107002802
            ],
            [
              126.96581959470335,
              37.22989078923785
            ],
            [
              126.96581852408644,
              37.229890508175885
            ],
            [
              126.96581745358124,
              37.22989022684214
            ],
            [
              126.96581638318774,
              37.229889945236664
            ],
            [
              126.96581531290613,
              37.22988966335947
            ],
            [
              126.9658142427365,
              37.22988938121061
            ],
            [
              126.96581317267893,
              37.22988909879007
            ],
            [
              126.9658121027336,
              37.22988881609792
            ],
            [
              126.96581103290049,
              37.229888533134165
            ],
            [
              126.96580996317982,
              37.22988824989886
            ],
            [
              126.96580889357168,
              37.229887966392006
            ],
            [
              126.96580782407612,
              37.22988768261364
            ],
            [
              126.96580675469329,
              37.22988739856378
            ],
            [
              126.96580568542332,
              37.229887114242466
            ],
            [
              126.96580461626627,
              37.229886829649736
            ],
            [
              126.96580354722228,
              37.22988654478562
            ],
            [
              126.96580247829144,
              37.229886259650115
            ],
            [
              126.96580140947387,
              37.22988597424327
            ],
            [
              126.96580034076966,
              37.22988568856513
            ],
            [
              126.96579927217897,
              37.22988540261569
            ],
            [
              126.96579820370185,
              37.22988511639502
            ],
            [
              126.96579713533839,
              37.229884829903106
            ],
            [
              126.96579606708877,
              37.22988454314
            ],
            [
              126.96579499895307,
              37.22988425610573
            ],
            [
              126.96579393093135,
              37.22988396880032
            ],
            [
              126.96579286302378,
              37.22988368122381
            ],
            [
              126.96579179523046,
              37.22988339337622
            ],
            [
              126.96579072755146,
              37.229883105257564
            ],
            [
              126.96578965998691,
              37.2298828168679
            ],
            [
              126.96578859253694,
              37.22988252820724
            ],
            [
              126.9657875252016,
              37.229882239275604
            ],
            [
              126.96578645798104,
              37.229881950073064
            ],
            [
              126.96578539087538,
              37.229881660599595
            ],
            [
              126.9657843238847,
              37.22988137085526
            ],
            [
              126.96578325700911,
              37.22988108084008
            ],
            [
              126.96578219024872,
              37.22988079055407
            ],
            [
              126.96578112360363,
              37.22988049999728
            ],
            [
              126.965780057074,
              37.22988020916973
            ],
            [
              126.96577899065984,
              37.22987991807144
            ],
            [
              126.96577792436136,
              37.229879626702456
            ],
            [
              126.96577685817859,
              37.22987933506281
            ],
            [
              126.9657757921117,
              37.22987904315251
            ],
            [
              126.9657747261607,
              37.22987875097161
            ],
            [
              126.96577366032584,
              37.229878458520126
            ],
            [
              126.9657725946071,
              37.22987816579808
            ],
            [
              126.96577152900467,
              37.22987787280551
            ],
            [
              126.9657704635186,
              37.22987757954246
            ],
            [
              126.96576939814904,
              37.22987728600893
            ],
            [
              126.96576833289606,
              37.22987699220497
            ],
            [
              126.9657672677598,
              37.22987669813061
            ],
            [
              126.96576620274033,
              37.229876403785866
            ],
            [
              126.96576513783782,
              37.22987610917077
            ],
            [
              126.96576407305234,
              37.22987581428538
            ],
            [
              126.96576300838395,
              37.22987551912968
            ],
            [
              126.96576194383283,
              37.229875223703715
            ],
            [
              126.96576087939906,
              37.22987492800757
            ],
            [
              126.96575981508275,
              37.22987463204118
            ],
            [
              126.96575875088398,
              37.22987433580465
            ],
            [
              126.96575768680293,
              37.229874039297975
            ],
            [
              126.96575662283963,
              37.229873742521185
            ],
            [
              126.96575555899422,
              37.22987344547432
            ],
            [
              126.96575449526681,
              37.22987314815741
            ],
            [
              126.96575343165749,
              37.22987285057049
            ],
            [
              126.96575236816639,
              37.22987255271356
            ],
            [
              126.96575130479361,
              37.22987225458669
            ],
            [
              126.96575024153924,
              37.229871956189896
            ],
            [
              126.96574917840341,
              37.229871657523184
            ],
            [
              126.96574811538619,
              37.229871358586614
            ],
            [
              126.96574705248777,
              37.22987105938021
            ],
            [
              126.96574598970814,
              37.229870759903996
            ],
            [
              126.96574492704752,
              37.229870460158004
            ],
            [
              126.96574386450594,
              37.229870160142255
            ],
            [
              126.96574280208353,
              37.229869859856805
            ],
            [
              126.96574173978043,
              37.229869559301655
            ],
            [
              126.96574067759666,
              37.22986925847686
            ],
            [
              126.96573961553246,
              37.22986895738246
            ],
            [
              126.96573855358778,
              37.229868656018425
            ],
            [
              126.96573749176287,
              37.22986835438484
            ],
            [
              126.96573643005773,
              37.22986805248172
            ],
            [
              126.96573536847255,
              37.2298677503091
            ],
            [
              126.96573430700738,
              37.229867447866994
            ],
            [
              126.96573324566236,
              37.22986714515545
            ],
            [
              126.96573218443756,
              37.22986684217449
            ],
            [
              126.96573112333314,
              37.229866538924156
            ],
            [
              126.96573006234915,
              37.22986623540448
            ],
            [
              126.96572900148576,
              37.22986593161545
            ],
            [
              126.96572794074298,
              37.22986562755715
            ],
            [
              126.96572688012104,
              37.2298653232296
            ],
            [
              126.96572581961995,
              37.2298650186328
            ],
            [
              126.96572475923985,
              37.229864713766815
            ],
            [
              126.96572369898085,
              37.22986440863167
            ],
            [
              126.96572263884308,
              37.229864103227364
            ],
            [
              126.96572157882662,
              37.22986379755397
            ],
            [
              126.96572051893155,
              37.22986349161148
            ],
            [
              126.96571945915801,
              37.229863185399964
            ],
            [
              126.96571839950614,
              37.22986287891944
            ],
            [
              126.96571733997598,
              37.22986257216992
            ],
            [
              126.96571628056766,
              37.229862265151446
            ],
            [
              126.96571522128131,
              37.22986195786406
            ],
            [
              126.96571416211701,
              37.22986165030777
            ],
            [
              126.96571310307489,
              37.22986134248262
            ],
            [
              126.96571204415501,
              37.22986103438867
            ],
            [
              126.96571098535755,
              37.2298607260259
            ],
            [
              126.96570992668256,
              37.22986041739438
            ],
            [
              126.96570886813018,
              37.22986010849411
            ],
            [
              126.96570780970046,
              37.22985979932512
            ],
            [
              126.96570675139358,
              37.22985948988748
            ],
            [
              126.96570569320959,
              37.22985918018121
            ],
            [
              126.96570463514865,
              37.22985887020631
            ],
            [
              126.96570357721083,
              37.229858559962835
            ],
            [
              126.96570251939623,
              37.22985824945081
            ],
            [
              126.96570146170498,
              37.22985793867028
            ],
            [
              126.96570040413717,
              37.22985762762126
            ],
            [
              126.96569934669292,
              37.229857316303786
            ],
            [
              126.96569828937231,
              37.229857004717886
            ],
            [
              126.9656972321755,
              37.22985669286359
            ],
            [
              126.96569617510255,
              37.22985638074094
            ],
            [
              126.96569511815355,
              37.229856068349974
            ],
            [
              126.96569406132866,
              37.229855755690686
            ],
            [
              126.96569300462797,
              37.22985544276317
            ],
            [
              126.96569194805157,
              37.22985512956739
            ],
            [
              126.96569089159958,
              37.229854816103405
            ],
            [
              126.9656898352721,
              37.22985450237128
            ],
            [
              126.96568877906925,
              37.22985418837097
            ],
            [
              126.9656877229911,
              37.22985387410259
            ],
            [
              126.96568666703782,
              37.22985355956612
            ],
            [
              126.96568561120944,
              37.22985324476163
            ],
            [
              126.96568455550612,
              37.229852929689095
            ],
            [
              126.96568349992795,
              37.22985261434859
            ],
            [
              126.96568244447502,
              37.22985229874015
            ],
            [
              126.96568138914746,
              37.229851982863785
            ],
            [
              126.96568033394537,
              37.229851666719526
            ],
            [
              126.96567927886888,
              37.22985135030743
            ],
            [
              126.96567822391808,
              37.22985103362751
            ],
            [
              126.96567716909301,
              37.22985071667979
            ],
            [
              126.96567611439389,
              37.229850399464326
            ],
            [
              126.96567505982075,
              37.22985008198113
            ],
            [
              126.96567400537373,
              37.22984976423023
            ],
            [
              126.9656729510529,
              37.229849446211695
            ],
            [
              126.96567189685842,
              37.229849127925505
            ],
            [
              126.96567084279035,
              37.22984880937174
            ],
            [
              126.96566978884881,
              37.229848490550395
            ],
            [
              126.96566873503393,
              37.22984817146151
            ],
            [
              126.96566768134576,
              37.22984785210514
            ],
            [
              126.96566662778447,
              37.229847532481294
            ],
            [
              126.96566557435011,
              37.22984721259002
            ],
            [
              126.96566452104287,
              37.22984689243135
            ],
            [
              126.96566346786274,
              37.22984657200528
            ],
            [
              126.96566241480991,
              37.229846251311876
            ],
            [
              126.96566136188446,
              37.22984593035118
            ],
            [
              126.96566030908652,
              37.22984560912321
            ],
            [
              126.96565925641615,
              37.229845287627995
            ],
            [
              126.96565820387347,
              37.229844965865574
            ],
            [
              126.96565715145861,
              37.22984464383595
            ],
            [
              126.96565609917167,
              37.22984432153921
            ],
            [
              126.96565504701273,
              37.22984399897536
            ],
            [
              126.96565399498193,
              37.229843676144405
            ],
            [
              126.96565294307935,
              37.229843353046405
            ],
            [
              126.96565189130513,
              37.22984302968142
            ],
            [
              126.96565083965933,
              37.22984270604942
            ],
            [
              126.9656497881421,
              37.22984238215049
            ],
            [
              126.96564873675352,
              37.22984205798462
            ],
            [
              126.96564768549368,
              37.229841733551886
            ],
            [
              126.9656466343627,
              37.22984140885229
            ],
            [
              126.96564558336073,
              37.229841083885894
            ],
            [
              126.9656445324878,
              37.22984075865269
            ],
            [
              126.96564348174408,
              37.22984043315274
            ],
            [
              126.96564243112964,
              37.22984010738607
            ],
            [
              126.96564138064461,
              37.229839781352716
            ],
            [
              126.96564033028908,
              37.2298394550527
            ],
            [
              126.96563928006316,
              37.22983912848608
            ],
            [
              126.96563822996694,
              37.229838801652846
            ],
            [
              126.96563718000056,
              37.22983847455306
            ],
            [
              126.96563613016409,
              37.229838147186754
            ],
            [
              126.96563508045766,
              37.22983781955395
            ],
            [
              126.96563403088136,
              37.22983749165471
            ],
            [
              126.96563298143528,
              37.22983716348902
            ],
            [
              126.96563193211958,
              37.22983683505697
            ],
            [
              126.96563088293433,
              37.229836506358545
            ],
            [
              126.96562983387965,
              37.22983617739379
            ],
            [
              126.96562878495561,
              37.22983584816275
            ],
            [
              126.96562773616236,
              37.22983551866547
            ],
            [
              126.96562668749999,
              37.22983518890192
            ],
            [
              126.96562563896859,
              37.229834858872216
            ],
            [
              126.96562459056831,
              37.22983452857633
            ],
            [
              126.96562354229918,
              37.229834198014345
            ],
            [
              126.9656224941614,
              37.229833867186244
            ],
            [
              126.96562144615496,
              37.2298335360921
            ],
            [
              126.96562039828008,
              37.22983320473192
            ],
            [
              126.96561935053681,
              37.22983287310575
            ],
            [
              126.96561830292525,
              37.229832541213625
            ],
            [
              126.96561725544552,
              37.229832209055566
            ],
            [
              126.96561620809774,
              37.229831876631614
            ],
            [
              126.965615160882,
              37.22983154394181
            ],
            [
              126.9656141137984,
              37.22983121098619
            ],
            [
              126.96561306684701,
              37.22983087776478
            ],
            [
              126.96561202002802,
              37.2298305442776
            ],
            [
              126.9656109733415,
              37.22983021052471
            ],
            [
              126.96560992678751,
              37.229829876506095
            ],
            [
              126.96560888036622,
              37.22982954222185
            ],
            [
              126.96560783407772,
              37.22982920767199
            ],
            [
              126.96560678792206,
              37.22982887285654
            ],
            [
              126.96560574189941,
              37.22982853777552
            ],
            [
              126.96560469600988,
              37.229828202428976
            ],
            [
              126.96560365025353,
              37.229827866816954
            ],
            [
              126.96560260463045,
              37.22982753093947
            ],
            [
              126.96560155914082,
              37.22982719479659
            ],
            [
              126.96560051378471,
              37.22982685838829
            ],
            [
              126.96559946856223,
              37.22982652171465
            ],
            [
              126.96559842347344,
              37.229826184775696
            ],
            [
              126.96559737851851,
              37.229825847571455
            ],
            [
              126.96559633369749,
              37.22982551010195
            ],
            [
              126.96559528901052,
              37.22982517236724
            ],
            [
              126.9655942444577,
              37.22982483436737
            ],
            [
              126.96559320003915,
              37.229824496102324
            ],
            [
              126.96559215575493,
              37.229824157572175
            ],
            [
              126.96559111160522,
              37.229823818776936
            ],
            [
              126.96559006759003,
              37.229823479716664
            ],
            [
              126.96558902370954,
              37.22982314039137
            ],
            [
              126.96558797996383,
              37.229822800801095
            ],
            [
              126.965586936353,
              37.2298224609459
            ],
            [
              126.96558589287719,
              37.229822120825766
            ],
            [
              126.96558484953641,
              37.229821780440766
            ],
            [
              126.96558380633084,
              37.22982143979093
            ],
            [
              126.96558276326061,
              37.229821098876286
            ],
            [
              126.96558172032582,
              37.22982075769688
            ],
            [
              126.96558067752649,
              37.22982041625272
            ],
            [
              126.9655796348628,
              37.229820074543866
            ],
            [
              126.96557859233481,
              37.229819732570334
            ],
            [
              126.96557754994267,
              37.22981939033219
            ],
            [
              126.96557650768648,
              37.22981904782942
            ],
            [
              126.96557546556632,
              37.229818705062115
            ],
            [
              126.9655744235823,
              37.22981836203025
            ],
            [
              126.96557338173452,
              37.2298180187339
            ],
            [
              126.96557234002312,
              37.22981767517309
            ],
            [
              126.96557129844817,
              37.22981733134786
            ],
            [
              126.96557025700979,
              37.229816987258225
            ],
            [
              126.96556921570807,
              37.22981664290423
            ],
            [
              126.96556910381736,
              37.22981660588404
            ],
            [
              126.96552981727294,
              37.22980360688929
            ],
            [
              126.96545486207233,
              37.22984365350192
            ],
            [
              126.96545454898764,
              37.23050129764886
            ]
          ]
        ]
      }
    },
    {
      "type": "Feature",
      "properties": {
        "label": "유1",
        "kindergarten_name": "가칭)어천1유",
        "district": "어천",
        "establishment": "공립",
        "status": "미설립",
        "address": "매송면 숙곡리 333-1 일원",
        "document_area_m2": 2530,
        "city": "화성",
        "source_layer": "KLIP_C_UQ155",
        "source_present_sn": "41590UQ155PS202510100003",
        "shp_area_m2": 2529.98,
        "label_lng": 126.90693421,
        "label_lat": 37.25532718,
        "geometry_basis": "도시계획시설 학교용지 폴리곤(SHP)",
        "identity_basis": "2026-02-06 학교용지 현황 소재지·면적 + 사용자 제공 지구계획도 대조"
      },
      "geometry": {
        "type": "Polygon",
        "coordinates": [
          [
            [
              126.90712278695524,
              37.25504148434831
            ],
            [
              126.90661576953696,
              37.25512829941226
            ],
            [
              126.9067456266224,
              37.25561287242165
            ],
            [
              126.90725264714142,
              37.25552605681319
            ],
            [
              126.90712278695524,
              37.25504148434831
            ]
          ]
        ]
      }
    },
    {
      "type": "Feature",
      "properties": {
        "label": "유4",
        "kindergarten_name": "가칭)남양4유",
        "district": "남양뉴타운",
        "establishment": "공립",
        "status": "미설립",
        "address": "남양리 2197학",
        "document_area_m2": 3497.7,
        "city": "화성",
        "source_layer": "KLIP_C_UQ155",
        "source_present_sn": "41590UQ155PS201812310016",
        "shp_area_m2": 3497.69,
        "label_lng": 126.83628321,
        "label_lat": 37.20947258,
        "geometry_basis": "도시계획시설 학교용지 폴리곤(SHP)",
        "identity_basis": "2026-02-06 학교용지 현황 소재지·면적 + 사용자 제공 지구계획도 대조"
      },
      "geometry": {
        "type": "Polygon",
        "coordinates": [
          [
            [
              126.83661726785691,
              37.209584052179046
            ],
            [
              126.83662320150374,
              37.20954928020551
            ],
            [
              126.83662462999283,
              37.20951405143999
            ],
            [
              126.83662042522963,
              37.2094790851464
            ],
            [
              126.83661182601499,
              37.2094445632569
            ],
            [
              126.83660209968838,
              37.209410310110336
            ],
            [
              126.83658696327652,
              37.20937731089054
            ],
            [
              126.83656686661345,
              37.209345926638726
            ],
            [
              126.83653045822902,
              37.20930397747328
            ],
            [
              126.83649077882974,
              37.209263915928965
            ],
            [
              126.83644748888939,
              37.20922646236333
            ],
            [
              126.83640216810028,
              37.20919044761908
            ],
            [
              126.83635718590156,
              37.209154163016635
            ],
            [
              126.83631163910749,
              37.20911850833927
            ],
            [
              126.83626327093174,
              37.20908519241894
            ],
            [
              126.83620188804134,
              37.20913087973355
            ],
            [
              126.83612336415432,
              37.209184652468544
            ],
            [
              126.83604236730042,
              37.20923589877828
            ],
            [
              126.83595856050805,
              37.20928416766572
            ],
            [
              126.83587216889084,
              37.20932954954395
            ],
            [
              126.83583405119656,
              37.2093482379228
            ],
            [
              126.83630490396895,
              37.20988267291787
            ],
            [
              126.83643302535728,
              37.209815543661904
            ],
            [
              126.83646743263098,
              37.20979360617065
            ],
            [
              126.83649902883944,
              37.209769231939745
            ],
            [
              126.83652792585136,
              37.209742781544115
            ],
            [
              126.83655479821603,
              37.20971488665451
            ],
            [
              126.83657762032696,
              37.20968455330577
            ],
            [
              126.83659323808445,
              37.20965168700516
            ],
            [
              126.83660637902054,
              37.20961809642083
            ],
            [
              126.83661726785691,
              37.209584052179046
            ]
          ]
        ]
      }
    },
    {
      "type": "Feature",
      "properties": {
        "label": "유1",
        "kindergarten_name": "가칭)세교2-1유",
        "district": "세교2",
        "establishment": "사립",
        "status": "미설립",
        "address": "궐동 773",
        "city": "오산",
        "label_lng": 127.05058,
        "label_lat": 37.16781,
        "geometry_basis": "사용자 지정 좌표",
        "identity_basis": "2026년 미설립 유치원 현황 목록 + 사용자 제공 세교2 배치도 / 위치: 사용자 지정 좌표"
      },
      "geometry": {
        "type": "Point",
        "coordinates": [
          127.05058,
          37.16781
        ]
      }
    },
    {
      "type": "Feature",
      "properties": {
        "label": "유3",
        "kindergarten_name": "가칭)세교2-3유",
        "district": "세교2",
        "establishment": "공립",
        "status": "미설립",
        "address": "청학동 306",
        "document_area_m2": 1996.7,
        "city": "오산",
        "label_lng": 127.05177,
        "label_lat": 37.15273,
        "geometry_basis": "사용자 지정 좌표",
        "identity_basis": "2026년 미설립 유치원 현황 목록 + 사용자 제공 세교2 배치도 / 위치: 사용자 지정 좌표"
      },
      "geometry": {
        "type": "Point",
        "coordinates": [
          127.05177,
          37.15273
        ]
      }
    },
    {
      "type": "Feature",
      "properties": {
        "label": "유5",
        "kindergarten_name": "가칭)세교2-5유",
        "district": "세교2",
        "establishment": "사립",
        "status": "미설립",
        "address": "가수동 420",
        "city": "오산",
        "label_lng": 127.05117,
        "label_lat": 37.14461,
        "geometry_basis": "사용자 지정 좌표",
        "identity_basis": "2026년 미설립 유치원 현황 목록 + 사용자 제공 세교2 배치도 / 위치: 사용자 지정 좌표"
      },
      "geometry": {
        "type": "Point",
        "coordinates": [
          127.05117,
          37.14461
        ]
      }
    },
    {
      "type": "Feature",
      "properties": {
        "label": "유6",
        "kindergarten_name": "가칭)동탄6유",
        "district": "동탄2",
        "establishment": "사립",
        "status": "미설립",
        "address": "경기도 화성시 신동 342-2",
        "city": "화성",
        "geometry_basis": "KML 위치점",
        "identity_basis": "2026년 화성오산 공사립유치원 미설립 현황 + 사용자 설명",
        "label_lng": 127.142772,
        "label_lat": 37.18018
      },
      "geometry": {
        "type": "Point",
        "coordinates": [
          127.142772,
          37.18018
        ]
      }
    },
    {
      "type": "Feature",
      "properties": {
        "label": "유7",
        "kindergarten_name": "가칭)동탄7유",
        "district": "동탄2",
        "establishment": "공립",
        "status": "미설립",
        "address": "경기도 화성시 신동 562",
        "city": "화성",
        "geometry_basis": "사용자 지정 좌표",
        "identity_basis": "2026년 화성오산 공사립유치원 미설립 현황 + 사용자 설명 / 위치: 사용자 지정 좌표",
        "label_lng": 127.13504,
        "label_lat": 37.17467
      },
      "geometry": {
        "type": "Point",
        "coordinates": [
          127.13504,
          37.17467
        ]
      }
    },
    {
      "type": "Feature",
      "properties": {
        "label": "유9",
        "kindergarten_name": "가칭)동탄9유",
        "district": "동탄2",
        "establishment": "사립",
        "status": "미설립",
        "address": "경기도 화성시 산척동 827-2",
        "city": "화성",
        "geometry_basis": "주소 지오코딩",
        "identity_basis": "2026년 화성오산 공사립유치원 미설립 현황 + 사용자 설명",
        "needs_geocode": true,
        "geocode_candidates": [
          "경기도 화성시 산척동 827-2",
          "경기도 화성시 동탄구 산척동 827-2",
          "화성시 동탄구 산척동 827-2",
          "산척동 827-2"
        ]
      },
      "geometry": null
    },
    {
      "type": "Feature",
      "properties": {
        "label": "유11",
        "kindergarten_name": "가칭)동탄11유",
        "district": "동탄2",
        "establishment": "사립",
        "status": "미설립",
        "address": "경기도 화성시 장지동 999",
        "city": "화성",
        "geometry_basis": "주소 지오코딩",
        "identity_basis": "2026년 화성오산 공사립유치원 미설립 현황 + 사용자 설명",
        "needs_geocode": true,
        "geocode_candidates": [
          "경기도 화성시 장지동 999",
          "경기도 화성시 동탄구 장지동 999",
          "화성시 동탄구 장지동 999",
          "장지동 999"
        ]
      },
      "geometry": null
    },
    {
      "type": "Feature",
      "properties": {
        "label": "유13",
        "kindergarten_name": "가칭)동탄13유",
        "district": "동탄2",
        "establishment": "공립",
        "status": "미설립",
        "address": "경기도 화성시 신동 701-94",
        "city": "화성",
        "geometry_basis": "사용자 지정 좌표",
        "identity_basis": "2026년 화성오산 공사립유치원 미설립 현황 + 사용자 설명 / 위치: 사용자 지정 좌표",
        "label_lng": 127.12982,
        "label_lat": 37.18167
      },
      "geometry": {
        "type": "Point",
        "coordinates": [
          127.12982,
          37.18167
        ]
      }
    },
    {
      "type": "Feature",
      "properties": {
        "label": "유15",
        "kindergarten_name": "가칭)동탄15유",
        "district": "동탄2",
        "establishment": "사립",
        "status": "미설립",
        "address": "경기도 화성시 장지동 916",
        "city": "화성",
        "geometry_basis": "KML 위치점",
        "identity_basis": "2026년 화성오산 공사립유치원 미설립 현황 + 사용자 설명",
        "label_lng": 127.096455,
        "label_lat": 37.163032
      },
      "geometry": {
        "type": "Point",
        "coordinates": [
          127.096455,
          37.163032
        ]
      }
    },
    {
      "type": "Feature",
      "properties": {
        "label": "AK87유",
        "kindergarten_name": "가칭)AK87유치원",
        "district": "동탄2",
        "establishment": "사립",
        "status": "미설립",
        "address": "경기도 화성시 장지동 924",
        "city": "화성",
        "geometry_basis": "동탄2 A87 공동주택 블록 중심",
        "identity_basis": "2026년 화성오산 공사립유치원 미설립 현황 + 사용자 설명",
        "label_lng": 127.1048268012,
        "label_lat": 37.1643070776
      },
      "geometry": {
        "type": "Point",
        "coordinates": [
          127.1048268012,
          37.1643070776
        ]
      }
    },
    {
      "type": "Feature",
      "properties": {
        "label": "AK4유",
        "kindergarten_name": "가칭)AK4유치원",
        "district": "동탄2",
        "establishment": "사립",
        "status": "미설립",
        "address": "경기도 화성시 영천동 866",
        "city": "화성",
        "geometry_basis": "동탄2 A4-1/A4-2 공동주택 블록 내부",
        "identity_basis": "2026년 화성오산 공사립유치원 미설립 현황 + 사용자 설명",
        "label_lng": 127.1059,
        "label_lat": 37.21285
      },
      "geometry": {
        "type": "Point",
        "coordinates": [
          127.1059,
          37.21285
        ]
      }
    },
    {
      "type": "Feature",
      "properties": {
        "label": "유1",
        "kindergarten_name": "가칭)향남1유",
        "district": "향남2",
        "establishment": "사립",
        "status": "미설립",
        "city": "화성",
        "identity_basis": "사용자 제공 명칭·설립유형·좌표",
        "label_lng": 126.91494,
        "label_lat": 37.11943,
        "geometry_basis": "사용자 지정 좌표"
      },
      "geometry": {
        "type": "Point",
        "coordinates": [
          126.91494,
          37.11943
        ]
      }
    },
    {
      "type": "Feature",
      "properties": {
        "label": "유3",
        "kindergarten_name": "가칭)향남3유",
        "district": "향남2",
        "establishment": "공립",
        "status": "미설립",
        "address": "향남읍 하길리 309-20임 일원",
        "document_area_m2": 2501,
        "city": "화성",
        "identity_basis": "2026-02-06 학교용지 현황 명칭·소재지·면적 + 사용자 지정 좌표",
        "label_lng": 126.90723,
        "label_lat": 37.11002,
        "geometry_basis": "사용자 지정 좌표"
      },
      "geometry": {
        "type": "Point",
        "coordinates": [
          126.90723,
          37.11002
        ]
      }
    },
    {
      "type": "Feature",
      "properties": {
        "label": "유4",
        "kindergarten_name": "가칭)향남4유",
        "district": "향남2",
        "establishment": "공립",
        "status": "미설립",
        "address": "향남읍 하길리 산14-13임 일원",
        "document_area_m2": 2000,
        "city": "화성",
        "identity_basis": "2026-02-06 학교용지 현황 명칭·소재지·면적 + 사용자 지정 좌표",
        "label_lng": 126.92011,
        "label_lat": 37.11403,
        "geometry_basis": "사용자 지정 좌표"
      },
      "geometry": {
        "type": "Point",
        "coordinates": [
          126.92011,
          37.11403
        ]
      }
    }
  ]
}
