{
  "type": "FeatureCollection",
  "name": "planned-kindergartens-bibong",
  "features": [
    {
      "type": "Feature",
      "properties": {
        "label": "유1",
        "kindergarten_name": "가칭)비봉1유",
        "district": "비봉 공공주택지구",
        "establishment": "공립",
        "status": "공사중",
        "opening": "2029. 3.",
        "label_lng": 126.8668117,
        "label_lat": 37.2466922,
        "source_note": "택지개발 사업지구 학교용지 현황: 2029. 3. 개원예정. 기존 위치자료 좌표 사용(정확한 유치원용지 폴리곤 미확인)."
      },
      "geometry": {
        "type": "Point",
        "coordinates": [
          126.8668117,
          37.2466922
        ]
      }
    },
    {
      "type": "Feature",
      "properties": {
        "label": "유2",
        "kindergarten_name": "가칭)비봉2유",
        "district": "비봉 공공주택지구",
        "establishment": "사립",
        "status": "미설립",
        "address": "경기도 화성시 비봉면 삼화리 1912",
        "label_lng": 126.87363237148,
        "label_lat": 37.24119286657,
        "geometry_basis": "비봉 공공주택지구 가구 및 획지계획도 교육시설용지 유2를 청연초·청연중 도시계획시설 폴리곤에 정합",
        "source_note": "사립 미설립 유치원 KML의 비봉2유 위치·주소와 지구계획도 유2 위치를 대조."
      },
      "geometry": {
        "type": "Polygon",
        "coordinates": [
          [
            [
              126.873630892158,
              37.241313632396
            ],
            [
              126.873497619939,
              37.241251016171
            ],
            [
              126.873484292717,
              37.241167527872
            ],
            [
              126.873537601605,
              37.24109447561
            ],
            [
              126.873684201046,
              37.241073603535
            ],
            [
              126.873790818821,
              37.241198835984
            ],
            [
              126.873750837155,
              37.241271888246
            ],
            [
              126.873630892158,
              37.241313632396
            ]
          ]
        ]
      }
    }
  ]
}