{"type":"FeatureCollection","features":[{"type":"Feature","geometry":{"type":"Polygon","coordinates":[[[126.93739364976298,37.23790121773408],[126.93773205430227,37.237435596426735],[126.93663864693895,37.23693338843715],[126.93598019085267,37.23784980552216],[126.93706791215573,37.238349403851274],[126.9371558391652,37.23822842468371],[126.93719455312475,37.238121355844896],[126.93729647198819,37.237981124319916],[126.93739364976298,37.23790121773408]]]},"properties":{"label":"초1","school_name":"봉담3-1초","level":"초등학교","status":"미설립","district":"봉담3","address":"내리 116-2 일원","source_layer":"KLIP_C_UQ155","source_present_sn":"41590UQ155PS202601080003","shp_area_m2":13000.36,"document_area_m2":13000,"position_basis":"도시계획시설 학교부지(SHP)","identity_basis":"2026-02-06 학교용지 현황의 소재지·면적 + 사용자 제공 봉담3 지구단위계획도 대조","label_lng":126.9368522,"label_lat":37.2376388,"geometry_basis":"도시계획시설 학교용지 폴리곤(SHP)"}},{"type":"Feature","geometry":{"type":"Polygon","coordinates":[[[126.93777058971013,37.23374787018039],[126.93738141910005,37.232813188375545],[126.93616899831487,37.23313592109628],[126.93612523001819,37.233198939518],[126.93615177864501,37.23327701529782],[126.93618194652298,37.23335424607264],[126.93624874444833,37.23351468385819],[126.93632353419467,37.23360873584931],[126.93638938422204,37.23376689561721],[126.93640002140124,37.23387802390583],[126.93648798126786,37.23408928599466],[126.93777058971013,37.23374787018039]]]},"properties":{"label":"초2","school_name":"봉담3-2초","level":"초등학교","status":"미설립","district":"봉담3","address":"내리 141-1 일원","source_layer":"KLIP_C_UQ155","source_present_sn":"41590UQ155PS202601080004","shp_area_m2":12999.72,"document_area_m2":13000,"position_basis":"도시계획시설 학교부지(SHP)","identity_basis":"2026-02-06 학교용지 현황의 소재지·면적 + 사용자 제공 봉담3 지구단위계획도 대조","label_lng":126.9369404,"label_lat":37.23345,"geometry_basis":"도시계획시설 학교용지 폴리곤(SHP)"}},{"type":"Feature","geometry":{"type":"Polygon","coordinates":[[[126.94661453166191,37.23572575523588],[126.94648210104563,37.235088855341154],[126.94649850352955,37.23497538898067],[126.94647954875089,37.23483865185614],[126.94644846278082,37.234598030189396],[126.94520179957374,37.234795309131954],[126.9450826993679,37.234948157133935],[126.94523673866928,37.23540917588025],[126.94524269898614,37.23540807448363],[126.9452487389982,37.23540729880642],[126.94525483089564,37.23540685242008],[126.94526094662966,37.235406737379854],[126.9452670580417,37.23540695421544],[126.94527313699324,37.235407501928464],[126.945279155495,37.23540837799711],[126.94528508583625,37.23540957838772],[126.94529090071197,37.23541109757334],[126.94529657334888,37.235412928559235],[126.9453020776286,37.23541506291505],[126.94530738820795,37.23541749081362],[126.94531248063545,37.23542020107624],[126.94531733146415,37.235423181224085],[126.94532191835948,37.235426417535706],[126.94532622020205,37.23542989511028],[126.94533021718492,37.23543359793605],[126.94533389090488,37.235437508964196],[126.94533722444696,37.23544161018719],[126.94534020246257,37.235445882721926],[126.94534281124005,37.235450306896404],[126.94534503876781,37.235454862340504],[126.94534687478954,37.23545952807962],[126.94534831085163,37.235464282631426],[126.94534934034195,37.23546910410457],[126.94534995852042,37.23547397029964],[126.94535016254062,37.23547885881126],[126.94534996990058,37.23548352716929],[126.94534939952703,37.23548817575111],[126.94534845381462,37.23549278503822],[126.94534713673423,37.23549733567699],[126.94534545381597,37.2355018085602],[126.94534334245421,37.23550742287821],[126.94534169219027,37.23551313509334],[126.94534051001045,37.235518921023385],[126.94533980091956,37.235524756174115],[126.94533956791962,37.235530615842954],[126.94533981199702,37.2355364752235],[126.94534053211866,37.23554230951055],[126.9453417252361,37.23554809400519],[126.94534338629839,37.235553804219165],[126.94544132666094,37.235846921508085],[126.94548983712109,37.23586984106167],[126.94564186451494,37.23584341149467],[126.94579522515984,37.23582247773195],[126.94661453166191,37.23572575523588]]]},"properties":{"label":"초3","school_name":"봉담3-3초","level":"초등학교","status":"미설립","district":"봉담3","address":"상리 56-2 일원","source_layer":"KLIP_C_UQ155","source_present_sn":"41590UQ155PS202601080005","shp_area_m2":14031.89,"document_area_m2":14000,"position_basis":"도시계획시설 학교부지(SHP)","identity_basis":"2026-02-06 학교용지 현황의 소재지·면적 + 사용자 제공 봉담3 지구단위계획도 대조","label_lng":126.9458847,"label_lat":37.2352351,"geometry_basis":"도시계획시설 학교용지 폴리곤(SHP)"}},{"type":"Feature","geometry":{"type":"Polygon","coordinates":[[[126.93462697557018,37.23709656767813],[126.93400556618785,37.23639993934357],[126.9334506774099,37.23639962882446],[126.93265624911533,37.23715914573796],[126.93276108582805,37.23721207217405],[126.9328612485375,37.23727049936661],[126.93295628648602,37.23733416438487],[126.93304577197499,37.23740278072648],[126.9331293022894,37.237476039606534],[126.93320650151037,37.23755361134701],[126.93327702220674,37.23763514686024],[126.93340450925739,37.23779365976968],[126.93462697557018,37.23709656767813]]]},"properties":{"label":"중1","school_name":"봉담3-1중","level":"중학교","status":"미설립","district":"봉담3","address":"내리 110 일원","source_layer":"KLIP_C_UQ155","source_present_sn":"41590UQ155PS202601080006","shp_area_m2":15005.2,"document_area_m2":15000,"position_basis":"도시계획시설 학교부지(SHP)","identity_basis":"2026-02-06 학교용지 현황의 소재지·면적 + 사용자 제공 봉담3 지구단위계획도 대조","label_lng":126.9336432,"label_lat":37.2370354,"geometry_basis":"도시계획시설 학교용지 폴리곤(SHP)"}},{"type":"Feature","geometry":{"type":"Polygon","coordinates":[[[126.93415845003729,37.238510769942906],[126.93530518821606,37.23785685664046],[126.93462697557018,37.23709656767813],[126.93340450925739,37.23779365976968],[126.93366300497321,37.238115061770905],[126.93372009471068,37.238181480134436],[126.93378216411834,37.238244978892894],[126.93384898025906,37.2383053197328],[126.93392029237943,37.23836227619178],[126.93399583285051,37.23841563450886],[126.93407531817218,37.23846519442665],[126.93415845003729,37.238510769942906]]]},"properties":{"label":"고1","school_name":"봉담3-1고","level":"고등학교","status":"미설립","district":"봉담3","address":"내리 111-4 일원","source_layer":"KLIP_C_UQ155","source_present_sn":"41590UQ155PS202601080007","shp_area_m2":13797.66,"document_area_m2":13800,"position_basis":"도시계획시설 학교부지(SHP)","identity_basis":"2026-02-06 학교용지 현황의 소재지·면적 + 사용자 제공 봉담3 지구단위계획도 대조","label_lng":126.9343526,"label_lat":37.2378223,"geometry_basis":"도시계획시설 학교용지 폴리곤(SHP)"}},{"type":"Feature","geometry":{"type":"Polygon","coordinates":[[[126.93652357625398,37.23417477771015],[126.93693132830069,37.23515409828615],[126.93794039142497,37.23488549820189],[126.93807937752327,37.23487699109572],[126.93822463197017,37.23483832510421],[126.93780618598517,37.23383336151647],[126.93652357625398,37.23417477771015]]]},"properties":{"label":"고2","school_name":"봉담3-2고","level":"고등학교","status":"미설립","district":"봉담3","address":"내리 138-6 일원","source_layer":"KLIP_C_UQ155","source_present_sn":"41590UQ155PS202601080008","shp_area_m2":13800.36,"document_area_m2":13800,"position_basis":"도시계획시설 학교부지(SHP)","identity_basis":"2026-02-06 학교용지 현황의 소재지·면적 + 사용자 제공 봉담3 지구단위계획도 대조","label_lng":126.9373719,"label_lat":37.2344953,"geometry_basis":"도시계획시설 학교용지 폴리곤(SHP)"}}]}