{"type":"FeatureCollection","features":[{"type":"Feature","geometry":{"type":"Polygon","coordinates":[[[126.93612749916284,37.23894620672071],[126.93622774039947,37.238918787661525],[126.93632556672142,37.238886267593806],[126.93642057253109,37.23884878135],[126.93651236392648,37.23880648435282],[126.93660056033504,37.238759551970695],[126.9366847960913,37.238708178790496],[126.93676472195308,37.23865257781087],[126.9368400065499,37.238592979558746],[126.93691033775637,37.238529631133666],[126.93697542398655,37.23846279518305],[126.93631123378285,37.23815772952468],[126.93597882182225,37.23827896244199],[126.93612749916284,37.23894620672071]]]},"properties":{"label":"유1","kindergarten_name":"봉담3-1유","establishment":"계획","status":"미설립","district":"봉담3","address":"상리 486-20 일원","source_layer":"KLIP_C_UQ155","source_present_sn":"41590UQ155PS202601080001","shp_area_m2":4495.53,"document_area_m2":4500,"position_basis":"도시계획시설 유치원 부지(SHP)","identity_basis":"2026-02-06 학교용지 현황의 소재지·면적 + 사용자 제공 봉담3 지구단위계획도 대조","label_lng":126.9363943,"label_lat":37.238527,"geometry_basis":"도시계획시설 유치원용지 폴리곤(SHP)"}},{"type":"Feature","geometry":{"type":"Polygon","coordinates":[[[126.9453325784689,37.235870558681725],[126.94523451131569,37.235577060644864],[126.94523238934805,37.235571448882716],[126.94522981545074,37.23556595933128],[126.94522680052037,37.235560615230135],[126.94522335732034,37.23555543920298],[126.9452195004273,37.23555045316209],[126.94521524616911,37.23554567821542],[126.94521061255578,37.23554113457725],[126.94520561920338,37.235536841482585],[126.94520028725087,37.23553281710591],[126.94519601517702,37.235529592357906],[126.94519201486573,37.23552615197974],[126.94518830330546,37.2355225105819],[126.94518489625825,37.235518683628534],[126.94518180819308,37.23551468737186],[126.94517905222408,37.23551053878307],[126.94517664005528,37.235506255480225],[126.94517458193046,37.235501855653524],[126.9451728865899,37.235497357988],[126.94517156123334,37.23549278158419],[126.94517061148912,37.235488145876985],[126.94517004139054,37.235483470553156],[126.94516985335868,37.23547877546769],[126.94517007087872,37.235473812707404],[126.94517071521813,37.23546887369722],[126.94517178331905,37.23546398187651],[126.94517327011239,37.23545916046068],[126.94517516854206,37.235454432330954],[126.9451774695986,37.23544981992583],[126.94518016236161,37.23544534513473],[126.94518323405191,37.23544102919382],[126.94518667009194,37.2354368925855],[126.94519045417502,37.23543295494111],[126.9451945683428,37.23542923494769],[126.9451989930705,37.23542575025938],[126.94520370735931,37.235422517413674],[126.94520868883652,37.235419551752784],[126.94521391386118,37.23541686735103],[126.94521935763665,37.235414476947916],[126.9452249943281,37.23541239188762],[126.94523079718527,37.23541062206535],[126.94523673866928,37.23540917588025],[126.94517911183925,37.23523670727387],[126.94446814262535,37.23542561905803],[126.94473761402081,37.23607396291348],[126.9450803359324,37.23597062552673],[126.94530498704734,37.23590984013608],[126.9453325784689,37.235870558681725]]]},"properties":{"label":"유3","kindergarten_name":"봉담3-3유","establishment":"계획","status":"미설립","district":"봉담3","address":"상리 57-38 일원","source_layer":"KLIP_C_UQ155","source_present_sn":"41590UQ155PS202601080002","shp_area_m2":4502.68,"document_area_m2":4500,"position_basis":"도시계획시설 유치원 부지(SHP)","identity_basis":"2026-02-06 학교용지 현황의 소재지·면적 + 사용자 제공 봉담3 지구단위계획도 대조","label_lng":126.9449192,"label_lat":37.2356511,"geometry_basis":"도시계획시설 유치원용지 폴리곤(SHP)"}},{"type":"Feature","geometry":{"type":"Polygon","coordinates":[[[126.93553957,37.23207084],[126.9358852,37.23214471],[126.93595461,37.23197899],[126.93560901,37.23188671],[126.93553957,37.23207084]]]},"properties":{"label":"유2","kindergarten_name":"봉담3-2유","establishment":"사립","status":"미설립","district":"봉담3","address":"봉담읍 상리 659-2","source_name":"2026 공사립유치원현황의 가칭)봉담2유(사용자 확인: 봉담3-2유)","position_basis":"사용자 확인 위치(초2 남서쪽 교육시설용지) + 봉담3 지구단위계획도 유2 획지 대조","identity_basis":"사용자 지도 캡처의 초2 남서쪽 교육시설용지 + 봉담3 지구단위계획도 유2 표기 대조","label_lng":126.9357470975,"label_lat":37.2320203125,"geometry_basis":"봉담3 지구단위계획도 유2 획지를 초2·고2·초1·초3 공식 학교용지 폴리곤 기준으로 좌표 정합해 변환","note":"사립 미설립 유치원. 이전 v25 위치를 폐기하고 사용자 확인 위치의 교육시설용지로 재정합함."}}]}