{"type":"FeatureCollection","name":"동탄2_개교예정학교","features":[{"type":"Feature","geometry":{"type":"Polygon","coordinates":[[[127.10011104424716,37.16281848415848],[127.10010823313647,37.16221442243161],[127.10010776922661,37.162117289598335],[127.09844851612698,37.16211775736124],[127.098449691212,37.16294978617906],[127.09954941750448,37.1629496924748],[127.09991768251456,37.162950288304565],[127.09993997190544,37.16294846769394],[127.1000230241715,37.16292136718135],[127.10008115942311,37.162866715202576],[127.10011104424716,37.16281848415848]]]},"properties":{"label":"중13","school_name":"동탄13중","official_name":"화남중","level":"중학교","status":"개교예정","district":"동탄2","opening":"2027. 3.","address":"장지동 920","source_layer":"KLIP_C_UQ155","source_present_sn":"41590UQ155PS202510140018","shp_area_m2":13548.01,"position_basis":"도시계획시설 학교부지(SHP)","identity_basis":"중학교-13 · 동탄2지구 + 교육지원청 개교예정 자료","source_note":"2026-05-13 화성오산교육지원청 학교명 선정 결과","label_lng":127.0992794,"label_lat":37.1625165,"geometry_basis":"도시계획시설 학교용지 폴리곤(SHP)"}},{"type":"Feature","geometry":{"type":"Polygon","coordinates":[[[127.12123670731967,37.16866440709425],[127.12154939570662,37.168604261113444],[127.12159002773225,37.16859538966766],[127.121630320544,37.16858561750265],[127.1216703873039,37.16857530492367],[127.12171022786848,37.16856436182616],[127.12174984237963,37.16855287831515],[127.12178270360172,37.168542843323586],[127.12177242468475,37.16852203952047],[127.12181721414126,37.16850784758777],[127.12185131113928,37.16849609932922],[127.12188518222699,37.16848390076576],[127.12191894028233,37.16847143199269],[127.12195247256942,37.1684586030198],[127.12198555318768,37.16844496355236],[127.12227224258727,37.16832122802143],[127.12228544715208,37.168340857436334],[127.12252143550865,37.1682384287114],[127.12257753523592,37.16821407011703],[127.12270388891754,37.16815922926069],[127.12252819512146,37.16756309443345],[127.12247596556706,37.16757116709627],[127.12242350780453,37.167577347765445],[127.12237070967687,37.16758190686986],[127.12231768320501,37.16758448387514],[127.1222645412711,37.167585258875825],[127.12214046611633,37.16758565555292],[127.12209835640675,37.167585337989635],[127.12205027850129,37.16758448585254],[127.12101924702057,37.16777898535674],[127.12099084234814,37.16783046390978],[127.12113460219035,37.16831787660406],[127.12123670731967,37.16866440709425]]]},"properties":{"label":"고12","school_name":"동탄12고","official_name":null,"level":"고등학교","status":"개교예정","district":"동탄2","opening":"2028. 3.","address":null,"source_layer":"KLIP_C_UQ155","source_present_sn":"41590UQ155PS202510130004","shp_area_m2":12502.98,"position_basis":"도시계획시설 학교부지(SHP)","identity_basis":"고등학교-12 · 동탄2지구 + 교육지원청 개교예정 자료","source_note":"2024-10-31 화성오산교육지원청 중앙투자심사 통과 보도자료","label_lng":127.1218474,"label_lat":37.1679948,"geometry_basis":"도시계획시설 학교용지 폴리곤(SHP)"}},{"type":"Feature","properties":{"label":"고11","school_name":"동탄11고","official_name":"바른고","level":"고등학교","status":"개교예정","district":"동탄2","opening":"2027. 3.","address":"신동 264","source_layer":"KLIP_C_UQ155","position_basis":"사용자 지정 좌표","identity_basis":"고등학교-11 · 동탄2지구 + 교육지원청 개교예정 자료","source_note":"화성오산교육지원청 개교예정 학교 자료","label_lng":127.13834,"label_lat":37.18263,"geometry_basis":"사용자 지정 좌표"},"geometry":{"type":"Point","coordinates":[127.13834,37.18263]}}]}