{"type":"FeatureCollection","features":[{"type":"Feature","properties":{"label":"초1","school_name":"내삼미1초","level":"초등학교","status":"개교예정","district":"내삼미2구역","opening":"2029. 3.","address":"오산시 내삼미2구역","identity_basis":"화성오산교육지원청 교육환경보호구역 고시 + 경기도교육청 중기지방교육재정계획","source_layer":"KLIP_C_UQ155","source_present_sn":"41370UQ155PS202608240001","shp_area_m2":13545.51,"label_lng":127.06607136,"label_lat":37.18091498,"geometry_basis":"도시계획시설 학교용지 폴리곤(SHP)","city":"오산"},"geometry":{"type":"Polygon","coordinates":[[[127.06535369206331,37.18043493611627],[127.06535450139843,37.18139658774232],[127.06670940328034,37.18139584994444],[127.06678897635796,37.18133209306159],[127.0667882584916,37.180497867552546],[127.06670857677086,37.18043419834355],[127.06535369206331,37.18043493611627]]]}},{"type":"Feature","properties":{"label":"중1","school_name":"양산1중","level":"중학교","status":"개교예정","district":"양산2구역","opening":"2027. 9.","address":"오산시 양산동 121","identity_basis":"화성오산교육지원청 2027학년도 신설학교 공모(양산1중, 양산동 121)","source_layer":"KLIP_C_UQ155","source_present_sn":"41370UQ155PS201411100008","shp_area_m2":12059.15,"label_lng":127.03121858,"label_lat":37.19231182,"geometry_basis":"도시계획시설 학교용지 폴리곤(SHP)","city":"오산"},"geometry":{"type":"Polygon","coordinates":[[[127.03033930521649,37.19211630335193],[127.03052841302112,37.192336707090746],[127.03073130260863,37.192573217821845],[127.0309199169225,37.19279309843342],[127.03108161295896,37.19298159302092],[127.03132511852809,37.19284145539616],[127.0316661261942,37.192645301496015],[127.03184000744378,37.19254527705172],[127.03189094887888,37.19251600703756],[127.0319099561894,37.19250507247449],[127.0320344606851,37.19243342532908],[127.03190874244687,37.19228692956139],[127.03167143753731,37.192010504253815],[127.0315899925953,37.191915752941064],[127.03153612041781,37.191852855573494],[127.03137685960513,37.1916673974812],[127.03136356870972,37.19166516623693],[127.03127365248187,37.191650168423294],[127.03117404968738,37.19163347900059],[127.030982513855,37.19174424734524],[127.03058718935488,37.19197292239209],[127.03033930521649,37.19211630335193]]]}}]}