{"type":"FeatureCollection","name":"봉담2_개교예정학교","features":[{"type":"Feature","geometry":{"type":"Polygon","coordinates":[[[126.94171759964019,37.23007533501108],[126.94171759828856,37.2300770469865],[126.94171948250839,37.2301311103405],[126.94172248216475,37.23018535446504],[126.94172604553253,37.23023923845751],[126.94173073560935,37.23029330322604],[126.94173666536679,37.23034718841147],[126.94174372198043,37.230401074164725],[126.94175179298112,37.230454690116844],[126.94176672409368,37.23053993603175],[126.94177862201151,37.23059914035883],[126.94178176518396,37.23061436951935],[126.94179456929587,37.2306676274373],[126.94180793692306,37.23072079553344],[126.94182243163536,37.23077369388356],[126.94183794053664,37.2308265927424],[126.94185424973949,37.230879221689825],[126.94187156222132,37.23093140061977],[126.94189011455288,37.230983219754826],[126.94191001913845,37.231035039566976],[126.94193093820705,37.23108649946967],[126.94205973168467,37.23139615247437],[126.94307996659666,37.23112434788651],[126.9429777291002,37.23087335779126],[126.9429606340579,37.23083046885151],[126.94294431671025,37.23078739107513],[126.94292891234112,37.23074404343574],[126.94291452236581,37.23070042598389],[126.94290114664328,37.23065671892783],[126.9428887853113,37.230612742059996],[126.94287743829847,37.23056858548468],[126.94286710553331,37.230524339306086],[126.94285778708392,37.23047991342054],[126.94284947168003,37.230435307822695],[126.94284218171731,37.23039070273187],[126.94283590606507,37.23034591793467],[126.94283064465178,37.23030104353528],[126.94282628479107,37.23025607947799],[126.942823164465,37.23021111603433],[126.9428209456181,37.230166153036954],[126.94281974100292,37.23012110043774],[126.94281942659515,37.23007604827926],[126.94171759964019,37.23007533501108]]]},"properties":{"label":"초1","school_name":"봉담2-1초","official_name":"화담초","level":"초등학교","status":"개교예정","district":"봉담2","opening":"2027. 3.","address":"봉담읍 상리 677","source_layer":"KLIP_C_UQ155","source_present_sn":"41590UQ155PS202510140019","shp_area_m2":12999.95,"position_basis":"도시계획시설 학교부지(SHP)","identity_basis":"화담중 남측·화담고 북측 학교부지 + 교육지원청 봉담2-1초 주소/개교계획 대조","source_note":"2026-05-13 화성오산교육지원청 학교명 선정 결과","label_lng":126.94235449097582,"label_lat":37.23067469822884,"geometry_basis":"도시계획시설 학교용지 폴리곤(SHP)"}}]}